{
  "type": "FeatureCollection",
  "generator": "overpass-ide",
  "copyright": "The data included in this document is from www.openstreetmap.org. The data is made available under ODbL.",
  "timestamp": "2017-12-10T20:12:02Z",
  "features": [
    {
      "type": "Feature",
      "properties": {
        "@id": "relation/9407",
        "ISO3166-1": "AD",
        "ISO3166-1:alpha2": "AD",
        "ISO3166-1:alpha3": "AND",
        "ISO3166-1:numeric": "020",
        "admin_level": "2",
        "alt_name:af": "Prinsdom van die Valleie van Andorra",
        "alt_name:ar": "إمارة وديان أندورا",
        "alt_name:ckb": "ئەندۆرا",
        "alt_name:cs": "Andorské knížectví",
        "alt_name:el": "Ανδόρα",
        "alt_name:en": "Principality of the Valleys of Andorra",
        "alt_name:gd": "Prionnsalachd Glinntean Andorra",
        "alt_name:hu": "Andorrai Fejedelemség",
        "alt_name:kn": "ಅಂಡೋರ ರಾಜ್ಯ",
        "alt_name:mt": "Prinċipalità tal-Widien tal-Andorra",
        "alt_name:pt": "Principado dos Vales de Andorra",
        "alt_name:ro": "Principatul Văilor Andorrei",
        "alt_name:su": "Kapangéranan Lebak Andorra",
        "alt_name:tl": "Prinsipalidad ng Andorra",
        "alt_name:vi": "Công quốc Andorra",
        "alt_name:war": "Prinsipado han mga Siong han Andorra",
        "alt_name:yo": "Ilẹ̀-Ọmọba àwọn Àfonífojì ilẹ̀ Andorra",
        "boundary": "administrative",
        "flag": "http://upload.wikimedia.org/wikipedia/commons/1/19/Flag_of_Andorra.svg",
        "int_name": "Andorra",
        "is_in:continent": "Europe",
        "name": "Andorra",
        "name:ab": "Андора",
        "name:ace": "Andorra",
        "name:ady": "Андоррэ",
        "name:af": "Andorra",
        "name:ak": "Andora",
        "name:als": "Andorra",
        "name:am": "አንዶራ",
        "name:an": "Andorra",
        "name:ang": "Andorra",
        "name:ar": "أندورا",
        "name:arc": "ܐܢܕܘܪܐ",
        "name:arz": "اندورا",
        "name:ast": "Andorra",
        "name:av": "Андо́рра",
        "name:az": "Andorra",
        "name:azb": "آندورا",
        "name:ba": "Андо́рра",
        "name:bar": "Andorra",
        "name:bat-smg": "Anduora",
        "name:bcl": "Andora",
        "name:be": "Андо́ра",
        "name:be-tarask": "Андора",
        "name:bg": "Андора",
        "name:bh": "अंडोरा",
        "name:bi": "Andorra",
        "name:bm": "Andɔr",
        "name:bn": "অ্যান্ডোরা",
        "name:bo": "ཨན་ཌོར་ར།",
        "name:bpy": "এন্ডোরা",
        "name:br": "Andorra",
        "name:bs": "Andora",
        "name:bxr": "Андорра",
        "name:ca": "Andorra",
        "name:cbk-zam": "Andorra",
        "name:cdo": "Ăng-dô̤-ī",
        "name:ce": "Андо́рра",
        "name:ceb": "Andorra",
        "name:chr": "ᎠᏂᏙᎳ",
        "name:ckb": "ئەندۆرا",
        "name:co": "Andorra",
        "name:crh": "Andorra",
        "name:cs": "Andorra",
        "name:csb": "Andorra",
        "name:cu": "Андо́ра",
        "name:cv": "Андорра",
        "name:cy": "Andorra",
        "name:da": "Andorra",
        "name:de": "Andorra",
        "name:diq": "Andorra",
        "name:dsb": "Andorra",
        "name:dty": "एण्डोरा",
        "name:dv": "އެންޑޯރާ",
        "name:dz": "ཨཱན་དོ་ར",
        "name:ee": "Andorra",
        "name:el": "Ανδόρρα",
        "name:eml": "Andòra",
        "name:en": "Andorra",
        "name:eo": "Andoro",
        "name:es": "Andorra",
        "name:et": "Andorra",
        "name:eu": "Andorra",
        "name:ext": "Andorra",
        "name:fa": "آندورا",
        "name:ff": "Anndoora",
        "name:fi": "Andorra",
        "name:fiu-vro": "Andorra",
        "name:fo": "Andorra",
        "name:fr": "Andorre",
        "name:frp": "Andorra",
        "name:frr": "Andora",
        "name:fur": "Andore",
        "name:fy": "Andorra",
        "name:ga": "Andóra",
        "name:gag": "Andorra",
        "name:gd": "Andorra",
        "name:gl": "Andorra",
        "name:gn": "Andorra",
        "name:gom": "अँडोरा",
        "name:got": "𐌰𐌽𐌳𐌰𐌿𐍂𐌰",
        "name:gsw": "Andorra",
        "name:gu": "એન્ડોરા",
        "name:gv": "Andorra",
        "name:ha": "Andorra",
        "name:hak": "Andorra",
        "name:haw": "ʻAnakola",
        "name:he": "אַנְדּוֹרָה",
        "name:hi": "अण्डोरा",
        "name:hif": "Andorra",
        "name:hr": "Andora",
        "name:hsb": "Andorra",
        "name:ht": "Andora",
        "name:hu": "Andorra",
        "name:hy": "Անդորրա",
        "name:ia": "Andorra",
        "name:id": "Andorra",
        "name:ie": "Andorra",
        "name:ig": "Andorra",
        "name:ilo": "Andorra",
        "name:io": "Andora",
        "name:is": "Andorra",
        "name:it": "Andorra",
        "name:ja": "アンドラ",
        "name:jam": "Anduora",
        "name:jbo": "andoras",
        "name:jv": "Andorra",
        "name:ka": "ანდორა",
        "name:kaa": "Andorra",
        "name:kab": "Andorra",
        "name:kbd": "Андоррэ",
        "name:kg": "Andora",
        "name:ki": "Andora",
        "name:kk": "Андорра",
        "name:kl": "Andorra",
        "name:km": "អង់ដូរ៉ា",
        "name:kn": "ಅಂಡೋರ",
        "name:ko": "안도라",
        "name:koi": "Андорра",
        "name:krc": "Андорра",
        "name:ks": "اٮ۪نڑورا",
        "name:ksh": "Andorra",
        "name:ku": "Andorra",
        "name:kv": "Андорра",
        "name:kw": "Andorra",
        "name:ky": "Андорра",
        "name:la": "Andorra",
        "name:lad": "Andorra",
        "name:lb": "Andorra",
        "name:lez": "Андорра",
        "name:lg": "Andora",
        "name:li": "Andorra",
        "name:lij": "Andora",
        "name:lmo": "Andora",
        "name:ln": "Andora",
        "name:lo": "ອັງດອກ",
        "name:lrc": "آندورا",
        "name:lt": "Andora",
        "name:ltg": "Andora",
        "name:lv": "Andora",
        "name:mai": "अंडोरा",
        "name:mdf": "Андора",
        "name:mg": "Andora",
        "name:mhr": "Андорро",
        "name:mi": "Andorra",
        "name:min": "Andorra",
        "name:mk": "Андора",
        "name:ml": "അൻഡോറ",
        "name:mn": "Андорра",
        "name:mr": "आंदोरा",
        "name:mrj": "Андорра",
        "name:ms": "Andorra",
        "name:mt": "Andorra",
        "name:mwl": "Andorra",
        "name:my": "အင်ဒိုရာနိုင်ငံ",
        "name:myv": "Андорра",
        "name:mzn": "آندورا",
        "name:na": "Andorra",
        "name:nah": "Andorra",
        "name:nap": "Andorra",
        "name:nds": "Andorra",
        "name:nds-nl": "Andorra",
        "name:ne": "एण्डोरा",
        "name:nl": "Andorra",
        "name:nn": "Andorra",
        "name:no": "Andorra",
        "name:nov": "Andora",
        "name:nrm": "Aundorre",
        "name:nv": "Andówa",
        "name:oc": "Andòrra",
        "name:olo": "Andorra",
        "name:om": "Andooraa",
        "name:or": "ଆଣ୍ଡୋରା",
        "name:os": "Андоррæ",
        "name:pa": "ਅੰਡੋਰਾ",
        "name:pag": "Andorra",
        "name:pam": "Andorra",
        "name:pap": "Andorra",
        "name:pcd": "Andore",
        "name:pdc": "Andorra",
        "name:pi": "अंडोरा",
        "name:pih": "Endora",
        "name:pl": "Andora",
        "name:pms": "Andorra",
        "name:pnb": "اندورہ",
        "name:pnt": "Ανδόρρα",
        "name:ps": "اندورا",
        "name:pt": "Andorra",
        "name:qu": "Andurra",
        "name:rm": "Andorra",
        "name:rmy": "Andorra",
        "name:rn": "Andora",
        "name:ro": "Andorra",
        "name:roa-rup": "Andorra",
        "name:roa-tara": "Andorre",
        "name:ru": "Андо́рра",
        "name:rue": "Андора",
        "name:rw": "Andora",
        "name:sa": "अण्डोरा",
        "name:sah": "Андорра",
        "name:sc": "Andorra",
        "name:scn": "Andorra",
        "name:sco": "Andorrae",
        "name:sd": "انڊورا",
        "name:se": "Andorra",
        "name:sg": "Andôro",
        "name:sh": "Andora",
        "name:si": "ඇන්ඩෝරා",
        "name:simple": "Andorra",
        "name:sk": "Andorra",
        "name:sl": "Andora",
        "name:sm": "Andora",
        "name:sn": "Andorra",
        "name:so": "Andorra",
        "name:sq": "Andorra",
        "name:sr": "Андора",
        "name:srn": "Andorra",
        "name:ss": "iYandola",
        "name:stq": "Andorra",
        "name:su": "Andorra",
        "name:sv": "Andorra",
        "name:sw": "Andorra",
        "name:szl": "Andora",
        "name:ta": "அண்டோரா",
        "name:te": "అండొర్రా",
        "name:tet": "Andorra",
        "name:tg": "Андорра",
        "name:th": "อันดอร์รา",
        "name:ti": "አንዶራ",
        "name:tk": "Andorra",
        "name:tl": "Andorra",
        "name:to": "ʻEnitola",
        "name:tok": "ma Antola",
        "name:tpi": "Andora",
        "name:tr": "Andorra",
        "name:ts": "Andorra",
        "name:tt": "Андорра",
        "name:tum": "Andorra",
        "name:tw": "Andorra",
        "name:tzl": "Anduora",
        "name:udm": "Андо́рра",
        "name:ug": "ئاندوررا",
        "name:uk": "Андо́рра",
        "name:ur": "انڈورا",
        "name:uz": "Andorra",
        "name:vec": "Andora",
        "name:vep": "Andorr",
        "name:vi": "Andorra",
        "name:vls": "Andorra",
        "name:vo": "Landorän",
        "name:war": "Andorra",
        "name:wo": "Andoor",
        "name:wuu": "安道尔",
        "name:xal": "Андормудин Нутг",
        "name:xmf": "ანდორა",
        "name:yi": "אַנדאָרע",
        "name:yo": "Àndórà",
        "name:zea": "Andorra",
        "name:zh": "安道爾",
        "name:zh-classical": "安道爾",
        "name:zh-min-nan": "Andorra",
        "name:zh-yue": "安道爾",
        "name:zh_pinyin": "Āndàoěr",
        "name:zu": "I-Andora",
        "official_name": "Principat d'Andorra",
        "official_name:af": "Prinsdom van Andorra",
        "official_name:als": "Fürstentum Andorra",
        "official_name:am": "የአንዶራ ግዛት",
        "official_name:an": "Prencipato d'Andorra",
        "official_name:ar": "إمارة أندورا",
        "official_name:arc": "ܪܝܫܢܘܬܐ ܕܐܢܕܘܪܐ",
        "official_name:arz": "إمارة أندورا",
        "official_name:ast": "Principat d'Andorra",
        "official_name:az": "Andorra Knyazlığı",
        "official_name:azb": "آندورا پیرنس‌لیگی",
        "official_name:ba": "Андорра Кенәзлеге",
        "official_name:bar": "Fiaschtntum Andorra",
        "official_name:bat-smg": "Andoras konėgākštīstė",
        "official_name:be": "Кня́ства Андо́ра",
        "official_name:be-tarask": "Княства Андора",
        "official_name:bg": "Княжество Андора",
        "official_name:bn": "অ্যান্ডোরা রাজ্য",
        "official_name:bpy": "নৈতিক এন্ডোরা",
        "official_name:br": "Priñselezh Andorra",
        "official_name:bs": "Kneževina Andora",
        "official_name:bxr": "Андоррын Гүнтэ Улас",
        "official_name:ca": "Principat d'Andorra",
        "official_name:ce": "Манархи Андорра",
        "official_name:ckb": "میرنشینی ئاندۆرا",
        "official_name:co": "Principatu d'Andorra",
        "official_name:crh": "Andorra Prinsligi",
        "official_name:cs": "Andorrské knížectví",
        "official_name:cu": "Кънѧ́жьство Андо́ра",
        "official_name:cv": "Андорра княжестви",
        "official_name:cy": "Tywysogaeth Andorra",
        "official_name:da": "Fyrstendømmet Andorra",
        "official_name:de": "Fürstentum Andorra",
        "official_name:dsb": "Wjerchojstwo Andorry",
        "official_name:el": "Πριγκηπάτο της Ανδόρρας",
        "official_name:eml": "Principä d'Andòra",
        "official_name:en": "Principality of Andorra",
        "official_name:eo": "Andora Princlando",
        "official_name:es": "Principado de Andorra",
        "official_name:et": "Andorra Vürstiriik",
        "official_name:eu": "Andorrako Printzerria",
        "official_name:ext": "Prencipau d'Andorra",
        "official_name:fa": "شاهزاده‌نشین آندوررا",
        "official_name:fi": "Andorran ruhtinaskunta",
        "official_name:fiu-vro": "Andorra Vürstiriik",
        "official_name:fo": "Prinsadømið Andorra",
        "official_name:fr": "Principauté d'Andorre",
        "official_name:frp": "Principôtât d’Andorra",
        "official_name:frr": "Föörstendoom faan Andora",
        "official_name:fur": "Principât di Andorra",
        "official_name:ga": "Phrionsacht Andóra",
        "official_name:gd": "Prionnsalachd Andorra",
        "official_name:gl": "Principado de Andorra",
        "official_name:gn": "Tetã Andorra",
        "official_name:got": "𐍀𐍂𐌹𐌽𐍃𐌹𐍀𐌰𐍄 𐌳 𐌰𐌽𐌳𐍉𐍂𐍂𐌰𐌰",
        "official_name:gu": "પ્રિન્સિપાલિટી ઓફ એન્ડોરા",
        "official_name:gv": "Prinsaght Andorra",
        "official_name:he": "נְסִיכוּת אַנְדּוֹרָה",
        "official_name:hr": "Kneževina Andora",
        "official_name:hsb": "Wjerchowstwo Andorra",
        "official_name:hu": "Andorrai Hercegség",
        "official_name:ia": "Principato de Andorra",
        "official_name:id": "Kepangeranan Andorra",
        "official_name:ilo": "Principalidad ti Andorra",
        "official_name:io": "princio di Andora",
        "official_name:it": "Principato di Andorra",
        "official_name:ja": "アンドラ公国",
        "official_name:jam": "Prinspaliti a Anduora",
        "official_name:ka": "ანდორის სამთავრო",
        "official_name:kk": "Андорра княздігі",
        "official_name:km": "ក្សត្រប្រទេសអង់ដូរ៉ា",
        "official_name:kn": "ಪ್ರಿನ್ಸಿಪಾಟ್ ದ್'ಅಂಡೋರ",
        "official_name:ko": "안도라 공국",
        "official_name:koi": "Принципат Андорра",
        "official_name:krc": "Андорра Бийлик",
        "official_name:ksh": "Förstedom Andorra",
        "official_name:ku": "Mîritiya Andorrayê",
        "official_name:kv": "Андорра ӧксыув",
        "official_name:kw": "Prynseth Andorra",
        "official_name:la": "Principatus Andorrae",
        "official_name:lad": "Prinsipado de Andorra",
        "official_name:lb": "Fürstentum Andorra",
        "official_name:li": "Prinsdom Andorra",
        "official_name:lij": "Prinçipato de Andora",
        "official_name:lmo": "Principaa d'Andora",
        "official_name:ln": "Mani ya Andora",
        "official_name:lo": "ລາຊະລັດອັງດອກ",
        "official_name:lt": "Andoros Kunigaikštystė",
        "official_name:lv": "Andoras Firstiste",
        "official_name:min": "Kapangeranan Andorra",
        "official_name:mk": "Кнежество Андора",
        "official_name:ml": "പ്രിൻസിപ്പാലിറ്റി ഓഫ് അൻഡോറ",
        "official_name:mn": "Андоррын Гүнт Улс",
        "official_name:mr": "आंदोराचे राज्य",
        "official_name:ms": "Prinsipaliti Andorra",
        "official_name:mt": "Prinċipalità tal-Andorra",
        "official_name:my": "အင်ဒိုရာတောင်ကြားမင်းသားနိုင်ငံ",
        "official_name:myv": "Андорра Мастор",
        "official_name:nap": "Principato 'e Andorra",
        "official_name:nds": "Fürstendom Andorra",
        "official_name:nds-nl": "Vorstendom Andorra",
        "official_name:nl": "Vorstendom Andorra",
        "official_name:nn": "Fyrstedømet Andorra",
        "official_name:no": "Fyrstedømmet Andorra",
        "official_name:oc": "Principat d'Andòrra",
        "official_name:olo": "Andorran Ruhtinaskundu",
        "official_name:pa": "ਅੰਡੋਰਾ ਦੀ ਰਿਆਸਤ",
        "official_name:pam": "Principalidad ning Andorra",
        "official_name:pcd": "Principauté d’Andore",
        "official_name:pl": "Księstwo Andory",
        "official_name:pms": "Prinsipà d'Andorra",
        "official_name:pnt": "Πριγκηπάτο τη Ανδόρρας",
        "official_name:pt": "Principado de Andorra",
        "official_name:qu": "Andurra Awki Suyu",
        "official_name:rm": "Principadi da l’Andorra",
        "official_name:ro": "Principatul Andorrei",
        "official_name:roa-rup": "Printsipatlu Andorra",
        "official_name:roa-tara": "Prengepáte d'Andorre",
        "official_name:ru": "Кня́жество Андо́рра",
        "official_name:rue": "Князївство Андора",
        "official_name:sah": "Андорра Кинээhилигэ",
        "official_name:scn": "Principatu di Andorra",
        "official_name:sco": "Preencipality o Andorrae",
        "official_name:se": "Andorra prinsipáhta",
        "official_name:sg": "Limondo tî Andôro",
        "official_name:sh": "Principat Andora",
        "official_name:sk": "Andorrské kniežatstvo",
        "official_name:sl": "Principat Andore",
        "official_name:so": "Dowlada Andorra",
        "official_name:sq": "Principata e Andorrës",
        "official_name:sr": "Кнежевина Андора",
        "official_name:srn": "Andorrakondre",
        "official_name:su": "Kapangéranan Andorra",
        "official_name:sv": "Furstendömet Andorra",
        "official_name:sw": "Utemi wa Andorra",
        "official_name:szl": "Kśynstwo Andory",
        "official_name:ta": "அந்தோரா பிரின்சிபாலிடி",
        "official_name:te": "ప్రిన్సిపాలిటీ ఆఫ్ అండొర్రా",
        "official_name:tg": "ᏄᎬᏫᏳᏒᎢ ᎾᎿ ᎠᏂᏙᎳ",
        "official_name:th": "ราชรัฐอันดอร์รา",
        "official_name:tk": "Andorra knýazlygy",
        "official_name:tl": "Prinsipalya ng Andora",
        "official_name:tr": "Andorra Prensliği",
        "official_name:tt": "Андорра кенәзлеге",
        "official_name:udm": "Княжество Андо́рра",
        "official_name:ug": "ئاندوررا كېنەزلىكى",
        "official_name:uk": "Князівство Андорра",
        "official_name:ur": "اماراتِ انڈورا",
        "official_name:uz": "Andorra Qirolligi",
        "official_name:vec": "Principato de Andora",
        "official_name:vep": "Andorran Ruhtinazkund",
        "official_name:vi": "Thân vương quốc Andorra",
        "official_name:vls": "Prinsdom Andorra",
        "official_name:war": "Prinsipado han Andorra",
        "official_name:wo": "Pirinsipóote bu Andoor",
        "official_name:wuu": "安道尔公国",
        "official_name:yi": "די פרינציפאַליטעט פון אַנדארע",
        "official_name:yo": "Ilẹ̀-Ọmọba Andorra",
        "official_name:zh": "安道爾親王國",
        "official_name:zh-classical": "安道爾親王國",
        "official_name:zh-min-nan": "Andorra Kong-kok",
        "timezone": "Europe/Andorra",
        "type": "boundary",
        "wikidata": "Q228",
        "wikipedia": "ca:Andorra",
        "@geometry": "center"
      },
      "geometry": {
        "type": "Point",
        "coordinates": [
          1.5999809,
          42.5423797
        ]
      },
      "id": "relation/9407"
    },
    {
      "type": "Feature",
      "properties": {
        "@id": "relation/16239",
        "ISO3166-1": "AT",
        "ISO3166-1:alpha2": "AT",
        "ISO3166-1:alpha3": "AUT",
        "ISO3166-1:numeric": "040",
        "TMC:cid_58:tabcd_1:Class": "Area",
        "TMC:cid_58:tabcd_1:LCLversion": "8.00",
        "TMC:cid_58:tabcd_1:LocationCode": "9",
        "admin_level": "2",
        "alt_name:eo": "Aŭstrio",
        "boundary": "administrative",
        "currency": "EUR",
        "flag": "http://upload.wikimedia.org/wikipedia/commons/4/41/Flag_of_Austria.svg",
        "int_name": "Austria",
        "is_in:continent": "Europe",
        "name": "Österreich",
        "name:ace": "Austria",
        "name:af": "Oostenryk",
        "name:als": "Österreich",
        "name:am": "ኦስትሪያ",
        "name:an": "Austria",
        "name:ang": "Ēastrīce",
        "name:ar": "النمسا",
        "name:arc": "ܢܡܣܐ",
        "name:arz": "النمسا",
        "name:ast": "Austria",
        "name:ay": "Austriya",
        "name:az": "Avstriya",
        "name:ba": "Австрия",
        "name:bar": "Östareich",
        "name:bat-smg": "Austrėjė",
        "name:bcl": "Austriya",
        "name:be": "Аўстрыя",
        "name:be-tarask": "Аўстрыя",
        "name:bg": "Австрия",
        "name:bi": "Austria",
        "name:bn": "অস্ট্রিয়া",
        "name:bo": "ཨོ་སི་ཐྲི་ཡ།",
        "name:bpy": "অস্ট্রিয়া",
        "name:br": "Aostria",
        "name:bs": "Austrija",
        "name:bug": "Austria",
        "name:bxr": "Австри",
        "name:ca": "Àustria",
        "name:cbk-zam": "Austria",
        "name:cdo": "Ó̤-dê-lé",
        "name:ce": "Австри",
        "name:ceb": "Awstriya",
        "name:chr": "ᎠᏍᏟᏯ",
        "name:chy": "Austria",
        "name:ckb": "نەمسا",
        "name:co": "Austria",
        "name:crh": "Avstriya",
        "name:cs": "Rakousko",
        "name:csb": "Aùstrëjackô",
        "name:cu": "Аѵстрїꙗ",
        "name:cv": "Австри",
        "name:cy": "Awstria",
        "name:da": "Østrig",
        "name:de": "Österreich",
        "name:diq": "Awıstırya",
        "name:dsb": "Awstriska",
        "name:dv": "އޮސްޓްރިއާ",
        "name:dz": "ཨས་ཊི་ཡ",
        "name:ee": "Austria",
        "name:el": "Αυστρία",
        "name:en": "Austria",
        "name:eo": "Aŭstrujo",
        "name:es": "Austria",
        "name:et": "Austria",
        "name:eu": "Austria",
        "name:ext": "Áustria",
        "name:fa": "اتریش",
        "name:fi": "Itävalta",
        "name:fiu-vro": "Austria",
        "name:fo": "Eysturríki",
        "name:fr": "Autriche",
        "name:frp": "Ôtrich·e",
        "name:frr": "Ååstenrik",
        "name:fur": "Austrie",
        "name:fy": "Eastenryk",
        "name:ga": "An Ostair",
        "name:gag": "Avstriya",
        "name:gd": "An Ostair",
        "name:gl": "Austria",
        "name:gn": "Auteria",
        "name:gu": "ઑસ્ટ્રિયા",
        "name:gv": "Yn Austeyr",
        "name:hak": "O-thi-li",
        "name:haw": "ʻAukekulia",
        "name:he": "אוסטריה",
        "name:hi": "ऑस्ट्रिया",
        "name:hif": "Austria",
        "name:hr": "Austrija",
        "name:hsb": "Awstriska",
        "name:ht": "Otrich",
        "name:hu": "Ausztria",
        "name:hy": "Ավստրիա",
        "name:ia": "Austria",
        "name:id": "Austria",
        "name:ie": "Austria",
        "name:ilo": "Austria",
        "name:io": "Austria",
        "name:is": "Austurríki",
        "name:it": "Austria",
        "name:ja": "オーストリア",
        "name:jbo": "ysteraic",
        "name:jv": "Austria",
        "name:ka": "ავსტრია",
        "name:kaa": "Avstriya",
        "name:kbd": "Аустрэ",
        "name:kg": "Autriche",
        "name:kk": "Аустрия Республикасы",
        "name:kl": "Østrigi",
        "name:kn": "ಆಸ್ಟ್ರಿಯ",
        "name:ko": "오스트리아",
        "name:koi": "Австрия",
        "name:krc": "Австрия",
        "name:ksh": "Österreich",
        "name:ku": "Awistriya",
        "name:kv": "Австрия",
        "name:kw": "Estrych",
        "name:ky": "Австрия",
        "name:la": "Austria",
        "name:lad": "Ostria",
        "name:lb": "Éisträich",
        "name:lez": "Австрия",
        "name:li": "Oosteriek",
        "name:lij": "Austria",
        "name:lmo": "Austria",
        "name:ln": "Otrish",
        "name:lt": "Austrija",
        "name:ltg": "Austreja",
        "name:lv": "Austrija",
        "name:mdf": "Австрие",
        "name:mg": "Aotrisy",
        "name:mhr": "Австрий",
        "name:mi": "Ateria",
        "name:mk": "Австрија",
        "name:ml": "ഓസ്ട്രിയ",
        "name:mn": "Австри",
        "name:mr": "ऑस्ट्रिया",
        "name:mrj": "Австри",
        "name:ms": "Austria",
        "name:mt": "Awstrija",
        "name:mwl": "Áustria",
        "name:my": "သြစတြီးယားနိုင်ငံ",
        "name:na": "Oteriya",
        "name:nah": "Austria",
        "name:nds": "Öösterriek",
        "name:nds-nl": "Oostnriek",
        "name:ne": "अष्ट्रीया",
        "name:new": "अस्त्रिया",
        "name:nl": "Oostenrijk",
        "name:nn": "Austerrike",
        "name:no": "Østerrike",
        "name:nov": "Austria",
        "name:nrm": "Autriche",
        "name:nv": "Óóswiya",
        "name:oc": "Àustria",
        "name:or": "ଅଷ୍ଟ୍ରିଆ",
        "name:os": "Австри",
        "name:pa": "ਆਸਟਰੀਆ",
        "name:pag": "Austria",
        "name:pam": "Austria",
        "name:pap": "Austria",
        "name:pcd": "Otriche",
        "name:pdc": "Eestereich",
        "name:pfl": "Eestraisch",
        "name:pih": "Ostriya",
        "name:pl": "Austria",
        "name:pms": "Àustria",
        "name:pnb": "آسٹریا",
        "name:pnt": "Αυστρία",
        "name:prefix:at": "Republik",
        "name:ps": "اتريش",
        "name:pt": "Áustria",
        "name:qu": "Awstiriya",
        "name:rm": "Austria",
        "name:rmy": "Austriya",
        "name:ro": "Austria",
        "name:roa-rup": "Austria",
        "name:roa-tara": "Austrie",
        "name:ru": "Австрия",
        "name:rue": "Австрія",
        "name:rw": "Ositiriya",
        "name:sa": "आस्ट्रिया",
        "name:sah": "Австрия",
        "name:sc": "Àustria",
        "name:scn": "Austria",
        "name:sco": "Austrick",
        "name:se": "Nuortariika",
        "name:sh": "Austrija",
        "name:si": "ඔස්ට්‍රියාව",
        "name:sk": "Rakúsko",
        "name:sl": "Avstrija",
        "name:sm": "Austilia",
        "name:so": "Austriya",
        "name:sq": "Austria",
        "name:sr": "Аустрија",
        "name:ss": "IYosithiya",
        "name:st": "Austria",
        "name:stq": "Aastriek",
        "name:su": "Austria",
        "name:sv": "Österrike",
        "name:sw": "Austria",
        "name:szl": "Austrijo",
        "name:ta": "ஆஸ்திரியா",
        "name:te": "ఆస్ట్రియా",
        "name:tet": "Áustria",
        "name:tg": "Утриш",
        "name:th": "ประเทศออสเตรีย",
        "name:tk": "Awstriýa",
        "name:tl": "Austria",
        "name:tok": "ma Esalasi",
        "name:tpi": "Ostria",
        "name:tr": "Avusturya",
        "name:tt": "Австрия",
        "name:tzl": "Austria",
        "name:udm": "Австрия",
        "name:ug": "ئاۋستىرىيە",
        "name:uk": "Австрія",
        "name:ur": "آسٹریا",
        "name:uz": "Avstriya",
        "name:vec": "Àustria",
        "name:vep": "Avstrii",
        "name:vi": "Áo",
        "name:vls": "Ôostnryk",
        "name:vo": "Lösterän",
        "name:war": "Austrya",
        "name:wo": "Otris",
        "name:wuu": "奥地利",
        "name:xal": "Өстрмүдин Орн",
        "name:xmf": "ავსტრია",
        "name:yi": "עסטרייך",
        "name:yo": "Austríà",
        "name:zea": "Oesteriek",
        "name:zh": "奧地利",
        "name:zh-classical": "奧地利",
        "name:zh-min-nan": "Ò-tē-lī",
        "name:zh-yue": "奧地利",
        "name:zu": "I-Ostriya",
        "official_name": "Republik Österreich",
        "official_name:be": "Рэспубліка Аўстрыя",
        "official_name:be-tarask": "Рэспубліка Аўстрыя",
        "official_name:cs": "Rakouská republika",
        "official_name:el": "Δημοκρατία της Αυστρίας",
        "official_name:eo": "Respubliko Aŭstrujo",
        "ref:at:gkz": "0",
        "timezone": "Europe/Vienna",
        "type": "boundary",
        "wikidata": "Q40",
        "wikipedia": "de:Österreich",
        "@geometry": "center"
      },
      "geometry": {
        "type": "Point",
        "coordinates": [
          13.3457623,
          47.6964012
        ]
      },
      "id": "relation/16239"
    },
    {
      "type": "Feature",
      "properties": {
        "@id": "relation/53292",
        "ISO3166-1": "AL",
        "ISO3166-1:alpha2": "AL",
        "ISO3166-1:alpha3": "ALB",
        "ISO3166-1:numeric": "008",
        "admin_level": "2",
        "alt_name:ab": "Албаниа",
        "alt_name:eo": "Albanio",
        "alt_name:qu": "Shkipirya",
        "alt_name:rmy": "Albaniya",
        "alt_name:roa-rup": "Arbinișia",
        "alt_name:tt": "Арнаутлык",
        "alt_name:uk": "Шкіперія",
        "alt_name:war": "Albania",
        "boundary": "administrative",
        "capital": "Tirana",
        "flag": "http://upload.wikimedia.org/wikipedia/commons/3/36/Flag_of_Albania.svg",
        "int_name": "Albania",
        "name": "Shqipëria",
        "name:ab": "Арнауыҭтәыла",
        "name:ace": "Albania",
        "name:ady": "Албание",
        "name:af": "Albanië",
        "name:ak": "Albania",
        "name:als": "Albanien",
        "name:am": "አልባኒያ",
        "name:an": "Albania",
        "name:ang": "Albania",
        "name:ar": "ألبانيا",
        "name:arc": "ܐܠܒܢܝܐ",
        "name:arz": "البانيا",
        "name:as": "আলবেনিয়া",
        "name:ast": "Albania",
        "name:av": "Алба́ния",
        "name:az": "Albaniya",
        "name:azb": "آلبانی",
        "name:ba": "Алба́ния",
        "name:bar": "Oibanien",
        "name:bat-smg": "Albanėjė",
        "name:bcl": "Albanya",
        "name:be": "Алба́нія",
        "name:be-tarask": "Альба́нія",
        "name:bg": "Албания",
        "name:bh": "अल्बानिया",
        "name:bi": "Albania",
        "name:bm": "Alibani",
        "name:bn": "আলবেনিয়া",
        "name:bo": "ཨལ་པ་ཉི་ཡ།",
        "name:bpy": "আলবেনিয়া",
        "name:br": "Albania",
        "name:bs": "Albanija",
        "name:bxr": "Албани",
        "name:ca": "Albània",
        "name:cbk-zam": "Albania",
        "name:cdo": "Albania",
        "name:ce": "Алба́ни",
        "name:ceb": "Albanya",
        "name:chr": "ᎠᎸᏇᏂᏯ",
        "name:ckb": "ئالبانیا",
        "name:co": "Albania",
        "name:crh": "Arnavutlıq",
        "name:cs": "Albánie",
        "name:csb": "Albańskô",
        "name:cu": "Алванїꙗ",
        "name:cv": "Албани",
        "name:cy": "Albania",
        "name:da": "Albanien",
        "name:de": "Albanien",
        "name:diq": "Arnawutiye",
        "name:dsb": "Albańska",
        "name:dty": "अल्बानिया",
        "name:dv": "އަލްބޭނިއާ",
        "name:dz": "ཨཱལ་བེ་ནི་ཡ",
        "name:ee": "Albania",
        "name:el": "Αλβανία",
        "name:eml": "Albanî",
        "name:en": "Albania",
        "name:eo": "Albanujo",
        "name:es": "Albania",
        "name:et": "Albaania",
        "name:eu": "Albania",
        "name:ext": "Albánia",
        "name:fa": "آلبانی",
        "name:ff": "Albaniya",
        "name:fi": "Albania",
        "name:fiu-vro": "Albaania",
        "name:fo": "Albania",
        "name:fr": "Albanie",
        "name:frp": "Albanie",
        "name:frr": "Albaanien",
        "name:fur": "Albanie",
        "name:fy": "Albaanje",
        "name:ga": "An Albáin",
        "name:gag": "Albaniya",
        "name:gd": "Albàinia",
        "name:gl": "Albania",
        "name:gn": "Avaña",
        "name:gom": "अल्बानिया",
        "name:got": "𐌰𐌻𐌱𐌰𐌽𐌾𐌰",
        "name:gu": "આલ્બેનિયા",
        "name:gv": "Yn Albaan",
        "name:ha": "Albaniya",
        "name:hak": "Â-ngì-pâ-nì-â",
        "name:haw": "‘Alepania",
        "name:he": "אַלְבַּנְיָה",
        "name:hi": "अल्बानिया",
        "name:hif": "Albania",
        "name:hr": "Albanija",
        "name:hsb": "Albanska",
        "name:ht": "Albani",
        "name:hu": "Albánia",
        "name:hy": "Ալբանիա",
        "name:ia": "Albania",
        "name:id": "Albania",
        "name:ie": "Albania",
        "name:ig": "Albania",
        "name:ilo": "Albania",
        "name:io": "Albania",
        "name:is": "Albanía",
        "name:it": "Albania",
        "name:ja": "アルバニア",
        "name:jam": "Albienia",
        "name:jbo": "ckipyris",
        "name:jv": "Albania",
        "name:ka": "ალბანეთი",
        "name:kaa": "Albaniya",
        "name:kab": "Albanya",
        "name:kbd": "Албаниэ",
        "name:kg": "Albania",
        "name:ki": "Arũmbĩnia",
        "name:kk": "Албания",
        "name:kl": "Albania",
        "name:km": "អាល់បានី",
        "name:kn": "ಅಲ್ಬೇನಿಯ",
        "name:ko": "알바니아",
        "name:koi": "Штипри́я",
        "name:krc": "Албания",
        "name:ks": "اٮ۪لبانِیا",
        "name:ksh": "Albanien",
        "name:ku": "Albanya",
        "name:kv": "Албания",
        "name:kw": "Albani",
        "name:ky": "Албания",
        "name:la": "Albania",
        "name:lad": "אלבאניה",
        "name:lb": "Albanien",
        "name:lg": "Alibaniya",
        "name:li": "Albanië",
        "name:lij": "Albania",
        "name:lmo": "Albania",
        "name:ln": "Albania",
        "name:lo": "ແອລເບເນຍ",
        "name:lrc": "آلبانی",
        "name:lt": "Albanija",
        "name:ltg": "Albaneja",
        "name:lv": "Albānija",
        "name:mai": "अल्बानिया",
        "name:mdf": "Албания",
        "name:mg": "Albania",
        "name:mhr": "Албаний",
        "name:mi": "Arapeinia",
        "name:min": "Albania",
        "name:mk": "Албанија",
        "name:ml": "അൽബേനിയ",
        "name:mn": "Албани",
        "name:mr": "आल्बेनिया",
        "name:mrj": "Албани",
        "name:ms": "Albania",
        "name:mt": "Albanija",
        "name:mwl": "Albánia",
        "name:my": "အယ်လ်ဘေးနီးယား၏",
        "name:myv": "Албания",
        "name:mzn": "آلبانی",
        "name:na": "Arbainiya",
        "name:nah": "Albania",
        "name:nap": "Albania",
        "name:nds": "Albanien",
        "name:nds-nl": "Albanië",
        "name:ne": "अल्बानिया",
        "name:new": "अल्बानिया",
        "name:nl": "Albanië",
        "name:nn": "Albania",
        "name:no": "Albania",
        "name:nov": "Albania",
        "name:nv": "Dziłigaii Bikéyah",
        "name:oc": "Albania",
        "name:olo": "Albuanii",
        "name:om": "Albeeniyaa",
        "name:or": "ଆଲବାନିଆ",
        "name:os": "Албани",
        "name:pa": "ਅਲਬਾਨੀਆ",
        "name:pag": "Shqip",
        "name:pam": "Albania",
        "name:pap": "Albania",
        "name:pcd": "Albanie",
        "name:pdc": "Albaani",
        "name:pi": "अल्बानिया",
        "name:pih": "Elbanya",
        "name:pl": "Albania",
        "name:pms": "Albanìa",
        "name:pnb": "البانیا",
        "name:pnt": "Αλβανία",
        "name:ps": "البانیا",
        "name:pt": "Albânia",
        "name:qu": "Albanya",
        "name:rm": "Albania",
        "name:rmy": "Shkiperiya",
        "name:rn": "Alubaniya",
        "name:ro": "Albania",
        "name:roa-rup": "Arbinishia",
        "name:roa-tara": "Albanie",
        "name:ru": "Алба́ния",
        "name:rue": "Албанія",
        "name:rw": "Alubaniya",
        "name:sa": "अल्बेनिया",
        "name:sah": "Албания",
        "name:sc": "Albania",
        "name:scn": "Albanìa",
        "name:sco": "Albanie",
        "name:se": "Albánia",
        "name:sg": "Albanïi",
        "name:sh": "Albanija",
        "name:si": "ඇල්බේනියාව",
        "name:sk": "Albánsko",
        "name:sl": "Albanija",
        "name:sn": "Albania",
        "name:so": "Albania",
        "name:sq": "Shqipëria",
        "name:sr": "Албанија",
        "name:srn": "Albanikondre",
        "name:ss": "I-Alibheniya",
        "name:st": "Albania",
        "name:stq": "Albanien",
        "name:su": "Albania",
        "name:sv": "Albanien",
        "name:sw": "Albania",
        "name:szl": "Albańijo",
        "name:ta": "அல்பேனியா",
        "name:te": "అల్బేనియా",
        "name:tet": "Albánia",
        "name:tg": "Албания",
        "name:th": "ประเทศแอลเบเนีย",
        "name:ti": "አልባኒያ",
        "name:tk": "Albaniýa",
        "name:tl": "Albanya",
        "name:to": "ʻAlipania",
        "name:tok": "ma Sipe",
        "name:tpi": "Albenia",
        "name:tr": "Arnavutluk",
        "name:ts": "Albania",
        "name:tt": "Албания",
        "name:tum": "Albania",
        "name:tw": "Albania",
        "name:ty": "Arapania",
        "name:tzl": "Schqiperia",
        "name:udm": "Албания",
        "name:ug": "ئالبانىيە",
        "name:uk": "Алба́нія",
        "name:ur": "البانیا",
        "name:uz": "Albaniya",
        "name:vec": "Albanìa",
        "name:vep": "Albanii",
        "name:vi": "Albania",
        "name:vls": "Albanië",
        "name:vo": "Lalbanän",
        "name:war": "Albanya",
        "name:wo": "Albaani",
        "name:wuu": "阿尔巴尼亚",
        "name:xal": "Арнгудин Орн",
        "name:xmf": "ალბანეთი",
        "name:yi": "אלבאניע",
        "name:yo": "Albáníà",
        "name:zea": "Albanië",
        "name:zh": "阿爾巴尼亞",
        "name:zh-classical": "阿爾巴尼亞",
        "name:zh-min-nan": "Albania",
        "name:zh-yue": "阿爾巴尼亞",
        "name:zh_pinyin": "Āěrbāníyà",
        "name:zu": "I-Albaniya",
        "official_name": "Republika e Shqipërisë",
        "official_name:ab": "Арнауыҭтәыла Аҳәынҭқарра",
        "official_name:ace": "Rèpublik Albania",
        "official_name:ady": "Республикэу Албание",
        "official_name:af": "Republiek Albanië",
        "official_name:als": "Republik Albanie",
        "official_name:am": "የኣልባኒያ ሬፑብሊክ",
        "official_name:ang": "Albania Cynewise",
        "official_name:ar": "جمهورية ألبانيا",
        "official_name:arc": "ܩܘܛܢܝܘܬܐ ܕܐܠܒܢܝܐ",
        "official_name:av": "Респу́блика Алба́ния",
        "official_name:az": "Albaniya Respublikası",
        "official_name:ba": "Албания Республикаһы",
        "official_name:bat-smg": "Albanėjės Respoblėka",
        "official_name:bcl": "Republika kan Albanya",
        "official_name:be": "Рэспу́бліка Алба́нія",
        "official_name:be-tarask": "Рэспубліка Альбанія",
        "official_name:bg": "Република Албания",
        "official_name:bn": "প্রজাতন্ত্রী আলবেনিয়া",
        "official_name:bpy": "প্রজাতন্ত্রি আলবেনিয়া",
        "official_name:br": "Republik Albania",
        "official_name:bs": "Republika Albanija",
        "official_name:ce": "Албани Республика",
        "official_name:ceb": "Republika sa Albanya",
        "official_name:chr": "ᏍᎦᏚᎩ ᎾᎿ ᎠᎵᏇᏂᏯ",
        "official_name:ckb": "کۆماری ئالبانیا",
        "official_name:co": "Republica d'Albania",
        "official_name:crh": "Arnavutlıq Cumhuriyeti",
        "official_name:cs": "Albánská republika",
        "official_name:cu": "Алвані́ꙗ Димократі́ꙗ",
        "official_name:cv": "Албани республики",
        "official_name:cy": "Gweriniaeth Albania",
        "official_name:da": "Republikken Albanien",
        "official_name:de": "Republik Albanien",
        "official_name:dsb": "Republika Albańska",
        "official_name:dty": "गणतन्त्र अल्बानिया",
        "official_name:el": "Δημοκρατία της Αλβανίας",
        "official_name:eml": "Repóbblica d'l Albanî",
        "official_name:en": "Republic of Albania",
        "official_name:eo": "Respubliko Albanujo",
        "official_name:es": "República de Albania",
        "official_name:et": "Albaania Vabariik",
        "official_name:eu": "Albaniako Errepublika",
        "official_name:ext": "Repúbrica d'Albánia",
        "official_name:fa": "جمهوری آلبانی",
        "official_name:ff": "Republik bu Albaniya",
        "official_name:fi": "Albanian tasavalta",
        "official_name:fiu-vro": "Albaania Vabariik",
        "official_name:fo": "Lýðveldið Albania",
        "official_name:fr": "République d'Albanie",
        "official_name:frr": "Republiik faan Albaanien",
        "official_name:ga": "Poblacht na hAlbáine",
        "official_name:gd": "Poblachd Albàinia",
        "official_name:gl": "República de Albania",
        "official_name:gn": "Tetã Avaña",
        "official_name:gu": "આલ્બેનિયા ગણરાજ્ય",
        "official_name:gv": "Pobblaght ny h-Albaan",
        "official_name:haw": "Lepupalika o ʻAlepania",
        "official_name:he": "רֶפּוּבְּלִיקַת אַלְבַּנְיָה",
        "official_name:hi": "अल्बानिया गणराज्य",
        "official_name:hr": "Republika Albanija",
        "official_name:hsb": "Albanska republika",
        "official_name:hu": "Albán Köztársaság",
        "official_name:hy": "Ալբանիայի Հանրապետություն",
        "official_name:ia": "Republica de Albania",
        "official_name:id": "Republik Albania",
        "official_name:ig": "Republic nke Albania",
        "official_name:ilo": "Republika iti Albania",
        "official_name:is": "Lýðveldið Albanía",
        "official_name:it": "Repubblica d'Albania",
        "official_name:ja": "アルバニア共和国",
        "official_name:jam": "Ripoblik a Albienia",
        "official_name:ka": "ალბანეთის რესპუბლიკა",
        "official_name:kbd": "Алба́ниэ Респу́бликэ",
        "official_name:kg": "Repubilika ya Albania",
        "official_name:kk": "Албания Республикасы",
        "official_name:kl": "Kunngiitsuuffik Albania",
        "official_name:km": "ប្រទេសអាល់បានី",
        "official_name:kn": "ಅಲ್ಬೇನಿಯ ಗಣರಾಜ್ಯ",
        "official_name:ko": "알바니아 공화국",
        "official_name:koi": "Штиптар Республика",
        "official_name:krc": "Албания Республика",
        "official_name:ku": "Komara Albanyayê",
        "official_name:kv": "Албания Республика",
        "official_name:kw": "Repoblek Albani",
        "official_name:ky": "Албан Республикасы",
        "official_name:lad": "Republika de Albania",
        "official_name:lb": "Republik Albanien",
        "official_name:lmo": "Republica de Albania",
        "official_name:ln": "Republíki ya Albania",
        "official_name:lrc": "کوٙمأره ڤولات آلبانی",
        "official_name:lt": "Albanijos Respublika",
        "official_name:lv": "Albānijas Republika",
        "official_name:mai": "अल्बानिया गणराज्य",
        "official_name:mk": "Република Албанија",
        "official_name:mn": "Бүгд Найрамдах Албани Улс",
        "official_name:mr": "आल्बेनियाचे प्रजासत्ताक",
        "official_name:mrj": "Респу́блика Алба́ния",
        "official_name:ms": "Republik Albania",
        "official_name:mt": "Repubblika tal-Albanija",
        "official_name:my": "အယ်လ်ဘေးနီးယား သမ္မတနိုင်ငံ",
        "official_name:myv": "Албания Мастор",
        "official_name:nah": "Tlācatlahtohcāyōtl Albania",
        "official_name:nap": "Repubbreca 'e Albania",
        "official_name:nds": "Republiek Albanien",
        "official_name:nds-nl": "Reppubliek Albanië",
        "official_name:ne": "गणतन्त्र अल्बानिया",
        "official_name:new": "अल्बानिया गणराज्य",
        "official_name:nl": "Republiek Albanië",
        "official_name:nn": "Republikken Albania",
        "official_name:no": "Republikken Albania",
        "official_name:nov": "Republike de Albania",
        "official_name:or": "ଆଲବାନିଆ ଗଣତନ୍ତ୍ର",
        "official_name:os": "Республикæ Албани",
        "official_name:pa": "ਅਲਬਾਨੀਆ ਦਾ ਗਣਰਾਜ",
        "official_name:pam": "Republika ning Albania",
        "official_name:pap": "Republika di Albania",
        "official_name:pcd": "République d'Albanie",
        "official_name:pl": "Republika Albanii",
        "official_name:pnt": "Δημοκρατίαν τ' Αλβανίας",
        "official_name:ps": "د البانيا جمهوريت",
        "official_name:pt": "República da Albânia",
        "official_name:qu": "Albanya Ripuwlika",
        "official_name:rm": "Republica Albania",
        "official_name:ro": "Republica Albania",
        "official_name:roa-rup": "Republica Arbinishia",
        "official_name:roa-tara": "Repubbleche de Albanie",
        "official_name:ru": "Респу́блика Алба́ния",
        "official_name:rue": "Албаньска републіка",
        "official_name:rw": "Repebulika y’Alubaniya",
        "official_name:sah": "Албания Республиката",
        "official_name:sco": "Republic o Albanie",
        "official_name:se": "Albánia dásseváldi",
        "official_name:sh": "Republika Albanija",
        "official_name:sk": "Albánska republika",
        "official_name:sl": "Republika Albanija",
        "official_name:so": "Jamhuuriyadda Albania",
        "official_name:sq": "Republika e Shqipërisë",
        "official_name:sr": "Република Албанија",
        "official_name:srn": "Repoliku fu Albani",
        "official_name:sv": "Republiken Albanien",
        "official_name:sw": "Jamhuri ya Albania",
        "official_name:szl": "Republika Albańije",
        "official_name:ta": "அல்பேனிய குடியரசு",
        "official_name:te": "రిపబ్లిక్ ఆఫ్ అల్బేనియా",
        "official_name:tet": "Repúblika Albánia niam",
        "official_name:tg": "Ҷумҳурии Албания",
        "official_name:th": "สาธารณรัฐแอลเบเนีย",
        "official_name:tk": "Albaniýa Respublikasy",
        "official_name:tl": "Republika ng Albanya",
        "official_name:tpi": "Ripablik bilong Albenia",
        "official_name:tr": "Arnavutluk Cumhuriyeti",
        "official_name:tt": "Албания Җөмһүрияте",
        "official_name:udm": "Республика Албания",
        "official_name:uk": "Республіка Албанія",
        "official_name:ur": "جمہوریہ البانیا",
        "official_name:uz": "Albaniya Respublikasi",
        "official_name:vec": "Repubblica di Albania",
        "official_name:vep": "Albanijan Tazovaldkund",
        "official_name:vi": "Cộng hoà Albania",
        "official_name:vls": "Republiek Albanië",
        "official_name:war": "Republika han Albanya",
        "official_name:wo": "Republik bu Albaani",
        "official_name:wuu": "阿爾巴尼亞共和國",
        "official_name:yo": "Orílẹ̀òmìnira ilẹ̀ Albáníà",
        "official_name:zea": "Rippebliek Albanië",
        "official_name:zh": "阿尔巴尼亚共和国",
        "official_name:zh-classical": "阿爾巴尼亞共和國",
        "official_name:zh-min-nan": "Albania Kiōng-hô-kok",
        "official_name:zh-yue": "阿爾巴尼亞共和國",
        "population": "2876591",
        "ref": "AL",
        "ref:nuts": "AL",
        "ref:nuts:1": "AL",
        "timezone": "Europe/Tirane",
        "type": "boundary",
        "wikidata": "Q222",
        "wikipedia": "sq:Shqipëria",
        "@geometry": "center"
      },
      "geometry": {
        "type": "Point",
        "coordinates": [
          20.0910215,
          41.1529736
        ]
      },
      "id": "relation/53292"
    },
    {
      "type": "Feature",
      "properties": {
        "@id": "relation/80500",
        "ISO3166-1": "AU",
        "ISO3166-1:alpha2": "AU",
        "ISO3166-1:alpha3": "AUS",
        "ISO3166-1:numeric": "036",
        "admin_level": "2",
        "alt_name:af": "Gemenebes van Australië",
        "alt_name:arc": "ܐܘܣܬܪܠܝܐ",
        "alt_name:ca": "Mancomunitat d'Austràlia",
        "alt_name:chr": "ᎡᎳᏗᏜ",
        "alt_name:gn": "Auterália",
        "alt_name:hak": "Au-chû",
        "alt_name:kab": "Ostṛalya",
        "alt_name:mi": "Whenua Moemoeā",
        "alt_name:nv": "Bichʼáh Yiisdiisí Bikéyah",
        "alt_name:rw": "Australiya",
        "alt_name:sk": "Austrálske spoločenstvo",
        "alt_name:sv": "Samväldet Australien",
        "alt_name:ta": "அவுஸ்திரேலியா",
        "alt_name:war": "Australia",
        "alt_name:zu": "I-Australiya",
        "border_type": "territorial",
        "boundary": "administrative",
        "contact:website": "http://australia.gov.au",
        "flag": "http://upload.wikimedia.org/wikipedia/commons/b/b9/Flag_of_Australia.svg",
        "int_name": "Australia",
        "is_in:continent": "Oceania",
        "maritime": "yes",
        "name": "Australia",
        "name:ab": "Австралиа",
        "name:ace": "Australia",
        "name:ady": "Аустралие",
        "name:af": "Australië",
        "name:als": "Australie",
        "name:am": "አውስትራልያ",
        "name:an": "Australia",
        "name:ang": "Australia",
        "name:ar": "أستراليا",
        "name:arc": "ܐܘܣܛܪܠܝܐ",
        "name:arz": "اوستراليا",
        "name:as": "অষ্ট্ৰেলিয়া",
        "name:ast": "Australia",
        "name:ay": "Australla",
        "name:az": "Avstraliya",
        "name:azb": "استرالیا",
        "name:ba": "Австралия",
        "name:bar": "Australien",
        "name:bat-smg": "Australėjė",
        "name:bcl": "Australya",
        "name:be": "Аўстра́лія",
        "name:be-tarask": "Аўстра́лія",
        "name:bg": "Австралия",
        "name:bh": "ऑस्ट्रेलिया",
        "name:bi": "Ostrelia",
        "name:bjn": "Australia",
        "name:bm": "Ostralia",
        "name:bn": "অস্ট্রেলিয়া",
        "name:bo": "ཨོ་སེ་ཐེ་ལི་ཡ།",
        "name:bpy": "অস্ট্রেলিয়া",
        "name:br": "Aostralia",
        "name:bs": "Australija",
        "name:bxr": "Австрали",
        "name:ca": "Austràlia",
        "name:cbk-zam": "Australia",
        "name:cdo": "Ó̤-ciŭ",
        "name:ce": "Австра́ли",
        "name:ceb": "Awstralya",
        "name:chr": "ᏒᎳᏗᏝ",
        "name:ckb": "ئۆسترالیا",
        "name:co": "Australia",
        "name:crh": "Avstraliya",
        "name:cs": "Austrálie",
        "name:cu": "Аѵстралїꙗ",
        "name:cv": "Австрали",
        "name:cy": "Awstralia",
        "name:da": "Australien",
        "name:de": "Australien",
        "name:diq": "Awıstralya",
        "name:dsb": "Awstralska",
        "name:dty": "अस्ट्रेलिया",
        "name:dv": "އޮސްޓަރުލިޔާ",
        "name:dz": "ཨས་ཊེཡེ་ལི་ཡ",
        "name:ee": "Australia",
        "name:el": "Αυστραλία",
        "name:eml": "Austràglia",
        "name:en": "Australia",
        "name:eo": "Aŭstralio",
        "name:es": "Australia",
        "name:et": "Austraalia",
        "name:eu": "Australia",
        "name:ext": "Austrália",
        "name:fa": "استرالیا",
        "name:fi": "Australia",
        "name:fiu-vro": "Austraalia",
        "name:fo": "Avstralia",
        "name:fr": "Australie",
        "name:frp": "Ôstralie",
        "name:frr": "Austraalien",
        "name:fur": "Australie",
        "name:fy": "Austraalje",
        "name:ga": "Astráil",
        "name:gag": "Avstraliya",
        "name:gan": "澳大利亞",
        "name:gd": "Astràilia",
        "name:gl": "Australia",
        "name:gn": "Autaralia",
        "name:gom": "ऑस्ट्रेलिया",
        "name:gu": "ઑસ્ટ્રેલિયા",
        "name:gv": "Austrail",
        "name:ha": "Asturaliya",
        "name:hak": "Àu-thai-li-â",
        "name:haw": "‘Aukekulelia",
        "name:he": "אוסטרליה",
        "name:hi": "ऑस्ट्रेलिया",
        "name:hif": "Australia",
        "name:hr": "Australija",
        "name:hsb": "Awstralska",
        "name:ht": "Ostrali",
        "name:hu": "Ausztrália",
        "name:hy": "Ավստրալիա",
        "name:ia": "Australia",
        "name:id": "Australia",
        "name:ie": "Australia",
        "name:ig": "Ostraliya",
        "name:ilo": "Australia",
        "name:io": "Australia",
        "name:is": "Ástralía",
        "name:it": "Australia",
        "name:iu": "ᐊᔅᑦᕌᓕᐊ",
        "name:ja": "オーストラリア",
        "name:jam": "Aschrielia",
        "name:jbo": "sralygu'e",
        "name:jv": "Ostrali",
        "name:ka": "ავსტრალია",
        "name:kaa": "Avstraliya",
        "name:kab": "Usṭralya",
        "name:kbd": "Аустралиэ",
        "name:kbp": "Ositraalii",
        "name:kg": "Australia",
        "name:ki": "Australia",
        "name:kk": "Аустралия",
        "name:kl": "Australia",
        "name:km": "អូស្ត្រាលី",
        "name:kn": "ಆಸ್ಟ್ರೇಲಿಯ",
        "name:ko": "오스트레일리아",
        "name:krc": "Австралия",
        "name:ksh": "Australie",
        "name:ku": "Awistralya",
        "name:kv": "Австралия",
        "name:kw": "Ostrali",
        "name:ky": "Австралия",
        "name:la": "Australia",
        "name:lad": "Ostralya",
        "name:lb": "Australien",
        "name:lez": "Австралия",
        "name:li": "Australië",
        "name:lij": "Australia",
        "name:lmo": "Aüstralia",
        "name:lo": "ປະເທດອົດສະຕາລີ",
        "name:lt": "Australija",
        "name:ltg": "Australeja",
        "name:lv": "Austrālija",
        "name:mai": "अस्ट्रेलिया",
        "name:mdf": "Австралие",
        "name:mg": "Aostralia",
        "name:mhr": "Австралий",
        "name:mi": "Ahitereiria",
        "name:min": "Australia",
        "name:mk": "Австралија",
        "name:ml": "ഓസ്ട്രേലിയ",
        "name:mn": "Австрали",
        "name:mr": "ऑस्ट्रेलिया",
        "name:mrj": "Австрали",
        "name:ms": "Australia",
        "name:mt": "Awstralja",
        "name:mwl": "Oustrália",
        "name:my": "ဩစတြေးလျနိုင်ငံ",
        "name:mzn": "استرالیا",
        "name:na": "Otereiriya",
        "name:nah": "Australia",
        "name:nap": "Australia",
        "name:nds": "Australien",
        "name:nds-nl": "Australië",
        "name:ne": "अष्ट्रेलिया",
        "name:new": "अस्ट्रेलिया",
        "name:nl": "Australië",
        "name:nn": "Australia",
        "name:no": "Australia",
        "name:nov": "Australia",
        "name:nrm": "Australie",
        "name:nso": "Australia",
        "name:nv": "Nahatʼeʼiitsoh Bikéyah",
        "name:oc": "Austràlia",
        "name:olo": "Avstrualii",
        "name:om": "Awustireliyaa",
        "name:or": "ଅଷ୍ଟ୍ରେଲିଆ",
        "name:os": "Австрали",
        "name:pa": "ਆਸਟ੍ਰੇਲੀਆ",
        "name:pam": "Australia",
        "name:pap": "Australia",
        "name:pcd": "Australie",
        "name:pdc": "Australie",
        "name:pi": "आस्ट्रेलिया",
        "name:pih": "Ostrielya",
        "name:pl": "Australia",
        "name:pms": "Australia",
        "name:pnb": "آسٹریلیا",
        "name:pnt": "Αυστραλία",
        "name:ps": "آسټراليا",
        "name:pt": "Austrália",
        "name:qu": "Awstralya",
        "name:rm": "Australia",
        "name:rn": "Australiya",
        "name:ro": "Australia",
        "name:roa-tara": "Australie",
        "name:ru": "Австра́лия",
        "name:rue": "Австралія",
        "name:rw": "Ositaraliya",
        "name:sa": "आस्ट्रेलिया",
        "name:sah": "Аустралиа",
        "name:sc": "Austràlia",
        "name:scn": "Australia",
        "name:sco": "Australie",
        "name:sd": "آسٽريليا",
        "name:se": "Australia",
        "name:sg": "Ostralïi",
        "name:sh": "Australija",
        "name:si": "ඕස්ට්‍රේලියාව",
        "name:simple": "Australia",
        "name:sk": "Austrália",
        "name:sl": "Avstralija",
        "name:sm": "Ausetalia",
        "name:sn": "Australia",
        "name:so": "Australia",
        "name:sq": "Australia",
        "name:sr": "Аустралија",
        "name:stq": "Australien",
        "name:su": "Australia",
        "name:sv": "Australien",
        "name:sw": "Australia",
        "name:szl": "Australijo",
        "name:ta": "ஆஸ்திரேலியா",
        "name:tcy": "ಆಸ್ಟ್ರೇಲಿಯಾ",
        "name:te": "ఆస్ట్రేలియా",
        "name:tet": "Austrália",
        "name:tg": "Австралия",
        "name:th": "ออสเตรเลีย",
        "name:ti": "ኣውስትራሊያ",
        "name:tk": "Awstraliýa",
        "name:tl": "Australya",
        "name:tpi": "Ostrelia",
        "name:tr": "Avustralya",
        "name:tt": "Австралия",
        "name:tum": "Australia",
        "name:tw": "Australia",
        "name:ty": "Autereraria",
        "name:tyv": "Австралия",
        "name:tzl": "Australia",
        "name:ug": "ئاۋستىرالىيە",
        "name:uk": "Австра́лія",
        "name:ur": "آسٹریلیا",
        "name:uz": "Avstraliya",
        "name:vec": "Austrałia",
        "name:vep": "Avstralii",
        "name:vi": "Úc",
        "name:vls": "Australië",
        "name:vo": "Laustralän",
        "name:wa": "Ostraleye",
        "name:war": "Australya",
        "name:wo": "Óstraali",
        "name:wuu": "澳大利亚",
        "name:xal": "Австралмудин Ниицән",
        "name:xmf": "ავსტრალია",
        "name:yi": "אויסטראַליע",
        "name:yo": "Austrálíà",
        "name:za": "Audaihleihya",
        "name:zea": "Australië",
        "name:zh": "澳大利亚",
        "name:zh-classical": "澳大利亞",
        "name:zh-min-nan": "Ò-chiu",
        "name:zh-yue": "澳洲",
        "name:zu": "I-Ostreliya",
        "official_name": "Commonwealth of Australia",
        "official_name:ace": "Аустралиэ Зэгуэт",
        "official_name:af": "Australiese Gemenebes",
        "official_name:als": "Commonwealth von Australien",
        "official_name:am": "የአውስትራልያ ሉዓላዊ መንግስት",
        "official_name:an": "Mancomunidat d'Australia",
        "official_name:ang": "Australie Cynewise",
        "official_name:ar": "كومنولث أستراليا",
        "official_name:arc": "ܗܘܦܪܟܝܐ ܕܐܘܣܛܪܠܝܐ",
        "official_name:as": "কমনৱেল্‌থ অব অষ্ট্ৰেলিয়া",
        "official_name:ay": "Mancomunidad de Australia",
        "official_name:az": "Avstraliya İttifaqı",
        "official_name:azb": "اوستورالیا بیرلیگی",
        "official_name:bar": "Commonwealth vu Australien",
        "official_name:bat-smg": "Australijės Sondrauga",
        "official_name:be": "Аўстралі́йскі Саю́з",
        "official_name:be-tarask": "Аўстралійскі Саюз",
        "official_name:bg": "Австралийският съюз",
        "official_name:bh": "ऑस्ट्रेलियाई राष्ट्रमंडल",
        "official_name:bi": "Komenwelth blong Ostrelia",
        "official_name:bjn": "Nagara Pasamakmuran Australia",
        "official_name:bn": "কমনওয়েলথ অব অস্ট্রেলিয়া",
        "official_name:bpy": "কমনৱেলথ অস্ট্রেলিয়া",
        "official_name:br": "Kenglad Aostralia",
        "official_name:bxr": "Австралиин Хамтын Нүхэрлэл",
        "official_name:ca": "Commonwealth d'Austràlia",
        "official_name:cdo": "Ó̤-ciŭ Lièng-băng",
        "official_name:ceb": "Komonwelt sa Awstralya",
        "official_name:chr": "ᏂᎦᏓᎤᎾᏤᎵ ᎾᎿ ᎡᎳᏗᏜ",
        "official_name:ckb": "یەکیەتیی ھاوقازانجی ئۆسترالیا",
        "official_name:crh": "Avstraliya Birligi",
        "official_name:cs": "Australské společenství",
        "official_name:cu": "Аѵстралі́искꙑи Съвѫ́ꙁъ",
        "official_name:cv": "Австрали Пĕрлешĕвĕ",
        "official_name:cy": "Cymanwlad Awstralia",
        "official_name:da": "Forbundsstaten Australien",
        "official_name:de": "Australischer Bund",
        "official_name:dsb": "Zjadnośeństwo Awstralskeje",
        "official_name:dty": "अस्ट्रेलियाली राष्ट्रमंडल",
        "official_name:el": "Κοινοπολιτεία της Αυστραλίας",
        "official_name:en": "Commonwealth of Australia",
        "official_name:eo": "Komunejo de Aŭstralio",
        "official_name:es": "Mancomunidad de Australia",
        "official_name:et": "Austraalia Ühendus",
        "official_name:eu": "Australiako Commonwealtha",
        "official_name:ext": "Mancomuniá d'Austrália",
        "official_name:fa": "کشور مشترک‌المنافع استرالیا",
        "official_name:fi": "Australian liittovaltio",
        "official_name:fiu-vro": "Austraalia Ütisõs",
        "official_name:fo": "Samveldið Avstralia",
        "official_name:fr": "Commonwealth d'Australie",
        "official_name:frr": "Commonwealth faan Austraalien",
        "official_name:fur": "Commonwealth of Australia",
        "official_name:fy": "Mienebêst Austraalje",
        "official_name:ga": "Comhlathas na hAstráile",
        "official_name:gan": "澳大利亞聯邦",
        "official_name:gl": "Mancomunidade de Australia",
        "official_name:gn": "Tetã Autaralia",
        "official_name:gu": "કોમનવેલ્થ ઓફ ઑસ્ટ્રેલિયા",
        "official_name:gv": "Co-unnaneys ny h-Austrail",
        "official_name:ha": "Commonwealh na Asturaliya",
        "official_name:hak": "Au-thai-li-â lièn-pâng",
        "official_name:he": "קהיליית אוסטרליה",
        "official_name:hi": "ऑस्ट्रेलियाई राष्ट्रमंडल",
        "official_name:hif": "Commonwealth of Australia",
        "official_name:hu": "Ausztrál Államszövetség",
        "official_name:hy": "Ավստրալական Միություն",
        "official_name:id": "Persemakmuran Australia",
        "official_name:ie": "Comunalité de Australia",
        "official_name:ilo": "Mankomunidad iti Australia",
        "official_name:is": "Samveldið Ástralía",
        "official_name:it": "Commonwealth dell'Australia",
        "official_name:ja": "オーストラリア連邦",
        "official_name:jam": "Kamanwelt a Aschrielia",
        "official_name:ka": "ავსტრალიის კავშირი",
        "official_name:kk": "Аустралия Одағы",
        "official_name:kl": "Kunngeqarfik Australia",
        "official_name:km": "ចក្រភពអូស្រ្តាលី",
        "official_name:ko": "오스트레일리아 연방",
        "official_name:krc": "Австралия Бирлик",
        "official_name:kv": "Австралияса Öтувъябур",
        "official_name:ky": "Австралиялык Биримдик",
        "official_name:lad": "Mankomunidad de Ostralia",
        "official_name:lb": "Commonwealth of Australia",
        "official_name:lez": "Австралиядин галкӀ",
        "official_name:lo": "ເຄືອລັດອົດສະຕະຣາລີ",
        "official_name:lt": "Australijos Sandrauga",
        "official_name:ltg": "Australejis Sadraudzeiba",
        "official_name:lv": "Austrālijas Savienība",
        "official_name:mai": "अस्ट्रेलियाली राष्ट्रमण्डल",
        "official_name:mg": "Commonwealth an'i Aostralia",
        "official_name:mhr": "Австралий Ушем",
        "official_name:mi": "Whakaminenga o Ahitereiria",
        "official_name:min": "Nagara Persemakmuran Australia",
        "official_name:mk": "Државна заедница Австралија",
        "official_name:ml": "കോമൺവെൽത്ത് ഓഫ് ഓസ്ട്രേലിയ‍‍",
        "official_name:mn": "Үндэстнүүдийн холбооны Австрали улс",
        "official_name:mr": "ऑस्ट्रेलियाचे राष्ट्रकुल",
        "official_name:ms": "Komanwel Australia",
        "official_name:mt": "Commonwealth tal-Awstralja",
        "official_name:mwl": "Quemunidade de la Oustrália",
        "official_name:my": "ဩစတြေးလျ ဓနသဟာယနိုင်ငံ",
        "official_name:mzn": "استرالیای ِمشترک‌المنافع",
        "official_name:nah": "Cemāxcātlatquiyōtl Australia",
        "official_name:nap": "Commonwealth 'e ll'Australia",
        "official_name:nds-nl": "Gemenebest van Australië",
        "official_name:ne": "अस्ट्रेलियाली राष्ट्रमंडल",
        "official_name:nl": "Gemenebest Australië",
        "official_name:oc": "Commonwealth d'Austràlia",
        "official_name:os": "Австралийы Цæдис",
        "official_name:pa": "ਕੌਮਨਵੈਲਥ ਔਵ ਔਸਟ੍ਰੇਲੀਆ",
        "official_name:pam": "Commonwealth ning Australia",
        "official_name:pap": "Commonwealth di Australia",
        "official_name:pcd": "Commonwealth d’Australie",
        "official_name:pl": "Związek Australijski",
        "official_name:pt": "Comunidade da Austrália",
        "official_name:qu": "Awstralya Llaqta Tanta",
        "official_name:rm": "Communitad d'Australia",
        "official_name:ro": "Commonwealth of Australia",
        "official_name:roa-tara": "Commonwealth de ll'Australie",
        "official_name:ru": "Австрали́йский Сою́з",
        "official_name:rue": "Австральскій Союз",
        "official_name:sah": "Аустралиа Доҕордоhуута",
        "official_name:sc": "Commonwealth de Australia",
        "official_name:scn": "Commonwealth of Australia",
        "official_name:sco": "Commonweel o Australie",
        "official_name:sd": "فيڊريشن آف آسٽريليا",
        "official_name:se": "Australia stáhtaidovttastupmi",
        "official_name:sh": "Commonwealth Australija",
        "official_name:si": "ඕස්ට්‍රේලියා පොදුරාජ්‍යමණ්ඩලීය රාජ්‍යය",
        "official_name:sk": "Austrálsky zväz",
        "official_name:sl": "Avstralska zveza",
        "official_name:sm": "Taupulega o Ausetalia",
        "official_name:sq": "Federata e Australisë",
        "official_name:sr": "Комонвелт Аустралија",
        "official_name:su": "Persemakmuran Australia",
        "official_name:sv": "Australiska statsförbundet",
        "official_name:sw": "Jumuiya ya Australia",
        "official_name:szl": "Zwjůnzek Australijski",
        "official_name:ta": "பொதுநலவாய ஆஸ்திரேலியா",
        "official_name:te": "కామన్వెల్త్ అఫ్ ఆస్ట్రేలియా",
        "official_name:tet": "Komunidade Austrália nian",
        "official_name:th": "เครือรัฐออสเตรเลีย",
        "official_name:tk": "Awstraliýa Soýuzy",
        "official_name:tl": "Komonwelt ng Australia",
        "official_name:tr": "Avustralya Milletler Topluluğu",
        "official_name:tt": "Австралия Берлеге",
        "official_name:tyv": "Австралия Эвилели",
        "official_name:uk": "Австралі́йський Сою́з",
        "official_name:ur": "دولت مشترکہ آسٹریلیا",
        "official_name:uz": "Avstraliya Ittifoqi",
        "official_name:vec": "Comunità indipendente de ła Austrałia",
        "official_name:vep": "Avstralijan Ühtištuz",
        "official_name:vi": "Thịnh vượng chung Úc",
        "official_name:wuu": "澳大利亚联邦",
        "official_name:xal": "Австралмудин Ниицән",
        "official_name:xmf": "ავსტრალიაშ რსხუ",
        "official_name:yi": "קאמאנוועלט פון אויסטראליע",
        "official_name:yo": "Orílẹ̀-èdè Àjọni ilẹ̀ Austrálíà",
        "official_name:za": "Audaihleihya Lienzbangh",
        "official_name:zh": "澳大利亚联邦",
        "official_name:zh-classical": "澳大利亞聯邦",
        "official_name:zh-min-nan": "Ò-tāi-lī-a Liân-pang",
        "official_name:zh-yue": "澳大利亞聯邦",
        "official_name:zu": "lase-Ostreliya",
        "type": "boundary",
        "website:tourism": "http://www.australia.com",
        "wikidata": "Q408",
        "wikipedia": "en:Australia",
        "@geometry": "center"
      },
      "geometry": {
        "type": "Point",
        "coordinates": [
          120.2355241,
          -32.2055226
        ]
      },
      "id": "relation/80500"
    },
    {
      "type": "Feature",
      "properties": {
        "@id": "relation/195267",
        "ISO3166-1": "AO",
        "ISO3166-1:alpha2": "AO",
        "ISO3166-1:alpha3": "AGO",
        "ISO3166-1:numeric": "024",
        "admin_level": "2",
        "alt_name:be-tarask": "Анго́ла",
        "alt_name:gd": "Angóla",
        "alt_name:ksh": "Anjola",
        "alt_name:vi": "Tây Bồ Đào Nha",
        "boundary": "administrative",
        "flag": "http://upload.wikimedia.org/wikipedia/commons/9/9d/Flag_of_Angola.svg",
        "int_name": "Angola",
        "is_in:continent": "Africa",
        "name": "Angola",
        "name:af": "Angola",
        "name:als": "Angola",
        "name:am": "አንጎላ",
        "name:an": "Angola",
        "name:ang": "Angola",
        "name:ar": "أنغولا",
        "name:arz": "انجولا",
        "name:ast": "Angola",
        "name:az": "Anqola",
        "name:azb": "آنگولا",
        "name:ba": "Анго́ла",
        "name:bar": "Angola",
        "name:bat-smg": "Anguola",
        "name:bcl": "Angola",
        "name:be": "Анго́ла",
        "name:be-tarask": "Анґо́ла",
        "name:bg": "Ангола",
        "name:bh": "अंगोला",
        "name:bjn": "Angola",
        "name:bm": "Angola",
        "name:bn": "অ্যাঙ্গোলা",
        "name:bo": "ཨང་གོ་ལ།",
        "name:bpy": "এঙ্গোলা",
        "name:br": "Angola",
        "name:bs": "Angola",
        "name:bxr": "Ангола",
        "name:ca": "Angola",
        "name:cdo": "Angola",
        "name:ce": "Анго́ла",
        "name:ceb": "Angola",
        "name:chr": "ᎠᏂᎪᎳ",
        "name:ckb": "ئەنگۆلا",
        "name:co": "Angola",
        "name:crh": "Angola",
        "name:cs": "Angola",
        "name:cv": "Ангола",
        "name:cy": "Angola",
        "name:da": "Angola",
        "name:de": "Angola",
        "name:diq": "Angola",
        "name:dsb": "Angola",
        "name:dty": "एन्गोला",
        "name:dv": "އެންގޯލާ",
        "name:dz": "ཨང་གྷོ་ལ",
        "name:ee": "Aŋgola",
        "name:el": "Ανγκόλα",
        "name:en": "Angola",
        "name:eo": "Angolo",
        "name:es": "Angola",
        "name:et": "Angola",
        "name:eu": "Angola",
        "name:ext": "Angola",
        "name:fa": "آنگولا",
        "name:ff": "Anngolaa",
        "name:fi": "Angola",
        "name:fiu-vro": "Angola",
        "name:fo": "Angola",
        "name:fr": "Angola",
        "name:frp": "Angola",
        "name:frr": "Angoola",
        "name:fy": "Angoala",
        "name:ga": "Angóla",
        "name:gag": "Angola",
        "name:gd": "Angola",
        "name:gl": "Angola",
        "name:gn": "Angola",
        "name:gom": "आंगोला",
        "name:gu": "અંગોલા",
        "name:gv": "Angoley",
        "name:ha": "Angola",
        "name:hak": "Ôn-kô-lâ",
        "name:he": "אנגולה",
        "name:hi": "अंगोला",
        "name:hif": "Angola",
        "name:hr": "Angola",
        "name:hsb": "Angola",
        "name:ht": "Angola",
        "name:hu": "Angola",
        "name:hy": "Անգոլա",
        "name:ia": "Angola",
        "name:id": "Angola",
        "name:ie": "Angola",
        "name:ig": "Angola",
        "name:ilo": "Angola",
        "name:io": "Angola",
        "name:is": "Angóla",
        "name:it": "Angola",
        "name:ja": "アンゴラ",
        "name:jam": "Angguola",
        "name:jbo": "angol",
        "name:jv": "Angola",
        "name:ka": "ანგოლა",
        "name:kaa": "Angola",
        "name:kab": "Angola",
        "name:kbp": "Aŋgoola",
        "name:kg": "Ngola",
        "name:ki": "Angola",
        "name:kk": "Ангола",
        "name:km": "អង់ហ្គោឡា",
        "name:kn": "ಅಂಗೋಲ",
        "name:ko": "앙골라",
        "name:ks": "اینٛگولا",
        "name:ksh": "Angola",
        "name:ku": "Angola",
        "name:kw": "Angola",
        "name:ky": "Ангола",
        "name:la": "Angolia",
        "name:lad": "Angola",
        "name:lb": "Angola",
        "name:lg": "Angola",
        "name:li": "Angola",
        "name:lij": "Angòla",
        "name:lmo": "Angola",
        "name:ln": "Angola",
        "name:lo": "ອັງໂກລາ",
        "name:lrc": "آنگوٙلا",
        "name:lt": "Angola",
        "name:ltg": "Angola",
        "name:lv": "Angola",
        "name:mg": "Angola",
        "name:mi": "Anakora",
        "name:min": "Angola",
        "name:mk": "Ангола",
        "name:ml": "അംഗോള",
        "name:mn": "Ангол",
        "name:mr": "अँगोला",
        "name:mrj": "Ангола",
        "name:ms": "Angola",
        "name:mt": "Angola",
        "name:mwl": "Angola",
        "name:my": "အင်ဂိုလာနိုင်ငံ",
        "name:mzn": "آنگولا",
        "name:na": "Angora",
        "name:nah": "Angola",
        "name:nds": "Angola",
        "name:nds-nl": "Angola",
        "name:ne": "अंगोला",
        "name:new": "एङ्गोला",
        "name:nl": "Angola",
        "name:nn": "Angola",
        "name:no": "Angola",
        "name:nov": "Angola",
        "name:nso": "Angola",
        "name:nv": "Angóola",
        "name:ny": "Angola",
        "name:oc": "Angòla",
        "name:olo": "Angola",
        "name:om": "Angoolaa",
        "name:or": "ଆଙ୍ଗୋଲା",
        "name:os": "Анголæ",
        "name:pa": "ਅੰਗੋਲਾ",
        "name:pam": "Angola",
        "name:pap": "Angola",
        "name:pdc": "Angola",
        "name:pi": "अंगोला",
        "name:pih": "Angola",
        "name:pl": "Angola",
        "name:pms": "Angòla",
        "name:pnb": "انگولا",
        "name:ps": "آنګولا",
        "name:pt": "Angola",
        "name:qu": "Angula",
        "name:rm": "Angola",
        "name:ro": "Angola",
        "name:roa-rup": "Angola",
        "name:ru": "Анго́ла",
        "name:rue": "Анґола",
        "name:rw": "Angola",
        "name:sa": "अङ्गोला",
        "name:sah": "Ангола",
        "name:sc": "Angola",
        "name:scn": "Angola",
        "name:sco": "Angolae",
        "name:se": "Angola",
        "name:sg": "Angoläa",
        "name:sh": "Angola",
        "name:si": "ඇන්ගෝලාව",
        "name:simple": "Angola",
        "name:sk": "Angola",
        "name:sl": "Angola",
        "name:sn": "Angola",
        "name:so": "Angola",
        "name:sq": "Angola",
        "name:sr": "Ангола",
        "name:ss": "I-Angola",
        "name:st": "Angola",
        "name:stq": "Angola",
        "name:su": "Angola",
        "name:sv": "Angola",
        "name:sw": "Angola",
        "name:szl": "Angola",
        "name:ta": "அங்கோலா",
        "name:te": "అంగోలా",
        "name:tet": "Angola",
        "name:tg": "Ангола",
        "name:th": "ประเทศแองโกลา",
        "name:ti": "ኣንጎላ",
        "name:tk": "Angola",
        "name:tl": "Anggola",
        "name:to": "ʻEnikola",
        "name:tok": "ma Ankola",
        "name:tr": "Angola",
        "name:ts": "Angola",
        "name:tt": "Анго́ла",
        "name:tum": "Angola",
        "name:tzl": "Angola",
        "name:udm": "Ангола",
        "name:ug": "ئانگولا",
        "name:uk": "Анґо́ла",
        "name:ur": "انگولہ",
        "name:uz": "Angola",
        "name:vec": "Angoła",
        "name:vep": "Angol",
        "name:vi": "Angola",
        "name:vls": "Angola",
        "name:vo": "Langolän",
        "name:war": "Angola",
        "name:wo": "Angolaa",
        "name:wuu": "安哥拉",
        "name:xal": "Анголмудин",
        "name:xmf": "ანგოლა",
        "name:yi": "אַנגאלאַ",
        "name:yo": "Àngólà",
        "name:za": "Angola",
        "name:zea": "Anhola",
        "name:zh": "安哥拉",
        "name:zh-classical": "安哥拉",
        "name:zh-min-nan": "Angola",
        "name:zh-yue": "安哥拉",
        "name:zh_pinyin": "Āngēlā",
        "name:zu": "I-Angola",
        "official_name": "República de Angola",
        "official_name:af": "Republiek van Angola",
        "official_name:als": "Republik Angola",
        "official_name:am": "የአንጎላ ሪፑብሊክ",
        "official_name:an": "Republica d'Angola",
        "official_name:ar": "جمهورية أنغولا",
        "official_name:arz": "جمهورية انجولا",
        "official_name:az": "Anqola Respublikası",
        "official_name:azb": "آنگولا جمهوریتی",
        "official_name:ba": "Анго́ла Республикаһы",
        "official_name:bar": "Republik Angola",
        "official_name:bcl": "Republika kan Angola",
        "official_name:be": "Рэспу́бліка Анго́ла",
        "official_name:bg": "Република Ангола",
        "official_name:bjn": "Republik Angola",
        "official_name:bm": "Angola ka Fasojamana",
        "official_name:bn": "অ্যাঙ্গোলা প্রজাতন্ত্র",
        "official_name:bpy": "প্রজাতন্ত্রি এঙ্গোলা",
        "official_name:br": "Republik Angola",
        "official_name:bs": "Republika Angola",
        "official_name:ca": "República d'Angola",
        "official_name:ce": "Ангола Пачхьалкх",
        "official_name:chr": "ᏍᎦᏚᎩ ᎾᎿ ᎠᏂᎪᎳ",
        "official_name:ckb": "کۆماری ئەنگۆلا",
        "official_name:cs": "Angolská republika",
        "official_name:cv": "Ангола республики",
        "official_name:cy": "Gweriniaeth Angola",
        "official_name:da": "Republikken Angola",
        "official_name:de": "Republik Angola",
        "official_name:dsb": "Republika Angola",
        "official_name:el": "Δημοκρατία της Ανγκόλας",
        "official_name:en": "Republic of Angola",
        "official_name:eo": "Respubliko Angolo",
        "official_name:es": "República de Angola",
        "official_name:et": "Angola Vabariik",
        "official_name:eu": "Angolako Errepublika",
        "official_name:ext": "Repúbrica de Angola",
        "official_name:fa": "جمهوری آنگولا",
        "official_name:fi": "Angolan tasavalta",
        "official_name:fiu-vro": "Angola Vabariik",
        "official_name:fo": "Tjóðveldið Angola",
        "official_name:fr": "République d'Angola",
        "official_name:frr": "Republiik faan Angoola",
        "official_name:fy": "Republyk Angoala",
        "official_name:ga": "Poblacht Angóla",
        "official_name:gd": "Poblachd Angola",
        "official_name:gl": "República de Angola",
        "official_name:gn": "Tetã Angola",
        "official_name:gv": "Pobblaght Angoley",
        "official_name:ha": "Angola ka Fasojamana",
        "official_name:he": "רפובליקת אנגולה",
        "official_name:hif": "Republic of Angola",
        "official_name:hr": "Republika Angola",
        "official_name:hsb": "Republika Angola",
        "official_name:hu": "Angolai Köztársaság",
        "official_name:hy": "Անգոլայի Հանրապետություն",
        "official_name:id": "Republik Angola",
        "official_name:ilo": "Republika ti Angola",
        "official_name:io": "Republiko Angola",
        "official_name:it": "Repubblica dell'Angola",
        "official_name:ja": "アンゴラ共和国",
        "official_name:jam": "Ripoblik a Angguola",
        "official_name:jbo": "angolas zei gubyseltru",
        "official_name:jv": "Républik Angola",
        "official_name:ka": "ანგოლის რესპუბლიკა",
        "official_name:kg": "Repubilika ya Ngola",
        "official_name:ki": "Jamhuri ya Angola",
        "official_name:kk": "Ангола Республикасы",
        "official_name:kn": "ಅಂಗೋಲ ಗಣರಾಜ್ಯ",
        "official_name:ko": "앙골라 공화국",
        "official_name:ksh": "Republek Anjola",
        "official_name:ku": "Komara Angolayê",
        "official_name:ky": "Ангола Республикасы",
        "official_name:lad": "Repuvlika de Angola",
        "official_name:lb": "Republik Angola",
        "official_name:li": "Rippubliek Angola",
        "official_name:lmo": "Repüblica Angola",
        "official_name:ln": "Republíki ya Angola",
        "official_name:lo": "ສາທາລະນະລັດອັງໂກລາ",
        "official_name:lt": "Angolos Respublika",
        "official_name:ltg": "Angolys Republika",
        "official_name:lv": "Angolas Republika",
        "official_name:mg": "Repoblikan'i Angola",
        "official_name:mi": "Whenua Tū Wehe o Anakora",
        "official_name:min": "Republik Angola",
        "official_name:mk": "Република Ангола",
        "official_name:mn": "Анголын Бүгд Найрамдах Улс",
        "official_name:mr": "अँगोलाचे प्रजासत्ताक",
        "official_name:ms": "Republik Angola",
        "official_name:mt": "Repubblika tal-Angola",
        "official_name:mwl": "República Angola",
        "official_name:my": "အင်ဂိုလာသမ္မတနိုင်ငံ",
        "official_name:na": "Ripuprikin Angora",
        "official_name:nah": "Tlācatlahtohcāyōtl Angola",
        "official_name:nds": "Republik Angola",
        "official_name:nds-nl": "Rippebliek Angola",
        "official_name:ne": "एङ्गोला गणराज्य",
        "official_name:new": "एंगोला गणतन्त्र",
        "official_name:nl": "Republiek Angola",
        "official_name:nn": "Folkerepublikken Angola",
        "official_name:no": "Republikken Angola",
        "official_name:nso": "Republic Angola",
        "official_name:ny": "Dziko la Angola",
        "official_name:oc": "Republica de Angòla",
        "official_name:olo": "Angolan Tazavaldu",
        "official_name:om": "Riippabiliika Angoolaa",
        "official_name:os": "Анголæйы Республикæ",
        "official_name:pa": "ਅੰਗੋਲਾ ਦਾ ਗਣਰਾਜ",
        "official_name:pam": "Republica ning Angola",
        "official_name:pap": "Republica di Angola",
        "official_name:pl": "Republika Angoli",
        "official_name:pms": "Repùblica Angòla",
        "official_name:ps": "د آنگولا جمهوريت",
        "official_name:pt": "República de Angola",
        "official_name:qu": "Angula Ripuwlika",
        "official_name:rm": "Republica Angola",
        "official_name:ro": "Republica Angola",
        "official_name:roa-rup": "Republica Angola",
        "official_name:ru": "Респу́блика Анго́ла",
        "official_name:rue": "Анґольска републіка",
        "official_name:rw": "Repebulika y’Angola",
        "official_name:sah": "Ангола Республиката",
        "official_name:scn": "Ripùbbrica Angola",
        "official_name:sco": "Republic o Angolae",
        "official_name:se": "Angola dásseváldi",
        "official_name:sg": "Angoläa Ködörösêse",
        "official_name:sh": "Republika Angola",
        "official_name:si": "ඇන්ගෝලා සමුහාණ්ඩුව",
        "official_name:sk": "Angolská republika",
        "official_name:sl": "Republika Angola",
        "official_name:so": "Jamhuuriyada Angola",
        "official_name:sq": "Republika e Angolës",
        "official_name:sr": "Република Ангола",
        "official_name:stq": "Republik Angola",
        "official_name:su": "Républik Angola",
        "official_name:sv": "Republiken Angola",
        "official_name:sw": "Jamhuri ya Angola",
        "official_name:szl": "Republika Angoli",
        "official_name:ta": "அங்கோலாக் குடியரசு",
        "official_name:te": "రిపబ్లిక్ ఆఫ్ అంగోలా",
        "official_name:tet": "Repúblika Angola niam",
        "official_name:th": "สาธารณรัฐแองโกลา",
        "official_name:tk": "Angola Respublikasy",
        "official_name:tl": "Republika ng Angola",
        "official_name:tr": "Angola Cumhuriyeti",
        "official_name:tt": "Анго́ла Җөмһүрияте́",
        "official_name:ug": "ئانگولا جۇمھۇرىيىتى",
        "official_name:uk": "Респу́бліка Анґо́ла",
        "official_name:ur": "جمہوریہ انگولہ",
        "official_name:uz": "Angola Respublikasi",
        "official_name:vec": "Republica Popołare de ł'Angoła",
        "official_name:vep": "Angolan Tazovaldkund",
        "official_name:vi": "Cộng hòa Angola",
        "official_name:vls": "Republiek Angola",
        "official_name:wo": "Réewum Angolaa",
        "official_name:xal": "Анголмудин Орн",
        "official_name:xmf": "ანგოლაშ რესპუბლიკა",
        "official_name:yi": "רעפובליק פון אנגאלא",
        "official_name:yo": "Orílẹ̀-èdè Olómìnira ilẹ̀ Àngólà",
        "official_name:zea": "Rippebliek Anhola",
        "official_name:zh": "安哥拉共和國",
        "official_name:zh-min-nan": "Angola Kiōng-hô-kok",
        "official_name:zu": "IRiphabliki yase-Angola",
        "timezone": "Africa/Luanda",
        "type": "boundary",
        "wikidata": "Q916",
        "wikipedia": "pt:Angola",
        "@geometry": "center"
      },
      "geometry": {
        "type": "Point",
        "coordinates": [
          17.7744324,
          -11.2135042
        ]
      },
      "id": "relation/195267"
    },
    {
      "type": "Feature",
      "properties": {
        "@id": "relation/286393",
        "ISO3166-1": "AR",
        "ISO3166-1:alpha2": "AR",
        "ISO3166-1:alpha3": "ARG",
        "ISO3166-1:numeric": "032",
        "admin_level": "2",
        "alt_name:be-tarask": "Аргенціна",
        "alt_name:co": "Arghjintina",
        "alt_name:kn": "ಅರ್ಜೆಂಟೀನ ಗಣರಾಜ್ಯ",
        "alt_name:mzn": "آرجانتین",
        "alt_name:nah": "Argentina Tlācatlahtohcāyōtl",
        "alt_name:oc": "Riu de la Plata",
        "alt_name:qu": "Qullqillaqta",
        "alt_name:roa-rup": "Arghentinescã",
        "alt_name:rw": "Arijantina",
        "alt_name:ta": "அர்ஜெந்தீனா",
        "alt_name:wo": "Argentiin",
        "boundary": "administrative",
        "capital_city": "Buenos Aires",
        "country_code_fips": "AR",
        "flag": "http://upload.wikimedia.org/wikipedia/commons/1/1a/Flag_of_Argentina.svg",
        "geonames:id": "3865483",
        "int_name": "Argentina",
        "is_in:continent": "South America",
        "name": "Argentina",
        "name:ace": "Argentina",
        "name:ady": "Аргентинэ",
        "name:af": "Argentinië",
        "name:ak": "Agyɛntina",
        "name:als": "Argentinie",
        "name:am": "አርጀንቲና",
        "name:an": "Archentina",
        "name:ang": "Argentina",
        "name:ar": "الأرجنتين",
        "name:arz": "ارجنتين",
        "name:as": "আৰ্জেণ্টিনা",
        "name:ast": "Arxentina",
        "name:av": "Аргентина",
        "name:ay": "Arxintina",
        "name:az": "Argentina",
        "name:azb": "آرژانتین",
        "name:ba": "Аргенти́на",
        "name:bar": "Argentinien",
        "name:bat-smg": "Argentėna",
        "name:bcl": "Argentina",
        "name:be": "Аргенці́на",
        "name:be-tarask": "Аргенты́на",
        "name:bg": "Аржентѝна",
        "name:bh": "अर्जेन्टीना",
        "name:bi": "Argentina",
        "name:bm": "Argentina",
        "name:bn": "আর্জেন্টিনা",
        "name:bo": "ཨར་ཇེན་ཊི་ན།",
        "name:bpy": "আর্জেন্টিনা",
        "name:br": "Arc'hantina",
        "name:bs": "Argentina",
        "name:bxr": "Аргентина",
        "name:ca": "Argentina",
        "name:cbk-zam": "Argentina",
        "name:cdo": "Ā-gŏng-dìng",
        "name:ce": "Аргенти́на",
        "name:ceb": "Arhentina",
        "name:ch": "Argentina",
        "name:chr": "ᎠᏥᏂᏘᏂᎠ",
        "name:ckb": "ئارجەنتین",
        "name:co": "Argentina",
        "name:crh": "Argentina",
        "name:cs": "Argentina",
        "name:csb": "Argentina",
        "name:cv": "Аргентина",
        "name:cy": "Ariannin",
        "name:da": "Argentina",
        "name:de": "Argentinien",
        "name:diq": "Arcantin",
        "name:dsb": "Argentinska",
        "name:dty": "अर्जेन्टिना",
        "name:dv": "އާޖެންޓީނާ",
        "name:dz": "ཨར་ཇེན་ཊི་ན",
        "name:ee": "Argentina",
        "name:el": "Αργεντινή",
        "name:en": "Argentina",
        "name:eo": "Argentino",
        "name:es": "Argentina",
        "name:et": "Argentina",
        "name:eu": "Argentina",
        "name:ext": "Argentina",
        "name:fa": "آرژانتین",
        "name:ff": "Arjantiin",
        "name:fi": "Argentiina",
        "name:fiu-vro": "Argentina",
        "name:fj": "Argentina",
        "name:fo": "Argentina",
        "name:fr": "Argentine",
        "name:frp": "Argentena",
        "name:frr": "Argentiinien",
        "name:fur": "Argjentine",
        "name:fy": "Argentynje",
        "name:ga": "an Airgintín",
        "name:gag": "Argentina",
        "name:gan": "阿根廷",
        "name:gd": "Argentina",
        "name:gl": "Arxentina",
        "name:gn": "Argentina",
        "name:gom": "आर्जेन्टिना",
        "name:gu": "આર્જેન્ટીના",
        "name:gv": "yn Argenteen",
        "name:ha": "Argentina",
        "name:hak": "Â-kîn-thìn",
        "name:haw": "ʻAlekina",
        "name:he": "ארגנטינה",
        "name:hi": "अर्जेण्टीना",
        "name:hif": "Argentina",
        "name:hr": "Argentina",
        "name:hsb": "Argentinska",
        "name:ht": "Ajantin",
        "name:hu": "Argentína",
        "name:hy": "Արգենտինա",
        "name:ia": "Argentina",
        "name:id": "Argentina",
        "name:ie": "Argentina",
        "name:ig": "Argentina",
        "name:ilo": "Arhentina",
        "name:io": "Arjentinia",
        "name:is": "Argentína",
        "name:it": "Argentina",
        "name:ja": "アルゼンチン",
        "name:jam": "Aajentiina",
        "name:jbo": "getygu'e",
        "name:jv": "Argèntina",
        "name:ka": "არგენტინა",
        "name:kaa": "Argentina",
        "name:kab": "Tarjentint",
        "name:kbd": "Архенти́нэ",
        "name:kbp": "Arzantiini",
        "name:kg": "Arhentina",
        "name:ki": "Argentina",
        "name:kk": "Аргентина",
        "name:kl": "Argentina",
        "name:km": "អាហ្សង់ទីន",
        "name:kn": "ಅರ್ಜೆಂಟೀನ",
        "name:ko": "아르헨티나",
        "name:krc": "Аргенти́на",
        "name:ks": "أرجَنٹینا",
        "name:ksh": "Ajjentiinije",
        "name:ku": "Arjentîn",
        "name:kv": "Аргентина",
        "name:kw": "Arghantina",
        "name:ky": "Аргентина",
        "name:la": "Argentina",
        "name:lad": "Arjentina",
        "name:lb": "Argentinien",
        "name:lez": "Аргентина",
        "name:lg": "Arigentina",
        "name:li": "Argentinië",
        "name:lij": "Argentinn-a",
        "name:lmo": "Argentina",
        "name:ln": "Argentina",
        "name:lo": "ອາກຊັງຕີນ",
        "name:lrc": "آرجانتین",
        "name:lt": "Argentina",
        "name:ltg": "Argeņtina",
        "name:lv": "Argentīna",
        "name:mai": "अर्जेन्टिना",
        "name:mg": "Arjentina",
        "name:mhr": "Аргентине",
        "name:mi": "Āketina",
        "name:min": "Argentina",
        "name:mk": "Аргентина",
        "name:ml": "അർജന്റീന",
        "name:mn": "Аргентин",
        "name:mr": "आर्जेन्टिना",
        "name:mrj": "Аргентина",
        "name:ms": "Argentina",
        "name:mt": "Arġentina",
        "name:mwl": "Argentina",
        "name:my": "အာဂျင်တီးနားနိုင်ငံ",
        "name:mzn": "آرژانتین",
        "name:na": "Ardjentina",
        "name:nah": "Argentina",
        "name:nap": "Argentina",
        "name:nds": "Argentinien",
        "name:nds-nl": "Argentinië",
        "name:ne": "अर्जेन्टिना",
        "name:new": "अर्जेन्टिना",
        "name:nl": "Argentinië",
        "name:nn": "Argentina",
        "name:no": "Argentina",
        "name:nov": "Argentina",
        "name:nrm": "Argentinne",
        "name:nso": "Argentina",
        "name:nv": "Béésh Łigaii Bikéyah",
        "name:oc": "Argentina",
        "name:olo": "Argentiinu",
        "name:om": "Arjentiinaa",
        "name:or": "ଆର୍ଜେଣ୍ଟିନା",
        "name:os": "Аргентинæ",
        "name:pa": "ਅਰਜਨਟੀਨਾ",
        "name:pag": "Argentina",
        "name:pam": "Argentina",
        "name:pap": "Argentina",
        "name:pdc": "Artschenti",
        "name:pfl": "Argentinje",
        "name:pi": "अर्जन्टीना",
        "name:pih": "Aajentiina",
        "name:pl": "Argentyna",
        "name:plsr": "Аргентина",
        "name:pms": "Argentin-a",
        "name:pnb": "ارجنٹاین",
        "name:ps": "ارجنټاین",
        "name:pt": "Argentina",
        "name:qu": "Arhintina",
        "name:rm": "Argentinia",
        "name:rmy": "Arxentina",
        "name:rn": "Argentine",
        "name:ro": "Argentina",
        "name:roa-rup": "Arghentina",
        "name:roa-tara": "Argendine",
        "name:ru": "Аргенти́на",
        "name:rue": "Арґентина",
        "name:rw": "Arijantine",
        "name:sa": "अर्जण्टिना",
        "name:sah": "Аргентина",
        "name:sc": "Argentina",
        "name:scn": "Argintina",
        "name:sco": "Argentinae",
        "name:se": "Argentiinná",
        "name:sg": "Arzantîna",
        "name:sh": "Argentina",
        "name:si": "ආජන්ටිනාව",
        "name:sk": "Argentína",
        "name:sl": "Argentina",
        "name:sm": "Atenitina",
        "name:sn": "Argentina",
        "name:so": "Arjantiina",
        "name:sq": "Argjentina",
        "name:sr": "Аргентина",
        "name:srn": "Argentinikondre",
        "name:stq": "Argentinien",
        "name:su": "Argéntina",
        "name:sv": "Argentina",
        "name:sw": "Argentina",
        "name:szl": "Argyntyna",
        "name:ta": "அர்கெந்தீனா",
        "name:te": "అర్జెంటీనా",
        "name:tet": "Arjentina",
        "name:tg": "Аргенти́на",
        "name:th": "อาร์เจนตินา",
        "name:ti": "አርጀንቲና",
        "name:tk": "Argentina",
        "name:tl": "Arhentina",
        "name:to": "ʻAsenitina",
        "name:tok": "ma Alensina",
        "name:tpi": "Ajentina",
        "name:tr": "Arjantin",
        "name:ts": "Arjentina",
        "name:tt": "Аргенти́на",
        "name:tum": "Argentina",
        "name:tw": "Argentina",
        "name:ty": "’Atetina",
        "name:tyv": "Аргентина",
        "name:tzl": "Arxhentì",
        "name:udm": "Аргентина",
        "name:ug": "ئارگېنتىنا",
        "name:uk": "Аргенти́на",
        "name:ur": "ارجنٹائن",
        "name:uz": "Argentina",
        "name:vec": "Argentina",
        "name:vep": "Argentin",
        "name:vi": "Argentina",
        "name:vls": "Argentinië",
        "name:vo": "Largäntän",
        "name:wa": "Årdjintene",
        "name:war": "Argentina",
        "name:wo": "Arsantin",
        "name:wuu": "阿根廷",
        "name:xal": "Эрҗентудин",
        "name:xmf": "არგენტინა",
        "name:yi": "אַרגענטינע",
        "name:yo": "Argẹntínà",
        "name:za": "Argentina",
        "name:zea": "Arhentinië",
        "name:zh": "阿根廷",
        "name:zh-classical": "阿根廷",
        "name:zh-min-nan": "Argentina",
        "name:zh-yue": "阿根廷",
        "name:zu": "i-Argentina",
        "official_name": "República Argentina",
        "official_name:af": "Argentynse Republiek",
        "official_name:als": "Argentinischi Republik",
        "official_name:am": "አርጀንቲናዊ ሬፑብሊክ",
        "official_name:an": "Republica Archentina",
        "official_name:ar": "جمهورية الأرجنتين",
        "official_name:arz": "الجمهوريه الارچنتينيه",
        "official_name:ast": "República Arxentina",
        "official_name:av": "ЖумхIурият Аргентина",
        "official_name:ay": "Arjintina Republika",
        "official_name:az": "Argentina Respublikası",
        "official_name:azb": "آرژانتین جومهوریسی",
        "official_name:ba": "Аргентина Республикаһы",
        "official_name:bar": "Argentinische Republik",
        "official_name:bat-smg": "Argentėnas Respoblėka",
        "official_name:be": "Аргенці́нская Рэспу́бліка",
        "official_name:be-tarask": "Рэспу́бліка Аргенты́на",
        "official_name:bg": "Република Аржентина",
        "official_name:bm": "Argentina Fasojamana",
        "official_name:bn": "আর্জেন্টিনীয় প্রজাতন্ত্র",
        "official_name:bpy": "প্রজাতন্ত্রি আর্জেন্টিনা",
        "official_name:bs": "Republika Argentina",
        "official_name:bxr": "Бүгэдэ Найрамдаха Аргентинэ Улас",
        "official_name:ca": "República Argentina",
        "official_name:cbk-zam": "República Argentina",
        "official_name:ce": "Аргентинан Пачхьалкх",
        "official_name:chr": "ᎠᏥᏂᏘᏂᎠ ᏍᎦᏚᎩ",
        "official_name:crh": "Argentina Cumhuriyeti",
        "official_name:cs": "Argentinská republika",
        "official_name:cv": "Аргентина Республики",
        "official_name:cy": "Gweriniaeth yr Ariannin",
        "official_name:da": "Argentinske Republik",
        "official_name:de": "Argentinische Republik",
        "official_name:dsb": "Republika Argentinska",
        "official_name:el": "Δημοκρατία της Αργεντινής",
        "official_name:en": "Argentine Republic",
        "official_name:eo": "Argentina Respubliko",
        "official_name:es": "República Argentina",
        "official_name:et": "Argentina Vabariik",
        "official_name:eu": "Argentinako Errepublika",
        "official_name:ext": "Repúbrica Argentina",
        "official_name:fa": "جمهوری آرژانتین",
        "official_name:fi": "Argentiinan tasavalta",
        "official_name:fiu-vro": "Argentina Vabariik",
        "official_name:fo": "Lýðveldið Argentina",
        "official_name:fr": "République Argentine",
        "official_name:frp": "Rèpublica argentina",
        "official_name:frr": "Argentiinsk Republiik",
        "official_name:fur": "Republiche Argjentine",
        "official_name:fy": "Argentynske Republyk",
        "official_name:gan": "阿根廷共和國",
        "official_name:gd": "an Argantain",
        "official_name:gl": "República Arxentina",
        "official_name:gn": "Tetã Argentina",
        "official_name:gu": "આર્જેન્ટીના ગણરાજ્ય",
        "official_name:gv": "Pobblaght ny h-Argenteen",
        "official_name:ha": "Jamhuriyar Argentina",
        "official_name:haw": "Lepupalika o ʻAlekina",
        "official_name:he": "הרפובליקה הארגנטינאית",
        "official_name:hi": "अर्जेन्टीना गणराज्य",
        "official_name:hif": "República Argentina",
        "official_name:hr": "Argentinska Republika",
        "official_name:hsb": "Republika Argentinska",
        "official_name:hu": "Argentin Köztársaság",
        "official_name:hy": "Արգենտինայի Հանրապետություն",
        "official_name:ia": "Republica Argentin",
        "official_name:id": "Republik Argentina",
        "official_name:ilo": "Arhentino a Republika",
        "official_name:io": "Republiko Arjentinia",
        "official_name:is": "Lýðveldið Argentína",
        "official_name:it": "Repubblica Argentina",
        "official_name:ja": "アルゼンチン共和国",
        "official_name:jam": "Aajentiin Ripoblik",
        "official_name:ka": "არგენტინის რესპუბლიკა",
        "official_name:kbd": "Республикэ Архентинэ",
        "official_name:kk": "Аргентина Республикасы",
        "official_name:kl": "Kunngiitsuuffik Argentina",
        "official_name:kn": "ರಿಪಬ್ಲಿಕ ಅರ್ಜೆಂಟೀನ",
        "official_name:ko": "아르헨티나 공화국",
        "official_name:krc": "Аргенти́на Респу́блика",
        "official_name:ku": "Komara Arjentînê",
        "official_name:kv": "Аргентина Республика",
        "official_name:kw": "Repoblek Arghantinek",
        "official_name:ky": "Аргентинa Республикaсы",
        "official_name:la": "res publica Argentina",
        "official_name:lad": "Republika Arjentina",
        "official_name:lb": "Republik Argentinien",
        "official_name:lez": "Аргентинадин Республика",
        "official_name:li": "Rippebliek Argentinië",
        "official_name:lmo": "Repübliga Argentina",
        "official_name:lo": "ສາທາລະນະລັດອາກຊັງຕິນ",
        "official_name:lt": "Argentinos Respublika",
        "official_name:ltg": "Argeņtinys Republika",
        "official_name:lv": "Argentīnas Republika",
        "official_name:mai": "अर्जेन्टिना गणतन्त्र",
        "official_name:mg": "Repoblika Arjentina",
        "official_name:mi": "Te Whenua Tū Wehe o Āketina",
        "official_name:mk": "Аргентинска Република",
        "official_name:ml": "അർജന്റീന റിപ്പബ്ലിക്ക്",
        "official_name:mn": "Бүгд Найрамдах Аргентин Улс",
        "official_name:mr": "आर्जेन्टिनाचे प्रजासत्ताक",
        "official_name:mrj": "Аргентина Республика",
        "official_name:ms": "Republik Argentina",
        "official_name:mt": "Repubblika Arġentina",
        "official_name:mwl": "República Argentina",
        "official_name:mzn": "آرژانتین جمهوری",
        "official_name:nah": "Ticpatlahua Argentina",
        "official_name:nap": "Repubbreca Argentina",
        "official_name:nds": "Republiek Argentinien",
        "official_name:nds-nl": "Republiek Argentinië",
        "official_name:ne": "अर्जेन्टिनी गणतन्त्र",
        "official_name:new": "गणतन्त्र अर्जेन्टिना",
        "official_name:nl": "Argentijnse Republiek",
        "official_name:nn": "Republikk Argentina",
        "official_name:no": "Republikken Argentina",
        "official_name:nov": "Republike de Argentina",
        "official_name:oc": "Republica Argentina",
        "official_name:os": "Аргентинæйы Республикæ",
        "official_name:pa": "ਅਰਜਨਟੀਨ ਗਣਰਾਜ",
        "official_name:pam": "Argentina Republica",
        "official_name:pap": "Repúblika Argentino",
        "official_name:pfl": "Republik Argentinje",
        "official_name:pl": "Republika Argentyńska",
        "official_name:pms": "Repùblica Argentin-a",
        "official_name:pt": "República Argentina",
        "official_name:qu": "Arhintina Ripuwlika",
        "official_name:rm": "Republica Argentinia",
        "official_name:rmy": "Republika Arxentina",
        "official_name:ro": "Republica Argentina",
        "official_name:roa-rup": "Republica Arghentinescã",
        "official_name:roa-tara": "Repubbleche Argendine",
        "official_name:ru": "Аргенти́нская Респу́блика",
        "official_name:rue": "Арґентиньска републіка",
        "official_name:sah": "Аргентина Республиката",
        "official_name:sc": "Repubblica Argentina",
        "official_name:scn": "Ripubblicca Argintina",
        "official_name:sco": "Argentine Republic",
        "official_name:se": "Argentiinná dásseváldi",
        "official_name:sh": "Argentinska Republika",
        "official_name:si": "ආජන්ටිනා සමුහාණ්ඩුව",
        "official_name:sk": "Argentínska republika",
        "official_name:sl": "Argentinska republika",
        "official_name:so": "Jamhuuriyadda Arjantiina",
        "official_name:sq": "Republika Argjentine",
        "official_name:sr": "Република Аргентина",
        "official_name:stq": "Republik Argentinien",
        "official_name:su": "Républik Argéntina",
        "official_name:sv": "Republiken Argentina",
        "official_name:sw": "Jamhuri ya Argentina",
        "official_name:szl": "Republika Argyntyńsko",
        "official_name:ta": "அர்கெந்தீனா குடியரசு",
        "official_name:te": "రిపబ్లికా అర్జెంటీనా",
        "official_name:tet": "Repúblika Arjentina",
        "official_name:tg": "Ҷумҳурии Аргентина",
        "official_name:th": "สาธารณรัฐอาร์เจนตินา",
        "official_name:tk": "Argentina Respublikasy",
        "official_name:tl": "Republikang Arhentino",
        "official_name:tr": "Arjantin Cumhuriyeti",
        "official_name:tt": "Аргентина Җөмһүрияте",
        "official_name:udm": "Аргентина Республика",
        "official_name:ug": "ئاندوررا كېنەزلىكى",
        "official_name:uk": "Аргенти́нська Респу́бліка",
        "official_name:ur": "جمہوریہ ارجنٹائن",
        "official_name:uz": "Argenti-na Respublikasi",
        "official_name:vec": "Republica Argentina",
        "official_name:vep": "Argentinan Tazovaldkund",
        "official_name:vi": "Cộng hòa Argentina",
        "official_name:vls": "Republiek Argentinië",
        "official_name:vo": "Republik Largäntänik",
        "official_name:war": "Republika Argentina",
        "official_name:wo": "Republik bu Argentiin",
        "official_name:wuu": "阿根廷共和国",
        "official_name:xal": "Эрҗентудин Орн",
        "official_name:xmf": "არგენტინაშ რესპუბლიკა",
        "official_name:yi": "אַרגענטינער רעפובליק",
        "official_name:yo": "Republic Argẹntínà",
        "official_name:zea": "Rippebliek Arhentinië",
        "official_name:zh": "阿根廷共和国",
        "official_name:zh-classical": "阿根廷共和國",
        "official_name:zh-min-nan": "Argentina Kiōng-hô-kok",
        "official_name:zh-yue": "阿根廷共和國",
        "old_name:vi": "Á Căn Đình",
        "population": "40117096",
        "type": "boundary",
        "wikidata": "Q414",
        "wikipedia": "es:Argentina",
        "@geometry": "center"
      },
      "geometry": {
        "type": "Point",
        "coordinates": [
          -63.6270591,
          -38.483122
        ]
      },
      "id": "relation/286393"
    },
    {
      "type": "Feature",
      "properties": {
        "@id": "relation/303427",
        "ISO3166-1": "AF",
        "ISO3166-1:alpha2": "AF",
        "ISO3166-1:alpha3": "AFG",
        "ISO3166-1:numeric": "004",
        "admin_level": "2",
        "alt_name:af": "Afganistan",
        "alt_name:eo": "Afganistano;Afganio",
        "alt_name:gd": "Afghanastàn",
        "alt_name:io": "Afgania",
        "alt_name:it": "Afganistan",
        "alt_name:la": "Afghanistania",
        "alt_name:li": "Afganistan",
        "alt_name:mn": "Афган улс",
        "alt_name:mzn": "افغانستون",
        "alt_name:sh": "Avganistan",
        "alt_name:so": "Afqaanistan",
        "alt_name:vec": "Afghanistan",
        "alt_name:vi": "Áp-ga-nít-xtăng",
        "alt_name:war": "Afghanistan",
        "boundary": "administrative",
        "flag": "http://upload.wikimedia.org/wikipedia/commons/9/9a/Flag_of_Afghanistan.svg",
        "int_name": "Afghanistan",
        "is_in:continent": "Asia",
        "name": "افغانستان",
        "name:UN:ar": "أفغانستان",
        "name:UN:en": "Afghanistan",
        "name:UN:es": "Afganistán (el)",
        "name:UN:fr": "Afghanistan (l')",
        "name:UN:ru": "Афганистан",
        "name:UN:zh": "阿富汗",
        "name:ace": "Afghanistan",
        "name:ady": "Афганистан",
        "name:af": "Afghanistan",
        "name:ak": "Afganistan",
        "name:als": "Afghanischtan",
        "name:am": "አፍጋኒስታን",
        "name:an": "Afganistán",
        "name:ang": "Afghanistan",
        "name:ar": "أفغانستان",
        "name:arc": "ܐܦܓܐܢܣܛܐܢ",
        "name:arz": "افغانستان",
        "name:as": "আফগানিস্তান",
        "name:ast": "Afganistán",
        "name:az": "Əfqanıstan",
        "name:azb": "افغانیستان",
        "name:ba": "Афғанстан",
        "name:bar": "Afghanistan",
        "name:bat-smg": "Afganėstans",
        "name:bcl": "Apganistan",
        "name:be": "Афганістан",
        "name:be-tarask": "Аўганістан",
        "name:bg": "Афганистан",
        "name:bh": "अफ़ग़ानिस्तान",
        "name:bm": "Afiganistaŋ",
        "name:bn": "আফগানিস্তান",
        "name:bo": "ཨ་ཧྥུའུ་རྒན་སི་ཐན།",
        "name:bpy": "আফগানিস্তান",
        "name:br": "Afghanistan",
        "name:bs": "Afganistan",
        "name:bug": "Afghanistan",
        "name:bxr": "Афганистан",
        "name:ca": "Afganistan",
        "name:cbk-zam": "Afghanistan",
        "name:cdo": "Afghanistan",
        "name:ce": "АфгIанистан",
        "name:ceb": "Apganistan",
        "name:chr": "ᎠᏫᎨᏂᏍᏖᏂ",
        "name:ckb": "ئەفغانستان",
        "name:co": "Afghanistan",
        "name:crh": "Afğanistan",
        "name:cs": "Afghánistán",
        "name:csb": "Afganistón",
        "name:cv": "Афганистан",
        "name:cy": "Affganistan",
        "name:da": "Afghanistan",
        "name:de": "Afghanistan",
        "name:diq": "Efğanıstan",
        "name:dsb": "Afghanistan",
        "name:dty": "अफगानिस्तान",
        "name:dv": "އަފްޣާނިސްތާން",
        "name:dz": "ཨཕ་ག་ནིསི་ཏཱན་",
        "name:ee": "Afghanistan nutome",
        "name:el": "Αφγανιστάν",
        "name:en": "Afghanistan",
        "name:eo": "Afganujo",
        "name:es": "Afganistán",
        "name:et": "Afganistan",
        "name:eu": "Afganistan",
        "name:ext": "Afganistán",
        "name:fa": "افغانستان",
        "name:ff": "Afganistaan",
        "name:fi": "Afganistan",
        "name:fiu-vro": "Afganistan",
        "name:fo": "Afghanistan",
        "name:fr": "Afghanistan",
        "name:frp": "Afganistan",
        "name:frr": "Afghanistan",
        "name:fur": "Afghanistan",
        "name:fy": "Afganistan",
        "name:ga": "An Afganastáin",
        "name:gag": "Afganistan",
        "name:gd": "Afganastan",
        "name:gl": "Afganistán - افغانستان",
        "name:gn": "Ahyganitã",
        "name:gom": "अफगाणिस्तान",
        "name:got": "𐌰𐍆𐌲𐌰𐌽𐌹𐍃𐍄𐌰𐌽",
        "name:gu": "અફઘાનિસ્તાન",
        "name:gv": "Yn Afghanistaan",
        "name:ha": "Afghanistan",
        "name:hak": "Â-fu-hon",
        "name:haw": "‘Apekanikana",
        "name:he": "אפגניסטן",
        "name:hi": "अफ़्गानिस्तान",
        "name:hif": "Afghanistan",
        "name:hr": "Afganistan",
        "name:hsb": "Afghanistan",
        "name:ht": "Afganistan",
        "name:hu": "Afganisztán",
        "name:hy": "Աֆղանստան",
        "name:ia": "Afghanistan",
        "name:id": "Afganistan",
        "name:ie": "Afghanistan",
        "name:ilo": "Apganistán",
        "name:io": "Afganistan",
        "name:is": "Afganistan",
        "name:it": "Afghanistan",
        "name:ja": "アフガニスタン",
        "name:jam": "Afganistan",
        "name:jbo": "afyganisTAN",
        "name:jv": "Afganistan",
        "name:ka": "ავღანეთი",
        "name:kaa": "Afg'anstan",
        "name:kab": "Afɣanistan",
        "name:kbd": "Афганистэн",
        "name:kbp": "Afganistani",
        "name:kg": "Afghanistan",
        "name:ki": "Afghanistan",
        "name:kk": "Ауғанстан",
        "name:kl": "Afghanistan",
        "name:km": "សាធារណរដ្ឋឥស្លាមអាហ្វហ្កានីស្ថាន",
        "name:kn": "ಅಫ್ಘಾನಿಸ್ತಾನ",
        "name:ko": "아프가니스탄",
        "name:krc": "Афганистан",
        "name:ks": "اَفغانَستان",
        "name:ksh": "Afghanistan",
        "name:ku": "Afxanistan",
        "name:kv": "Афганистан",
        "name:kw": "Afghanistan",
        "name:ky": "Ооганстан",
        "name:la": "Afgania",
        "name:lad": "Afganistan",
        "name:lb": "Afghanistan",
        "name:lez": "Афганистан",
        "name:lg": "Afaganisitani",
        "name:li": "Afghanistan",
        "name:lij": "Afghanistan",
        "name:lmo": "Afghanistan",
        "name:ln": "Afganistáni",
        "name:lo": "ອັບການິສະຖານ",
        "name:lrc": "أفغانستان",
        "name:lt": "Afganistanas",
        "name:lv": "Afganistāna",
        "name:mai": "अफगानिस्तान",
        "name:mdf": "Афганистан",
        "name:mg": "Afganistana",
        "name:mhr": "Афганистан",
        "name:mi": "Āwhekenetāna",
        "name:min": "Afganistan",
        "name:mk": "Авганистан",
        "name:ml": "അഫ്ഗാനിസ്താൻ",
        "name:mn": "Афганистан",
        "name:mo": "Афганистан",
        "name:mr": "अफगाणिस्तान",
        "name:ms": "Afghanistan",
        "name:mt": "Afganistan",
        "name:mwl": "Afeganistan",
        "name:my": "အာဖဂန်နစ္စတန်နိုင်ငံ",
        "name:myv": "Афганистан Мастор",
        "name:mzn": "افغانستان",
        "name:na": "Apeganitan",
        "name:nah": "Afganistan",
        "name:nds": "Afghanistan",
        "name:nds-nl": "Afghanistan",
        "name:ne": "अफगानिस्तान",
        "name:new": "अफगानिस्तान",
        "name:nl": "Afghanistan",
        "name:nn": "Afghanistan",
        "name:no": "Afghanistan",
        "name:nov": "Afganistan",
        "name:oc": "Afganistan",
        "name:olo": "Afganistuanu",
        "name:om": "Afgaanistaan",
        "name:or": "ଆଫଗାନିସ୍ତାନ",
        "name:os": "Афгъанистан",
        "name:pa": "ਅਫ਼ਗ਼ਾਨਿਸਤਾਨ",
        "name:pag": "Afghanistan",
        "name:pam": "Afganistan",
        "name:pap": "Afganistán",
        "name:pdc": "Afganischtaan",
        "name:pi": "अफगानस्थान",
        "name:pih": "Afganistaan",
        "name:pl": "Afganistan",
        "name:pms": "Afgànistan",
        "name:pnb": "افغانستان",
        "name:ps": "افغانستان",
        "name:pt": "Afeganistão",
        "name:qu": "Afgansuyu",
        "name:rm": "Afganistan",
        "name:rn": "Afuganisitani",
        "name:ro": "Afganistan",
        "name:roa-rup": "Afganistan",
        "name:roa-tara": "Afghanistan",
        "name:ru": "Афганистан",
        "name:rue": "Афґаністан",
        "name:rw": "Afuganisitani",
        "name:sa": "अफगानस्थान",
        "name:sah": "Афганистаан",
        "name:scn": "Afganistàn",
        "name:sco": "Afghanistan",
        "name:sd": "افغانستان",
        "name:se": "Afganistána",
        "name:sg": "Faganïta, Afganïstäan",
        "name:sh": "Afganistan",
        "name:si": "ඇෆ්ගනිස්ථානය",
        "name:sk": "Afganistan",
        "name:sl": "Afganistan",
        "name:sm": "Afakanisitana",
        "name:sn": "Afghanistan",
        "name:so": "Afgaanistan",
        "name:sq": "Afganistani",
        "name:sr": "Авганистан",
        "name:ss": "I-Afugani",
        "name:stq": "Afghanistan",
        "name:su": "Apganistan",
        "name:sv": "Afghanistan",
        "name:sw": "Afghanistan",
        "name:szl": "Afgańistan",
        "name:ta": "ஆப்கானித்தான்",
        "name:te": "ఆఫ్ఘనిస్తాన్",
        "name:tet": "Afeganistaun",
        "name:tg": "Афғонистон",
        "name:th": "ประเทศอัฟกานิสถาน",
        "name:ti": "አፍጋኒስታን",
        "name:tk": "Owganystan",
        "name:tl": "Apganistan",
        "name:to": "ʻAfukanisitani",
        "name:tok": "ma Akanisan",
        "name:tpi": "Afghanistan",
        "name:tr": "Afganistan",
        "name:tt": "Әфганстан",
        "name:tum": "Afghanistan",
        "name:udm": "Афганистан",
        "name:ug": "ئافغانىستان",
        "name:uk": "Афганістан",
        "name:ur": "افغانستان",
        "name:uz": "Afgʻoniston",
        "name:vec": "Afganistan",
        "name:vep": "Afganistan",
        "name:vi": "Afghanistan",
        "name:vls": "Afghanistan",
        "name:vo": "Lafganistän",
        "name:war": "Afganistan",
        "name:wo": "Afganistaan",
        "name:wuu": "阿富汗",
        "name:xal": "Сарта Апганмудин Орн",
        "name:xmf": "ავღანეთი",
        "name:yi": "אפגאניסטאן",
        "name:yo": "Afghanístàn",
        "name:za": "Afghanistan",
        "name:zea": "Afghanistan",
        "name:zh": "阿富汗",
        "name:zh-classical": "阿富汗",
        "name:zh-min-nan": "Afghanistan",
        "name:zh-yue": "阿富汗",
        "name:zh_pinyin": "Āfùhàn",
        "name:zu": "I-Afganistani",
        "official_name": "Cộng hòa Hồi giáo Afghanistan",
        "official_name:ace": "Republik Islam Afghanistan",
        "official_name:ady": "Ислъам Республикэу Афганистан",
        "official_name:af": "Islamitiese Republiek van Afghanistan",
        "official_name:an": "Republica Islamica d'Afganistán",
        "official_name:ar": "جمهورية أفغانستان الإسلامية",
        "official_name:az": "Əfqanıstan İslam Respublikası",
        "official_name:azb": "افغانیستان ایسلام جومهوریتی",
        "official_name:ba": "Афғанстан Ислам Республикаһы",
        "official_name:bar": "Islamische Republik Afghanistan",
        "official_name:bat-smg": "Afganėstana Ėslamā Respublika",
        "official_name:bcl": "Islamikong Republika kan Apganistan",
        "official_name:be": "Ісламская Рэспубліка Афганістан",
        "official_name:be-tarask": "Ісла́мская Рэспу́бліка Аўганіста́н",
        "official_name:bg": "Ислямска република Афганистан",
        "official_name:bn": "আফগানিস্তান ইসলামী প্রজাতন্ত্র",
        "official_name:bpy": "ইসলামিক প্রজাতন্ত্রি আফগানিস্তান",
        "official_name:br": "Republik Islamek Afghanistan",
        "official_name:bs": "Islamska Republika Afganistan",
        "official_name:bxr": "Лалын Бүгэдэ Найрамдаха Афган Улас",
        "official_name:cbk-zam": "Estado Islimico del Afganistan",
        "official_name:ce": "Исламан Республика ОвхӀан",
        "official_name:ceb": "Islamikong Republika sa Apganistan",
        "official_name:chr": "ᎢᏍᎳᎻᎩ ᏍᎦᏚᎩ ᎾᎿ ᎠᏫᎨᏂᏍᏖᏂ",
        "official_name:ckb": "کۆماری ئیسلامیی ئەفغانستان",
        "official_name:crh": "Afğanistan İslâm Cumhuriyeti",
        "official_name:cs": "Afghánská islámská republika",
        "official_name:cv": "Ислам патшалăхĕ Афганистан",
        "official_name:cy": "Gweriniaeth Islamaidd Affganistan",
        "official_name:da": "Den Islamiske Republik Afghanistan",
        "official_name:de": "Islamische Republik Afghanistan",
        "official_name:diq": "Cumhuriyetê Efğanıstano İslami",
        "official_name:dsb": "Islamska republika Afghanistan",
        "official_name:dty": "इस्लामिक गणतन्त्र अफगानिस्तान",
        "official_name:el": "Ισλαμική Δημοκρατία του Αφγανιστάν",
        "official_name:en": "Islamic Republic of Afghanistan",
        "official_name:eo": "Islama Respubliko Afganistano",
        "official_name:es": "República Islámica de Afganistán",
        "official_name:et": "Afganistani Islamivabariik",
        "official_name:eu": "Afganistango Estatu Islamiarra",
        "official_name:ext": "Repúbrica Islámica d'Afganistán",
        "official_name:fa": "جمهوری اسلامی افغانستان",
        "official_name:fi": "Afganistanin islamilainen tasavalta",
        "official_name:fiu-vro": "Afganistani Islamivabariik",
        "official_name:fo": "Tað Islamska Lýðveldið Afghanistan",
        "official_name:fr": "République islamique d'Afghanistan",
        "official_name:frp": "Rèpublica islamica d’Afganistan",
        "official_name:frr": "Islamisk Republik faan Afghanistan",
        "official_name:fy": "Islamityske Republyk Afganistan",
        "official_name:ga": "Poblacht Ioslamach na Afganastáin",
        "official_name:gd": "Poblachd Ioslamach Afghanastàn",
        "official_name:gl": "República Islámica de Afganistán",
        "official_name:gn": "Tetã Islãrehegua Ahyganitã",
        "official_name:he": "הרפובליקה האסלאמית של אפגניסטן",
        "official_name:hi": "अफ़्ग़ानिस्तान इस्लामिक गणराज्य",
        "official_name:hr": "Islamska Republika Afganistan",
        "official_name:hsb": "Islamski stat Afghanistan",
        "official_name:hu": "Afganisztáni Iszlám Köztársaság",
        "official_name:hy": "Աֆղանստանի Իսլամական Հանրապետություն",
        "official_name:id": "Republik Islam Afganistan",
        "official_name:ilo": "Islamiko a Republibka iti Apganistan",
        "official_name:it": "Repubblica Islamica dell'Afghanistan",
        "official_name:ja": "アフガニスタン・イスラム共和国",
        "official_name:jam": "Izlamik Ripoblik a Afganistan",
        "official_name:ka": "ავღანეთის ისლამური რესპუბლიკა",
        "official_name:kbd": "Афганистэн Мыслимэн Республикэ",
        "official_name:kk": "Ауғанстан Ислам Республикасы",
        "official_name:km": "សាធារណរដ្ឋឥស្លាមអាហ្វហ្គានីស្ថាន",
        "official_name:kn": "ಅಫ್ಘಾನಿಸ್ತಾನ ಇಸ್ಲಾಮೀಯ ಗಣರಾಜ್ಯ",
        "official_name:ko": "아프가니스탄 이슬람 공화국",
        "official_name:krc": "Афганистан Ислам Республика",
        "official_name:ksh": "Islamische Republik Afghanistan",
        "official_name:ku": "Komara Îslamî ya Efxanistanê",
        "official_name:ky": "Афганстан Ислам өлкөсү",
        "official_name:la": "Res Publica Islamica Afganiae",
        "official_name:lez": "Исламдин Респу́блика Афгъаниста́н",
        "official_name:lt": "Afganistãno Islãmo Respùblika",
        "official_name:lv": "Afganistānas Islāma Republika",
        "official_name:mai": "अफगानिस्तान इस्लामिक गणतन्त्र",
        "official_name:mdf": "Исламонь Республик Афганистан",
        "official_name:mg": "Repoblika islamikan' Afganistana",
        "official_name:mhr": "Афганиста́н Ислам Респу́блик",
        "official_name:mi": "Ihirama o Repupirita o Āwhekenetāna",
        "official_name:min": "Republik Islam Afganistan",
        "official_name:mk": "Исламска Република Авганистан",
        "official_name:ml": "ഇസ്ലാമിക്‌ റിപബ്ലിക്‌ ഓഫ്‌ അഫ്ഗാനിസ്താൻ",
        "official_name:mn": "Исламын Бүгд Найрамдах Афган Улс",
        "official_name:mr": "अफगाणिस्तानचे इस्लामी प्रजासत्ताक",
        "official_name:ms": "Republik Islam Afghanistan",
        "official_name:mt": "Repubblika Iżlamika tal-Afganistan",
        "official_name:mwl": "República Eislámica de l Afeganistan",
        "official_name:my": "အာဖဂန်နစ္စတန် အစ္စလာမ် သမ္မတနိုင်ငံ",
        "official_name:myv": "Исламонь Республикась Афганистан",
        "official_name:nah": "Islantlācatlahtohcāyōtl Afganistan",
        "official_name:nds": "Islaamsche Republik Afghanistan",
        "official_name:nds-nl": "islamietiese republiek Afghanistan",
        "official_name:ne": "इस्लामिक गणतन्त्र अफगानिस्तान",
        "official_name:new": "इस्लामी गणतन्त्र अफगानिस्तान",
        "official_name:nl": "Islamitische Republiek Afghanistan",
        "official_name:nn": "Den islamske republikken Afghanistan",
        "official_name:no": "Den islamske republikken Afghanistan",
        "official_name:oc": "Republica islamica d'Afganistan",
        "official_name:or": "ଆଫଗାନିସ୍ତାନ ଇସଲାମିକ ଗଣତନ୍ତ୍ର",
        "official_name:os": "Афгъанистаны пысылмон республикæ",
        "official_name:pa": "ਅਫ਼ਗ਼ਾਨਿਸਤਾਨ ਇਸਲਾਮੀ ਗਣਰਾਜ",
        "official_name:pam": "Islamicung Republica ning Afghanistan",
        "official_name:pap": "República Islámica de Afganistán",
        "official_name:pl": "Islamska Republika Afganistanu",
        "official_name:pnb": "اسلامی لوکراج افغانستان",
        "official_name:ps": "د افغانستان اسلامي جمهوريت",
        "official_name:pt": "República Islâmica do Afeganistão",
        "official_name:qu": "Muslim Ripuwlika Afgansuyu",
        "official_name:rm": "República Islámica de Afganistán",
        "official_name:ro": "Republica Islamică Afghanistan",
        "official_name:roa-tara": "Repubbleche Islameche de ll'Afghanistan",
        "official_name:ru": "Исла́мская Респу́блика Афганиста́н",
        "official_name:rw": "Repebulika y’Ubuyisilamu ya Afuganisitani",
        "official_name:sah": "Афганистаан Ислам Өрөспүүбүлүкэтэ",
        "official_name:scn": "Ripùbblica Islamica di Afghanistan",
        "official_name:sco": "Islamic Republic o Afghanistan",
        "official_name:se": "Afganistana islamlaš dásseváldi",
        "official_name:sh": "Islamska Republika Avganistan",
        "official_name:si": "ඇෆ්ගනිස්ථාන ඉස්ලාමික ජනරජය",
        "official_name:sk": "Afganská islamská republika",
        "official_name:sl": "Islamska republika Afganistan",
        "official_name:so": "Jamuuriyadda islaamiga Afqaanistan",
        "official_name:sq": "Republika Islamike e Afganistanit",
        "official_name:sr": "Исламска Република Авганистан",
        "official_name:su": "Républik Islam Apganistan",
        "official_name:sv": "Islamiska republiken Afghanistan",
        "official_name:sw": "Jamhuri ya Kiislamu ya Afghanistan",
        "official_name:szl": "Islamskŏ Rebublika Afganistanu",
        "official_name:ta": "அப்கானித்தான் இசுலாமியக் குடியரசு",
        "official_name:te": "ఇస్లామిక్ రిపబ్లిక్ ఆఫ్ ఆఫ్ఘనిస్తాన్",
        "official_name:tg": "Ҷумҳурии Исломии Афғонистон",
        "official_name:th": "สาธารณรัฐอิสลามอัฟกานิสถาน",
        "official_name:tk": "Owganystan Yslam Respublikasy",
        "official_name:tl": "Republikang Islamiko ng Afghanistan",
        "official_name:tr": "Afganistan İslam Cumhuriyeti",
        "official_name:tt": "Әфганстан Ислам Җөмһүрияте",
        "official_name:udm": "Исла́м Кун Афганиста́н",
        "official_name:ug": "ئافغانىستان ئىسلام جۇمھۇرىيىتى",
        "official_name:uk": "Ісла́мська Респу́бліка Афганіста́н",
        "official_name:ur": "اسلامی جمہوریہ افغانستان",
        "official_name:uz": "Afgʻoniston Islom Respublikasi",
        "official_name:vec": "Republica Islamica de ł'Afghanistan",
        "official_name:vep": "Afganistanan Islamine Tazovaldkund",
        "official_name:vi": "Cộng hòa Hồi giáo Afghanistan",
        "official_name:vls": "Islamitische Republiek Afghanistan",
        "official_name:war": "Republika Islamika han Afganistan",
        "official_name:wo": "Etaa Islaamik u Taraansisoŋ bu Afganistaan",
        "official_name:xmf": "ავღანეთიშ ისლამური რესპუბლიკა",
        "official_name:yi": "איסלאמישע רעפובליק פון אַפֿגאַניסטאַן",
        "official_name:zea": "Islamitische Rippubliek van Afghanistan",
        "official_name:zh": "阿富汗伊斯兰共和国",
        "official_name:zh-classical": "阿富汗伊斯蘭共和國",
        "official_name:zh-min-nan": "Afghanistan Islam Kiōng-hô-kok",
        "official_name:zh-yue": "阿富汗伊斯蘭共和國",
        "old_name:vi": "A Phú Hãn",
        "timezone": "Asia/Kabul",
        "type": "boundary",
        "wikidata": "Q889",
        "wikipedia": "ps:افغانستان",
        "@geometry": "center"
      },
      "geometry": {
        "type": "Point",
        "coordinates": [
          67.7037327,
          33.9341341
        ]
      },
      "id": "relation/303427"
    },
    {
      "type": "Feature",
      "properties": {
        "@id": "relation/307763",
        "ISO3166-1": "AE",
        "ISO3166-1:alpha2": "AE",
        "ISO3166-1:alpha3": "ARE",
        "ISO3166-1:numeric": "784",
        "admin_level": "2",
        "border_type": "nation",
        "boundary": "administrative",
        "flag": "http://upload.wikimedia.org/wikipedia/commons/c/cb/Flag_of_the_United_Arab_Emirates.svg",
        "is_in:continent": "Asia",
        "name": "الإمارات العربيّة المتّحدة",
        "name:ace": "Uni Emirat Arab",
        "name:af": "Verenigde Arabiese Emirate",
        "name:als": "Vereinigte Arabische Emirate",
        "name:am": "የተባበሩት የዓረብ ግዛቶች",
        "name:an": "Emiratos Arabes Unitos",
        "name:ang": "Geānedan Arabiscan Bregorīce",
        "name:ar": "الإمارات العربية المتحدة",
        "name:arc": "ܐܡܝܪܘܬܐ ܥܪܒܝܬܐ ܡܚܝܕܬܐ",
        "name:arz": "الامارات",
        "name:ast": "Emiratos Árabes Xuníos",
        "name:av": "ГIарабазул Цолъарал Имаратал",
        "name:az": "Birləşmiş Ərəb Əmirlikləri",
        "name:bar": "Vaeinigte Arabische Emirate",
        "name:bat-smg": "Jongtėnē Arabu Emīratā",
        "name:bcl": "Emiratong Arabe Unidos",
        "name:be": "Аб'яднаныя Арабскія Эміраты",
        "name:be-tarask": "Аб’яднаныя Арабскія Эміраты",
        "name:bg": "Обединени арабски емирства",
        "name:bjn": "Syarikat Amiriah Arab",
        "name:bn": "সংযুক্ত আরব আমিরাত",
        "name:bo": "ཡི་ནེ་ཁྲེ་ཀྲི་ཨ་རབ་ཨེ་མེ་རེ་ཁྲི།",
        "name:bpy": "তিলপা আরব আমিরাত",
        "name:br": "Emirelezhioù Arab Unanet",
        "name:bs": "Ujedinjeni Arapski Emirati",
        "name:bug": "Emiriyah Arab Bersatu",
        "name:bxr": "Арабын Нэгэдэһэн Эмир Улас",
        "name:ca": "Emirats Àrabs Units",
        "name:cbk-zam": "Emiratos Unidos del Arabo",
        "name:ce": "Ӏарбийн Цхьаьнакхетта Эмираташ",
        "name:ceb": "Hiniusang Emiratong Arabo",
        "name:ckb": "میرنشینە یەکگرتووە عەرەبییەکان",
        "name:crh": "Birleşken Arap Emirlikleri",
        "name:cs": "Spojené arabské emiráty",
        "name:cy": "Yr Emiradau Arabaidd Unedig",
        "name:da": "Forenede Arabiske Emirater",
        "name:de": "Vereinigte Arabische Emirate",
        "name:diq": "Yewiya Emiranê Erebi",
        "name:dsb": "Zjadnośone Arabske Emiraty",
        "name:dv": "އެކުވެރި ޢަރަބި އިމާރާތު",
        "name:dz": "ཡུ་ནའི་ཊེཊ་ཨ་རབ་ཨེ་མི་རེཊསི་",
        "name:el": "Ηνωμένα Αραβικά Εμιράτα",
        "name:en": "United Arab Emirates",
        "name:eo": "Unuiĝintaj Arabaj Emirlandoj",
        "name:es": "Emiratos Árabes Unidos",
        "name:et": "Araabia Ühendemiraadid",
        "name:eu": "Arabiar Emirerri Batuak",
        "name:ext": "Emiratus Árabis Unius",
        "name:fa": "امارات متحده عربی",
        "name:fi": "Yhdistyneet arabiemiirikunnat",
        "name:fiu-vro": "Araabia Ütisemiraadiq",
        "name:fo": "Sameindu Emirríkini",
        "name:fr": "Émirats arabes unis",
        "name:frp": "Èmirats arabos unis",
        "name:fy": "Feriene Arabyske Emiraten",
        "name:ga": "Aontas na nÉimíríochtaí Arabacha",
        "name:gag": "Birleşik Arab Emirlikleri",
        "name:gd": "Na h-Iomaratan Arabach Aonaichte",
        "name:gl": "Emiratos Árabes Unidos",
        "name:gn": "Aravia Emiryvy Joaju",
        "name:gv": "Ny h-Emmiraidyn Arabagh Unnaneysit",
        "name:hak": "Â-lâ-pak Lièn-ha̍p Thai-kûng-koet",
        "name:he": "איחוד האמירויות הערביות",
        "name:hi": "संयुक्त अरब अमीरात",
        "name:hif": "United Arab Emirates",
        "name:hr": "Ujedinjeni Arapski Emirati",
        "name:hsb": "Zjednoćene arabske emiraty",
        "name:ht": "Emira Arab Ini",
        "name:hu": "Egyesült Arab Emírségek",
        "name:hy": "Արաբական Միացյալ Էմիրություններ",
        "name:ia": "Emiratos Arabe Unite",
        "name:id": "Uni Emirat Arab",
        "name:ie": "Unit Arabic Emiratus",
        "name:ilo": "Dagiti Nagkaykaysa nga Emirato nga Arabo",
        "name:io": "Unionita Araba Emirati",
        "name:is": "Sameinuðu arabísku furstadæmin",
        "name:it": "Emirati Arabi Uniti",
        "name:ja": "アラブ首長国連邦",
        "name:jbo": "gunma xrabo nolseltru",
        "name:jv": "Uni Emirat Arab",
        "name:ka": "არაბთა გაერთიანებული საამიროები",
        "name:kbd": "Хьарып Ӏэмирэт Зэгуэт",
        "name:ki": "United Arab Emirates",
        "name:kk": "Біріккен Араб Әмірліктері",
        "name:kl": "United Arab Emirates",
        "name:kn": "ಸಂಯುಕ್ತ ಅರಬ ಅಮೀರಾತ",
        "name:ko": "아랍에미리트",
        "name:ku": "Mîrnişînên Erebî yên Yekbûyî",
        "name:kv": "Ӧтувтчӧм Араб Эмиратъяс",
        "name:kw": "Pennternasedh Unys Arabek",
        "name:ky": "Бириккен Араб Эмирликтери",
        "name:la": "Phylarchiarum Arabicarum Confoederatio",
        "name:lb": "Vereenegt Arabesch Emiraten",
        "name:lbe": "ЦачIунхьу Аьрабнал Эмиратру",
        "name:lez": "Садхьанвай Араб Эмиратар",
        "name:li": "Vereinegde Arabische Emiraote",
        "name:lij": "Emirati Àrabi Unïi",
        "name:lmo": "Emiraa Arab Ünii",
        "name:lt": "Jungtiniai Arabų Emyratai",
        "name:lv": "Apvienotie Arābu Emirāti",
        "name:mk": "Обединети Арапски Емирати",
        "name:ml": "ഐക്യ അറബ് എമിറേറ്റുകൾ",
        "name:mn": "Арабын Нэгдсэн Эмирт Улс",
        "name:mr": "संयुक्त अरब अमिराती",
        "name:ms": "Emiriah Arab Bersatu",
        "name:mt": "Emirati Għarab Magħquda",
        "name:my": "အာရပ်စော်ဘွားများပြည်ထောင်စုနိုင်ငံ",
        "name:na": "Emireitit Arabiya",
        "name:nah": "Tlacetilīlli Arabiaemiryōtl",
        "name:nds": "Vereenigte Araabsche Emiraten",
        "name:ne": "संयुक्त अरब इमिरेट्स",
        "name:nl": "Verenigde Arabische Emiraten",
        "name:nn": "Dei sameinte arabiske emirata",
        "name:no": "De forente arabiske emirater",
        "name:nov": "Unionati Arabi Emirates",
        "name:nv": "Ásáí Bikéyah Yázhí Ałhidadiidzooígíí",
        "name:oc": "Emirats Arabis Units",
        "name:or": "ୟୁନାଇଟେଡ଼ ଆରବ ଏମିରଟ",
        "name:os": "Араббы Иугонд Эмираттæ",
        "name:pa": "ਸੰਯੁਕਤ ਅਰਬ ਇਮਰਾਤ",
        "name:pag": "Emiratos diad Unido ya Arabo",
        "name:pam": "Emiratos Arabes Unidos",
        "name:pl": "Zjednoczone Emiraty Arabskie",
        "name:pms": "Emirà Àrabo Unì",
        "name:pnb": "متحدہ عرب امارات",
        "name:ps": "عربي متحده امارات",
        "name:pt": "Emirados Árabes Unidos",
        "name:qu": "Hukllachasqa Arab Imiratukuna",
        "name:ro": "Emiratele Arabe Unite",
        "name:roa-tara": "Emirate Arabe Aunìte",
        "name:ru": "Объединённые Арабские Эмираты",
        "name:rue": "Споєны Арабскы Еміраты",
        "name:rw": "Nyarabu Zunze Ubumwe",
        "name:sah": "Холбоhуктаах Араб Эмираттара",
        "name:scn": "Emirati Àrabbi Uniti",
        "name:sco": "Unitit Arab Emirates",
        "name:sd": "گڏيل عرب امارات",
        "name:se": "Ovttastuvvan arábaemiráhtat",
        "name:sh": "Ujedinjeni Arapski Emirati",
        "name:sk": "Spojené arabské emiráty",
        "name:sl": "Združeni arabski emirati",
        "name:so": "Imaaraatka Carabta",
        "name:sq": "Emiratet e Bashkuara Arabe",
        "name:sr": "Уједињени Арапски Емирати",
        "name:ss": "Bunye bema-Arabhu",
        "name:stq": "Fereende Arabiske Emiroate",
        "name:su": "Uni Émirat Arab",
        "name:sv": "Förenade Arabemiraten",
        "name:sw": "Falme za Kiarabu",
        "name:szl": "Zjednoczůne Arabske Ymiraty",
        "name:ta": "ஐக்கிய அரபு அமீரகம்",
        "name:te": "యునైటెడ్ అరబ్ ఎమిరేట్స్",
        "name:tg": "Аморати Муттаҳидаи Араб",
        "name:th": "สหรัฐอาหรับเอมิเรตส์",
        "name:tk": "Birleşen Arap Emirlikleri",
        "name:tl": "United Arab Emirates",
        "name:tr": "Birleşik Arap Emirlikleri",
        "name:tt": "Берләшкән Гарәп Әмирлекләре",
        "name:udm": "Огазеяськем Араб Эмиратъёс",
        "name:ug": "ئەرەب بىرلەشمە خەلىپىلىكى",
        "name:uk": "Об'єднані Арабські Емірати",
        "name:ur": "متحدہ عرب امارات",
        "name:uz": "Birlashgan Arab Amirliklari",
        "name:vep": "Araban Ühtenzoittud Valdkundad",
        "name:vi": "Các Tiểu vương quốc Ả Rập Thống nhất",
        "name:vo": "Lemiräns Larabik Pebalöl",
        "name:war": "Emiratos Arabes Unidos",
        "name:wo": "Imaaraat yu Araab yu Bennoo yi",
        "name:wuu": "阿拉伯联合酋长国",
        "name:xal": "Ниицәтә Араб Нутгуд",
        "name:yi": "פאראייניגטע אראבישע עמיראטן",
        "name:yo": "Àwọn Ẹ́mírétì Árábù Aṣọ̀kan",
        "name:zh": "阿拉伯联合酋长国",
        "name:zh-min-nan": "A-la-pek Liân-ha̍p Thâu-lâng-kok",
        "name:zh-yue": "阿拉伯聯合酋長國",
        "official_name:cs": "Stát Spojené arabské emiráty",
        "old_name:vi": "Các quốc gia ngừng bắn;Oman ngừng bắn",
        "ref": "AE",
        "short_name:eo": "UAE",
        "short_name:ru": "ОАЭ",
        "state_code": "AE",
        "timezone": "Asia/Dubai",
        "type": "boundary",
        "wikidata": "Q878",
        "wikipedia": "en:United Arab Emirates",
        "@geometry": "center"
      },
      "geometry": {
        "type": "Point",
        "coordinates": [
          54.0092586,
          24.3916716
        ]
      },
      "id": "relation/307763"
    },
    {
      "type": "Feature",
      "properties": {
        "@id": "relation/364066",
        "ISO3166-1": "AM",
        "ISO3166-1:alpha2": "AM",
        "ISO3166-1:alpha3": "ARM",
        "ISO3166-1:numeric": "051",
        "admin_level": "2",
        "alt_name:ady": "Ермэлые",
        "alt_name:av": "Эрменистан",
        "alt_name:eo": "Armenio",
        "alt_name:gd": "Arminia",
        "alt_name:gn": "Aymeña",
        "alt_name:jv": "Hayastan",
        "alt_name:kk": "Әрменстан;Әрмения",
        "alt_name:kn": "ಹಯಸ್ತಾನಿ ಹನ್ರಪೆತುತ್ಯುನ್",
        "alt_name:ku": "Flestan",
        "alt_name:lad": "Ermenistan",
        "alt_name:lij": "Ærminnia",
        "alt_name:lo": "ປະເທດຮາຢາສະຕານ",
        "alt_name:os": "Сомих",
        "alt_name:pt": "Armênia",
        "alt_name:rue": "Арменьско",
        "alt_name:sh": "Armenija",
        "alt_name:te": "ఆర్మీనియా",
        "alt_name:th": "อาร์เมเนีย",
        "alt_name:vi": "Acmeni",
        "boundary": "administrative",
        "flag": "http://upload.wikimedia.org/wikipedia/commons/2/2f/Flag_of_Armenia.svg",
        "int_name": "Armenia",
        "int_ref": "AM",
        "is_in:continent": "Europe",
        "name": "Հայաստան",
        "name:ab": "Ермантәыла",
        "name:ace": "Armenia",
        "name:ady": "Армение",
        "name:af": "Armenië",
        "name:ak": "Armenia",
        "name:als": "Armenie",
        "name:am": "አርመኒያ",
        "name:an": "Armenia",
        "name:ang": "Armenia",
        "name:ar": "أرمينيا",
        "name:arc": "ܐܪܡܢܝܐ",
        "name:arz": "أرمينيا",
        "name:as": "আৰ্মেনিয়া",
        "name:ast": "Armenia",
        "name:av": "ЦIамухъ",
        "name:az": "Ermənistan",
        "name:azb": "ائرمنیستان",
        "name:ba": "Әрмәнстан",
        "name:bar": "Armenien",
        "name:bat-smg": "Armienėjė",
        "name:bcl": "Armenya",
        "name:be": "Арме́нія",
        "name:be-tarask": "Армэ́нія",
        "name:bg": "Армения",
        "name:bh": "आर्मीनिया",
        "name:bi": "Armenia",
        "name:bm": "Arimeni",
        "name:bn": "আর্মেনিয়া",
        "name:bo": "ཨར་མེ་ནི་ཡ།",
        "name:bpy": "আর্মেনিয়া",
        "name:br": "Armenia",
        "name:bs": "Ermenija",
        "name:bxr": "Армени",
        "name:ca": "Armènia",
        "name:cbk-zam": "Armenia",
        "name:cdo": "Ā-mī-nà̤-ā",
        "name:ce": "Аремалойн",
        "name:ceb": "Armenya",
        "name:ch": "Armenia",
        "name:chr": "ᎠᎺᏂᏱ",
        "name:ckb": "ئەرمەنستان",
        "name:co": "Armenia",
        "name:crh": "Ermenistan",
        "name:cs": "Arménie",
        "name:csb": "Armenijô",
        "name:cu": "Армєні́ꙗ",
        "name:cv": "Эрмени",
        "name:cy": "Armenia",
        "name:da": "Armenien",
        "name:de": "Armenien",
        "name:diq": "Ermenıstan",
        "name:dsb": "Armeńska",
        "name:dty": "आर्मीनिया",
        "name:dv": "އަރުމީނިއާ",
        "name:dz": "ཨར་མི་ནི་ཡ",
        "name:ee": "Armenia",
        "name:el": "Αρμενία",
        "name:eml": "Armègna",
        "name:en": "Armenia",
        "name:eo": "Armenujo",
        "name:es": "Armenia",
        "name:et": "Armeenia",
        "name:eu": "Armenia",
        "name:ext": "Arménia",
        "name:fa": "ارمنستان",
        "name:ff": "Armaaniya",
        "name:fi": "Armenia",
        "name:fiu-vro": "Armeeniä",
        "name:fo": "Armenia",
        "name:fr": "Arménie",
        "name:frp": "Armènie",
        "name:frr": "Armeenien",
        "name:fur": "Armenie",
        "name:fy": "Armeenje",
        "name:ga": "An Airméin",
        "name:gag": "Armeniya",
        "name:gd": "Airmeinia",
        "name:gl": "Armenia",
        "name:glk": "Armөnөston",
        "name:gn": "Aymenia",
        "name:gom": "अर्मेनिया",
        "name:gu": "આર્મેનિયા",
        "name:gv": "Armeain",
        "name:ha": "Armeniya",
        "name:hak": "Â-mî-nì-â",
        "name:haw": "‘Āmēnia",
        "name:he": "אַרְמֶנְיָה",
        "name:hi": "आर्मीनिया",
        "name:hif": "Armenia",
        "name:hr": "Armenija",
        "name:hsb": "Armenska",
        "name:ht": "Ameni",
        "name:hu": "Örményország",
        "name:hy": "Հայաստան",
        "name:ia": "Armenia",
        "name:id": "Armenia",
        "name:ie": "Armenia",
        "name:ilo": "Armenia",
        "name:io": "Armenia",
        "name:is": "Armenía",
        "name:it": "Armenia",
        "name:ja": "アルメニア",
        "name:jam": "Aamiinia",
        "name:jbo": "xaiastan",
        "name:jv": "Armènia",
        "name:ka": "სომხეთი",
        "name:kaa": "Armeniya",
        "name:kab": "Arminya",
        "name:kbp": "Armenii",
        "name:kg": "Armenia",
        "name:ki": "Armenia",
        "name:kk": "Армения",
        "name:kl": "Armenia",
        "name:km": "អាមេនី",
        "name:kn": "ಆರ್ಮೇನಿಯ",
        "name:ko": "아르메니아",
        "name:krc": "Эрмения",
        "name:ks": "اَرمانِیا",
        "name:ksh": "Arrmeenije",
        "name:ku": "Ermenistan",
        "name:kv": "Армения",
        "name:kw": "Armeni",
        "name:ky": "Армения",
        "name:la": "Armenia",
        "name:lad": "Armenia",
        "name:lb": "Armenien",
        "name:lez": "Эрменистан",
        "name:lg": "Arameniya",
        "name:li": "Armenië",
        "name:lij": "Armenia",
        "name:lmo": "Armenia",
        "name:ln": "Armeni",
        "name:lo": "ປະເທດອາກເມນີ",
        "name:lrc": "أرمنستان",
        "name:lt": "Armėnija",
        "name:ltg": "Armeneja",
        "name:lv": "Armēnija",
        "name:mai": "अर्मेनिया",
        "name:mdf": "Армение",
        "name:mg": "Armenia",
        "name:mhr": "Арме́ний",
        "name:mi": "Āmenia",
        "name:min": "Armenia",
        "name:mk": "Ерменија",
        "name:ml": "അർമേനിയ",
        "name:mn": "Армен",
        "name:mo": "Армения",
        "name:mr": "आर्मेनिया",
        "name:mrj": "Арме́ни",
        "name:ms": "Armenia",
        "name:mt": "Armenja",
        "name:mwl": "Arménia",
        "name:my": "အာမေးနီးယားနိုင်ငံ",
        "name:myv": "Армения Мастор",
        "name:mzn": "ارمنستون",
        "name:na": "Arminiya",
        "name:nah": "Armenia",
        "name:nap": "Armenia",
        "name:nds": "Armenien",
        "name:nds-nl": "Armenië",
        "name:ne": "आर्मेनिया",
        "name:new": "आर्मेनिया",
        "name:nl": "Armenië",
        "name:nn": "Armenia",
        "name:no": "Armenia",
        "name:nov": "Armenia",
        "name:nv": "Aooméénii Bikéyah",
        "name:oc": "Armenia",
        "name:olo": "Armenii",
        "name:om": "Armeeniyaa",
        "name:or": "ଆର୍ମେନିଆ",
        "name:os": "Сомихыстон",
        "name:pa": "ਅਰਮੀਨੀਆ",
        "name:pag": "Hayastan",
        "name:pam": "Armenia",
        "name:pap": "Armenia",
        "name:pcd": "Arménie",
        "name:pdc": "Armeni",
        "name:pi": "आर्मीनिया",
        "name:pih": "Aarmanya",
        "name:pl": "Armenia",
        "name:pms": "Armenia",
        "name:pnb": "آرمینیا",
        "name:pnt": "Αρμενία",
        "name:ps": "ارمنستان",
        "name:pt": "Arménia",
        "name:qu": "Arminya",
        "name:rm": "Armenia",
        "name:rn": "Arumeniya",
        "name:ro": "Armenia",
        "name:roa-rup": "Ermenia",
        "name:ru": "Арме́ния",
        "name:rue": "Арменія",
        "name:rw": "Arumeniya",
        "name:sa": "आर्मीनिया",
        "name:sah": "Эрмээн Сирэ",
        "name:sc": "Armènia",
        "name:scn": "Armenia",
        "name:sco": "Armenie",
        "name:sd": "آرمينيا",
        "name:se": "Armenia",
        "name:sg": "Armenïi",
        "name:sh": "Jermenija",
        "name:si": "ආර්මේනියාව",
        "name:sk": "Arménsko",
        "name:sl": "Armenija",
        "name:sm": "Amenia",
        "name:sn": "Armenia",
        "name:so": "Armania",
        "name:sq": "Armenia",
        "name:sr": "Јерменија",
        "name:ss": "iArimeniya",
        "name:stq": "Armenien",
        "name:su": "Arménia",
        "name:sv": "Armenien",
        "name:sw": "Armenia",
        "name:szl": "Armyńijo",
        "name:ta": "ஆர்மீனியா",
        "name:te": "ఆర్మేనియా",
        "name:tet": "Arménia",
        "name:tg": "Арманистон",
        "name:th": "อาร์มีเนีย",
        "name:ti": "አርሜኒያ",
        "name:tk": "Ermenistan",
        "name:tl": "Armenya",
        "name:to": "ʻĀminia",
        "name:tok": "ma Aja",
        "name:tpi": "Armenia",
        "name:tr": "Ermenistan",
        "name:ts": "Armenia",
        "name:tt": "Әрмәнстан",
        "name:tum": "Armenia",
        "name:tw": "Aminia",
        "name:ty": "Āmenia",
        "name:tzl": "Haiastan",
        "name:udm": "Армения",
        "name:ug": "ئەرمېنىيە",
        "name:uk": "Вірме́нія",
        "name:ur": "آرمینیا",
        "name:uz": "Armaniston",
        "name:vec": "Armenia",
        "name:vep": "Armenii",
        "name:vi": "Armenia",
        "name:vls": "Armenië",
        "name:vo": "Larmeniyän",
        "name:war": "Armenya",
        "name:wo": "Armeeni",
        "name:wuu": "亚美尼亚",
        "name:xal": "Хемшудин Орн",
        "name:xmf": "სომხეთი",
        "name:yi": "אַרמעניע",
        "name:yo": "Arméníà",
        "name:za": "Armenia",
        "name:zea": "Armenië",
        "name:zh": "亞美尼亞",
        "name:zh-classical": "亞美尼亞",
        "name:zh-min-nan": "Hayastan",
        "name:zh-yue": "亞美尼亞",
        "name:zh_pinyin": "Yàměiníyà",
        "name:zu": "i-Armenia",
        "official_name": "Հայաստանի Հանրապետություն",
        "official_name:ab": "Ермантәыла Аҳәынҭқарра",
        "official_name:ady": "Республикэу Армение",
        "official_name:af": "Republiek van Armenië",
        "official_name:als": "Republik Armenie",
        "official_name:am": "የአርሜንያ ሪፐብሊክ",
        "official_name:an": "Republica d'Armenia",
        "official_name:ar": "جمهورية أرمينيا",
        "official_name:arc": "ܩܘܛܢܝܘܬܐ ܕܐܪܡܢܝܐ",
        "official_name:arz": "جمهورية أرمينيا",
        "official_name:ast": "República d'Armenia",
        "official_name:az": "Ermənistan Respublikası",
        "official_name:azb": "ائرمنیستان جومهوریتی",
        "official_name:ba": "Әрмәнстан Республикаһы",
        "official_name:bar": "Republik Armenien",
        "official_name:bcl": "Republika nin Armenia",
        "official_name:be": "Рэспу́бліка Арме́нія",
        "official_name:be-tarask": "Рэспу́бліка Армэ́нія",
        "official_name:bg": "Република Армения",
        "official_name:bh": "आर्मीनिया रिपब्लिक",
        "official_name:bn": "প্রজাতন্ত্রী আর্মেনিয়া",
        "official_name:bpy": "প্রজাতন্ত্রি আর্মেনিয়া",
        "official_name:br": "Republik Armenia",
        "official_name:bs": "Republika Ermenija",
        "official_name:bxr": "Бүгэдэ Найрамдаха Армени Улас",
        "official_name:ca": "República d'Armènia",
        "official_name:chr": "ᏍᎦᏚᎩ ᎾᎿ ᎠᎵᎻᏂᎠ",
        "official_name:ckb": "کۆماری ئەرمەنیا",
        "official_name:co": "Republica di Armenia",
        "official_name:crh": "Ermenistan Cumhuriyeti",
        "official_name:cs": "Arménská republika",
        "official_name:cu": "Армєні́ꙗ Димократі́ꙗ",
        "official_name:cy": "Gweriniaeth Armenia",
        "official_name:da": "Republikken Armenien",
        "official_name:de": "Republik Armenien",
        "official_name:diq": "Cumhuriyetê Ermenıstani",
        "official_name:dsb": "Republika Armeńska",
        "official_name:dty": "आर्मीनिया गणराज्य",
        "official_name:el": "Δημοκρατία της Αρμενίας",
        "official_name:eml": "Repùblica 'd Armègna",
        "official_name:en": "Republic of Armenia",
        "official_name:eo": "Armena Respubliko",
        "official_name:es": "República de Armenia",
        "official_name:et": "Armeenia Vabariik",
        "official_name:eu": "Armeniako Errepublika",
        "official_name:fa": "جمهوری ارمنستان",
        "official_name:ff": "Republik bu Armaaniya",
        "official_name:fi": "Armenian tasavalta",
        "official_name:fiu-vro": "Armeeniä Vabariik",
        "official_name:fo": "Lýðveldið Armenia",
        "official_name:fr": "République d'Arménie",
        "official_name:frr": "Republiik Armeenien",
        "official_name:ga": "Poblacht na hAirméine",
        "official_name:gag": "Ermeniya Respublikası",
        "official_name:gd": "Poblachd Airmeinia",
        "official_name:gl": "República de Armenia",
        "official_name:gn": "Tetã Armenia",
        "official_name:gu": "આર્મેનિયા ગણરાજ્ય",
        "official_name:gv": "Pobblaght ny h-Armeain",
        "official_name:haw": "Lepupalika o ʻĀmēnia",
        "official_name:he": "רֶפּוּבְּלִיקַת אַרְמֶנְיָה",
        "official_name:hi": "आर्मीनिया गणराज्य",
        "official_name:hr": "Republika Armenija",
        "official_name:hsb": "Armenska republika",
        "official_name:hu": "Örmény Köztársaság",
        "official_name:hy": "Հայաստանի Հանրապետություն",
        "official_name:ia": "Republica de Armenia",
        "official_name:id": "Republik Armenia",
        "official_name:ilo": "Republika ti Armenia",
        "official_name:io": "Republiko Armenia",
        "official_name:is": "Lýðveldið Armenía",
        "official_name:it": "Repubblica di Armenia",
        "official_name:ja": "アルメニア共和国",
        "official_name:jam": "Ripoblik a Aamiinia",
        "official_name:ka": "სომხეთის რესპუბლიკა",
        "official_name:kab": "Tagduda n Arminya",
        "official_name:kk": "Армения Республикасы",
        "official_name:km": "សាធារណរដ្ឋអាមេនី",
        "official_name:kn": "ಆರ್ಮೇನಿಯ ಗಣರಾಜ್ಯ",
        "official_name:ko": "아르메니아 공화국",
        "official_name:krc": "Эрмения Республика",
        "official_name:ku": "Komara Ermenistanê",
        "official_name:kv": "Армения Республика",
        "official_name:kw": "Repoblek Armeni",
        "official_name:ky": "Армения Республикасы",
        "official_name:la": "Res publica Armenia",
        "official_name:lad": "Repuvlika de Armenia",
        "official_name:lb": "Republik Armenien",
        "official_name:lez": "Республика Эрменистан",
        "official_name:li": "Rippebliek Armenië",
        "official_name:lrc": "کۈمرأ ڤولات أرمنستان",
        "official_name:lt": "Armėnijos Respublika",
        "official_name:lv": "Armēnijas Republika",
        "official_name:mai": "अर्मेनिया गणतन्त्र",
        "official_name:mdf": "Армениень республикась",
        "official_name:mhr": "Арме́ний Респу́блик",
        "official_name:mk": "Република Ерменија",
        "official_name:ml": "റിപബ്ലിക്ക്‌ ഓഫ്‌ അർമേനിയ",
        "official_name:mn": "Бүгд Найрамдах Армен Улс",
        "official_name:mr": "आर्मेनियाचे प्रजासत्ताक",
        "official_name:mrj": "Арме́ни Респу́блика",
        "official_name:ms": "Republik Armenia",
        "official_name:mt": "Repubblika tal-Armenja",
        "official_name:my": "အာမေးနီးယား သမ္မတနိုင်ငံ",
        "official_name:myv": "Армениянь Республика",
        "official_name:nah": "Tlācatlahtohcāyōtl Armenia",
        "official_name:nap": "Repubbreca 'e Armenia",
        "official_name:nds": "Republik Armenien",
        "official_name:nds-nl": "Reppubliek Armenië",
        "official_name:ne": "आर्मीनिया गणराज्य",
        "official_name:new": "आर्मेनिया गणराज्य",
        "official_name:nl": "Republiek Armenië",
        "official_name:nn": "Republikk Armenia",
        "official_name:no": "Republikken Armenia",
        "official_name:oc": "Republica d'Armenia",
        "official_name:olo": "Armenien tazavaldu",
        "official_name:om": "Rippabliikii Armeeniyaa",
        "official_name:os": "Республикæ Сомих",
        "official_name:pam": "Republika ning Armenia",
        "official_name:pap": "Republika di Armenia",
        "official_name:pcd": "République d'Arménie",
        "official_name:pl": "Republika Armenii",
        "official_name:ps": "ارمنستان جمهوريت",
        "official_name:pt": "República da Armênia",
        "official_name:qu": "Arminya Ripuwlika",
        "official_name:ro": "Republica Armenia",
        "official_name:roa-rup": "Republia Ermenia",
        "official_name:ru": "Респу́блика Арме́ния",
        "official_name:rue": "Арменьска републіка",
        "official_name:sah": "Эрмээн Сирин Республиката",
        "official_name:sco": "Republic o Armenie",
        "official_name:se": "Armenia dásseváldi",
        "official_name:sh": "Republika Jermenija",
        "official_name:si": "ආර්මේනියානු ජනරජය",
        "official_name:sk": "Arménska republika",
        "official_name:sl": "Republika Armenija",
        "official_name:sm": "Lepulika o Amenia",
        "official_name:sq": "Republika e Armenisë",
        "official_name:sr": "Република Јерменија",
        "official_name:stq": "Republik Armenien",
        "official_name:su": "Républik Arménia",
        "official_name:sv": "Republiken Armenien",
        "official_name:sw": "Jamhuri ya Armenia",
        "official_name:ta": "ஆர்மீனியக் குடியரசு",
        "official_name:te": "రిపబ్లిక్ ఆఫ్ ఆర్మేనియా",
        "official_name:th": "สาธารณรัฐอาร์มีเนีย",
        "official_name:tk": "Ermenistan Respublikasy",
        "official_name:tl": "Republika ng Armenia",
        "official_name:tr": "Ermenistan Cumhuriyeti",
        "official_name:tt": "Әрмәнстан Җөмһүрияте",
        "official_name:udm": "Армян Элькун",
        "official_name:ug": "ئارمېنىيە جۇمىۇرىيىتى",
        "official_name:uk": "Респу́бліка Вірме́нія",
        "official_name:ur": "جمہوریہ آرمینیا",
        "official_name:uz": "Armaniston Respublikasi",
        "official_name:vec": "Republica de Armenia",
        "official_name:vep": "Armenijan Tazovaldkund",
        "official_name:vi": "Cộng hoà Armenia",
        "official_name:vls": "Republiek Armenië",
        "official_name:wo": "Republik bu Armeeni",
        "official_name:wuu": "亚美尼亚共和国",
        "official_name:yi": "רעפובליק פון ארמעניע",
        "official_name:yo": "Republic of Armenia",
        "official_name:zea": "Republiek Armenië",
        "official_name:zh": "亞美尼亞共和國",
        "official_name:zh-classical": "亞美尼亞共和國",
        "official_name:zh-min-nan": "Armenia Kiōng-hô-kok",
        "official_name:zh-yue": "亞美尼亞共和國",
        "timezone": "Asia/Yerevan",
        "type": "boundary",
        "wikidata": "Q399",
        "wikipedia": "hy:Հայաստան",
        "@geometry": "center"
      },
      "geometry": {
        "type": "Point",
        "coordinates": [
          45.0402241,
          40.0705947
        ]
      },
      "id": "relation/364066"
    },
    {
      "type": "Feature",
      "properties": {
        "@id": "relation/364110",
        "ISO3166-1": "AZ",
        "ISO3166-1:alpha2": "AZ",
        "ISO3166-1:alpha3": "AZE",
        "ISO3166-1:numeric": "031",
        "admin_level": "2",
        "alt_name:af": "Azerbaidjan;Aserbeidjan",
        "alt_name:azb": "آذربایجان جۆمهۇریّتی",
        "alt_name:bg": "Азърбайджан",
        "alt_name:gd": "Asarbajan",
        "alt_name:gn": "Aseyvaijã",
        "alt_name:la": "Azerbaigiania",
        "alt_name:mwl": "Azerbaidjon",
        "alt_name:qu": "Asirwayan",
        "alt_name:sg": "Azerbaidyäan",
        "alt_name:sh": "Azerbajdžan",
        "alt_name:war": "Azerbaijan",
        "boundary": "administrative",
        "flag": "http://upload.wikimedia.org/wikipedia/commons/d/dd/Flag_of_Azerbaijan.svg",
        "int_name": "Azerbaijan",
        "int_ref": "AZ",
        "is_in:continent": "Europe",
        "name": "Azərbaycan",
        "name:ab": "Азербаиџьан",
        "name:ace": "Azèrbaijan",
        "name:ady": "Азербайджан",
        "name:af": "Azerbeidjan",
        "name:ak": "Azerbaijan",
        "name:als": "Aserbaidschan",
        "name:am": "አዘርባይጃን",
        "name:an": "Azerbaichán",
        "name:ang": "Azerbaijan",
        "name:ar": "أذربيجان",
        "name:arc": "ܐܙܪܒܝܓܐܢ",
        "name:arz": "اذيربايجان",
        "name:as": "আজেৰবাইজান",
        "name:ast": "Azerbaixán",
        "name:av": "Азарбижан",
        "name:az": "Azərbaycan",
        "name:az-cyr": "Азәрбајҹан",
        "name:azb": "آذربایجان",
        "name:ba": "Әзербайжан",
        "name:bar": "Aserbaidschan",
        "name:bat-smg": "Azėrbaidžians",
        "name:bcl": "Aserbayhan",
        "name:be": "Азербайджа́н",
        "name:be-tarask": "Азэрбайджа́н",
        "name:bg": "Азербайджан",
        "name:bh": "अज़रबैजान",
        "name:bi": "Azerbaijan",
        "name:bm": "Azɛrbayjaŋ",
        "name:bn": "আজারবাইজান",
        "name:bo": "ཨ་ཛར་བཡི་ཇན།",
        "name:bpy": "আজারবাইজান",
        "name:br": "Azerbaidjan",
        "name:bs": "Azerbejdžan",
        "name:bxr": "Азербайджан",
        "name:ca": "Azerbaidjan",
        "name:cbk-zam": "Azerbaiyán",
        "name:cdo": "Azerbaijan",
        "name:ce": "Азербайджа́н",
        "name:ceb": "Aserbaiyan",
        "name:chr": "ᎠᏎᏆᏣᏂ",
        "name:ckb": "ئازەربایجان",
        "name:co": "Azerbaighjan",
        "name:crh": "Azerbaycan",
        "name:cs": "Ázerbájdžán",
        "name:csb": "Azerbejdżan",
        "name:cu": "Аꙁѣрбаича́нъ",
        "name:cv": "Азербайджан",
        "name:cy": "Aserbaijan",
        "name:da": "Aserbajdsjan",
        "name:de": "Aserbaidschan",
        "name:diq": "Azerbaycan",
        "name:dsb": "Azerbajdžan",
        "name:dty": "अज़रबैजान",
        "name:dv": "އަޒަރުބައިޖާން",
        "name:dz": "ཨཛར་བཡེ་ཇན།",
        "name:ee": "Azerbaijan",
        "name:el": "Αζερμπαϊτζάν",
        "name:en": "Azerbaijan",
        "name:eo": "Azerbajĝano",
        "name:es": "Azerbaiyán",
        "name:et": "Aserbaidžaan",
        "name:eu": "Azerbaijan",
        "name:ext": "Azerbaiyán",
        "name:fa": "آذربایجان",
        "name:ff": "Aserbayjan",
        "name:fi": "Azerbaidžan",
        "name:fiu-vro": "Asõrbaidžaan",
        "name:fo": "Aserbadsjan",
        "name:fr": "Azerbaïdjan",
        "name:frp": "Azèrbayidj·an",
        "name:frr": "Aserbaidschan",
        "name:fur": "Azerbaigian",
        "name:fy": "Azerbeidzjan",
        "name:ga": "an Asarbaiseáin",
        "name:gag": "Azerbaycan",
        "name:gd": "Asarbaideàn",
        "name:gl": "Acerbaixán",
        "name:glk": "آذربایجؤن",
        "name:gn": "Aservaijã",
        "name:gom": "अझरबैजान",
        "name:gu": "અઝેરબીજાન",
        "name:gv": "yn Asserbajaan",
        "name:ha": "Azerbaijan",
        "name:hak": "Â-set-pai-kiông",
        "name:haw": "ʻAkepaikana",
        "name:he": "אָזַרְבַּיְיגָ'ן",
        "name:hi": "अज़रबैजान",
        "name:hif": "Azerbaijan",
        "name:hr": "Azerbajdžan",
        "name:hsb": "Azerbajdźan",
        "name:ht": "Azerbaydjan",
        "name:hu": "Azerbajdzsán",
        "name:hy": "Ադրբեջան",
        "name:ia": "Azerbaidzhan",
        "name:id": "Azerbaijan",
        "name:ie": "Azerbaidjan",
        "name:ilo": "Azerbaijan",
        "name:io": "Azerbaijan",
        "name:is": "Aserbaísjan",
        "name:it": "Azerbaigian",
        "name:ja": "アゼルバイジャン",
        "name:jam": "Azabaijan",
        "name:jbo": "azerbaidjan",
        "name:jv": "Azerbaijan",
        "name:ka": "აზერბაიჯანი",
        "name:kaa": "A'zerbayjan",
        "name:kab": "Azerbijan",
        "name:kbd": "Азэрбиджан",
        "name:kbp": "Azɛrbayɩjanɩ",
        "name:kg": "Azerbaidjan",
        "name:ki": "Azerbaijan",
        "name:kk": "Әзірбайжан",
        "name:kl": "Aserbajdsjan",
        "name:km": "អាស៊ែបៃហ្សង់",
        "name:kn": "ಅಜೆರ್ಬೈಜಾನ್",
        "name:ko": "아제르바이잔",
        "name:krc": "Азербайджан",
        "name:ks": "آزَرباجان",
        "name:ksh": "Asserbaidschahn",
        "name:ku": "Azerbaycan",
        "name:kv": "Азербайджа́н",
        "name:kw": "Azerbayjan",
        "name:ky": "Азербайжан",
        "name:la": "Atropatene",
        "name:lad": "Azerbaidjan",
        "name:lb": "Aserbaidschan",
        "name:lbe": "Азирбижан",
        "name:lez": "Азербайжан",
        "name:lg": "Azerebayijaani",
        "name:li": "Azerbaidzjan",
        "name:lij": "Azerbaijan",
        "name:lmo": "Azerbaigian",
        "name:ln": "Azɛrbayzáni",
        "name:lo": "ປະເທດອາແຊກບາຍຊັງ",
        "name:lrc": "آزربایجان",
        "name:lt": "Azerbaidžanas",
        "name:ltg": "Azerbaidžans",
        "name:lv": "Azerbaidžāna",
        "name:mai": "अजरबैजान",
        "name:mdf": "Азербайджан",
        "name:mg": "Azerbaijana",
        "name:mhr": "Азербайджан",
        "name:mi": "Atepaihānia",
        "name:min": "Azerbaijan",
        "name:mk": "Азербејџан",
        "name:ml": "അസർബെയ്ജാൻ",
        "name:mn": "Азербайжан",
        "name:mo": "Азербаиӂан",
        "name:mr": "अझरबैजान",
        "name:mrj": "Азербайджан",
        "name:ms": "Azerbaijan",
        "name:mt": "Ażerbajġan",
        "name:mwl": "Azerbaijon",
        "name:my": "အဇာဘိုင်ဂျန်နိုင်ငံ",
        "name:myv": "Азербайджан",
        "name:mzn": "آذربایجون",
        "name:na": "Aderbaidjan",
        "name:nah": "Azerbaiyan",
        "name:nap": "Azerbaijan",
        "name:nds": "Aserbaidschan",
        "name:nds-nl": "Azerbeidzjan",
        "name:ne": "अजरबैजान",
        "name:new": "अजरबैजान",
        "name:nl": "Azerbeidzjan",
        "name:nn": "Aserbajdsjan",
        "name:no": "Aserbajdsjan",
        "name:nov": "Aserbaijan",
        "name:nv": "Azééwii Bikéyah",
        "name:ny": "Azerbaijan",
        "name:oc": "Azerbaitjan",
        "name:olo": "Azerbaidžuanu",
        "name:om": "Azarbaajan",
        "name:or": "ଆଜାରବାଇଜାନ",
        "name:os": "Азербайджан",
        "name:pa": "ਅਜ਼ਰਬਾਈਜਾਨ",
        "name:pag": "Azerbaijan",
        "name:pam": "Azerbaijan",
        "name:pap": "Azerbaijan",
        "name:pcd": "Azerbaïdjan",
        "name:pdc": "Aserbaidschan",
        "name:pi": "अजर्बैजान",
        "name:pih": "Eserbeyjan",
        "name:pl": "Azerbejdżan",
        "name:pms": "Aserbaigian",
        "name:pnb": "آذربائیجان",
        "name:pnt": "Αζερμπαϊτζάν",
        "name:ps": "آزربایجان",
        "name:pt": "Azerbaijão",
        "name:qu": "Asarsuyu",
        "name:rm": "Aserbeidschan",
        "name:ro": "Azerbaidjan",
        "name:roa-rup": "Azerbaigian",
        "name:ru": "Азербайджа́н",
        "name:rue": "Азербайджан",
        "name:rw": "Azeribayijani",
        "name:sa": "अजर्बैजान",
        "name:sah": "Азербайдьан",
        "name:sc": "Azerbaigián",
        "name:scn": "Azzirbaiggian",
        "name:sco": "Azerbaijan",
        "name:se": "Aserbaižan",
        "name:sg": "Zerebaidyäan",
        "name:sh": "Azerbejdžan",
        "name:si": "අසර්බයිජානය",
        "name:sk": "Azerbajdžan",
        "name:sl": "Azerbajdžan",
        "name:sm": "Azerbaijin",
        "name:sn": "Azerbaijan",
        "name:so": "Aserbiijaan",
        "name:sq": "Azerbajxhani",
        "name:sr": "Азербејџан",
        "name:srn": "Azerbaijanikondre",
        "name:ss": "iZebajani",
        "name:stq": "Aserbaidschan",
        "name:su": "Azerbaijan",
        "name:sv": "Azerbajdzjan",
        "name:sw": "Azerbaijan",
        "name:szl": "Azerbejdżůn",
        "name:ta": "அசர்பைஜான்",
        "name:te": "అజర్‌బైజాన్",
        "name:tet": "Azerbaijaun",
        "name:tg": "Озарбойҷон",
        "name:th": "อาเซอร์ไบจาน",
        "name:ti": "አዘርባጃን",
        "name:tk": "Azerbaýjan",
        "name:tl": "Aserbayan",
        "name:to": "ʻAsapaisani",
        "name:tpi": "Azerbaijan",
        "name:tr": "Azerbaycan",
        "name:ts": "Azerbaijan",
        "name:tt": "Азәрбайҗан",
        "name:tum": "Azerbaijan",
        "name:tw": "Azerbaijan",
        "name:ty": "Atepaihānia",
        "name:tyv": "Азербайджан",
        "name:tzl": "Adarbaixhan",
        "name:udm": "Азербайджан",
        "name:ug": "ئەزەربەيجان",
        "name:uk": "Азербайджа́н",
        "name:ur": "آذربائیجان",
        "name:uz": "Ozarbayjon",
        "name:vec": "Azerbaigian",
        "name:vep": "Azerbaidžan",
        "name:vi": "Azerbaijan",
        "name:vls": "Azerbeidzjan",
        "name:vo": "Lasärbäcän",
        "name:war": "Aserbaiyan",
        "name:wo": "Aserbayjaan",
        "name:wuu": "阿塞拜疆",
        "name:xal": "Азермудин Орн",
        "name:xmf": "აზერბაიჯანი",
        "name:yi": "אַזערבײַדזשאַן",
        "name:yo": "Azerbaijan",
        "name:za": "Ahsehbaiqgyangh",
        "name:zea": "Aâzerbeidzjan",
        "name:zh": "阿塞拜疆",
        "name:zh-classical": "阿塞拜疆",
        "name:zh-min-nan": "Azerbaijan",
        "name:zh-yue": "阿塞拜疆",
        "name:zh_pinyin": "Āsàibàijiāng",
        "name:zu": "Azerbaijan",
        "official_name": "Azərbaycan Respublikası",
        "official_name:ab": "Азербаиџьан Аҳәынҭқарра",
        "official_name:ady": "Азербайджан Республик",
        "official_name:af": "Republiek van Azerbeidjan",
        "official_name:als": "Republik Aserbaidschan",
        "official_name:am": "አዘርባይጃን ሪፐብሊክ",
        "official_name:an": "Republica Azerbaichán",
        "official_name:ar": "جمهورية أذربيجان",
        "official_name:arc": "ܩܘܛܢܝܘܬܐ ܕܐܙܪܒܝܓܐܢ",
        "official_name:arz": "جمهورية أذيربايجان",
        "official_name:as": "প্ৰজাতন্ত্ৰী আজেৰবাইজান",
        "official_name:ast": "República d'Azerbaixán",
        "official_name:av": "Азарбижаналъул ДжумхIурият",
        "official_name:az": "Azərbaycan Respublikası",
        "official_name:azb": "آذربایجان رِسپوبلیکاسی",
        "official_name:ba": "Әзербайжан Республикаһы",
        "official_name:bar": "Republik Aserbaidschan",
        "official_name:bat-smg": "Azėrbaidžiano rėspublika",
        "official_name:be": "Азербайджа́нская Рэспу́бліка",
        "official_name:be-tarask": "Рэспу́бліка Азэрбайджа́н",
        "official_name:bg": "Република Азербайджан",
        "official_name:bn": "প্রজাতন্ত্রী আজারবাইজান",
        "official_name:bpy": "প্রজাতন্ত্রি আজারবাইজান",
        "official_name:br": "Republik Azerbaidjan",
        "official_name:bs": "Republika Azerbejdžan",
        "official_name:bxr": "Бүгэдэ Найрамдаха Азербайджан Улас",
        "official_name:ca": "República de l'Azerbaidjan",
        "official_name:ce": "Азербайджа́нийн Респу́блика",
        "official_name:ceb": "Republika Azerbaijan",
        "official_name:chr": "ᏍᎦᏚᎩ ᎠᏏᎵᏆᏌᏂ",
        "official_name:ckb": "کۆماری ئازەربایجان",
        "official_name:co": "Republica di Azerbaighjan",
        "official_name:crh": "Azerbaycan Cumhuriyeti",
        "official_name:cs": "Ázerbájdžánská republika",
        "official_name:cu": "Аꙁѣрбаича́нъ Димократі́ѩ",
        "official_name:cy": "Gweriniaeth Aserbaijan",
        "official_name:da": "Republikken Aserbajdsjan",
        "official_name:de": "Republik Aserbaidschan",
        "official_name:diq": "Cumhuriyetê Azerbaycani",
        "official_name:dsb": "Republika Azerbajdžana",
        "official_name:dty": "गणतन्त्र अजरबैजान",
        "official_name:el": "Δημοκρατία του Αζερμπαϊτζάν",
        "official_name:en": "Republic of Azerbaijan",
        "official_name:eo": "Azerbajĝana Respubliko",
        "official_name:es": "República de Azerbaiyán",
        "official_name:et": "Aserbaidžaani Vabariik",
        "official_name:eu": "Azerbaijango Errepublika",
        "official_name:ext": "Repúbrica de Azerbaiyán",
        "official_name:fa": "جمهوری آذربایجان",
        "official_name:ff": "Republik bu Aserbayjan",
        "official_name:fi": "Azerbaidžanin tasavalta",
        "official_name:fiu-vro": "Asõrbaidžaani Vabariik",
        "official_name:fr": "République d'Azerbaïdjan",
        "official_name:frr": "Republiik Aserbaidschan",
        "official_name:fy": "Republyk Azerbeidzjan",
        "official_name:ga": "Poblacht na hAsarbaiseáine",
        "official_name:gag": "Azerbaycan Respublikası",
        "official_name:gl": "República de Acerbaixán",
        "official_name:glk": "آذربایجؤن جومهوری",
        "official_name:gn": "Tetã Aservaijã",
        "official_name:gu": "અઝેરબીજાન ગણરાજ્ય",
        "official_name:gv": "Pobblaght ny h-Asserbajaan",
        "official_name:ha": "Jamhuriyar Azerbaijan",
        "official_name:hak": "Azerbaijan Khiung-fò-koet",
        "official_name:he": "הָרֶפּוּבְּלִיקָה שֶׁל אָזַרְבַּיְיגָ'ן",
        "official_name:hi": "अज़रबैजान गणराज्य",
        "official_name:hif": "Republic of Azerbaijan",
        "official_name:hr": "Republika Azerbajdžan",
        "official_name:hsb": "Azerbajdźanska republika",
        "official_name:hu": "Azerbajdzsáni Köztársaság",
        "official_name:hy": "Ադրբեջանական Հանրապետություն",
        "official_name:id": "Republik Azerbaijan",
        "official_name:ilo": "Republika ti Azerbaijan",
        "official_name:io": "Republiko di Azerbaijan",
        "official_name:is": "Lýðveldið Aserbaísjan",
        "official_name:it": "Repubblica dell'Azerbaigian",
        "official_name:ja": "アゼルバイジャン共和国",
        "official_name:jam": "Ripoblik a Azabaijan",
        "official_name:ka": "აზერბაიჯანის რესპუბლიკა",
        "official_name:kbd": "Азэрбиджан Республикэ",
        "official_name:kk": "Әзірбайжан Республикасы",
        "official_name:km": "សាធារណៈរដ្ឋ អាស៊ែបៃហ្សង់",
        "official_name:kn": "ಅಜೆರ್ಬೈಜಾನ್ ಗಣರಾಜ್ಯ",
        "official_name:ko": "아제르바이잔 공화국",
        "official_name:krc": "Азербайджан Республика",
        "official_name:ku": "Komara Azerbaycanê",
        "official_name:kv": "Азербайджа́н Республика",
        "official_name:ky": "Азербайжан Республикасы",
        "official_name:la": "res publica Atropatene",
        "official_name:lad": "Repuvlika de Azerbaidjan",
        "official_name:lb": "Republik Aserbaidschan",
        "official_name:lbe": "Азирбижаннал Республика",
        "official_name:lez": "Азәрбајҹан Республикасы",
        "official_name:li": "Rippubliek Azerbeidzjan",
        "official_name:lij": "Repubbrica d'Azerbaijan",
        "official_name:lmo": "Republega de l'Azerbaigian",
        "official_name:lrc": "کۈمرأ ڤولات آزربایجان",
        "official_name:lt": "Azerbaidžano Respublika",
        "official_name:lv": "Azerbaidžānas Republika",
        "official_name:mai": "अजरबैजान गणराज्य",
        "official_name:mdf": "Азербайджанонь республиксь",
        "official_name:mk": "Република Азејбејџан",
        "official_name:ml": "റിപ്പബ്ലിക് ഓഫ് അസർബെയ്ജാൻ",
        "official_name:mn": "Бүгд Найрамдах Азербайжан Улс",
        "official_name:mr": "अझरबैजानचे प्रजासत्ताक",
        "official_name:ms": "Republik Azerbaijan",
        "official_name:mt": "Repubblika tal-Ażerbajġan",
        "official_name:mwl": "República de l Azerbaijon",
        "official_name:my": "အဇာဘိုင်ဂျန် သမ္မတနိုင်ငံ",
        "official_name:myv": "Азербайджан Республикась",
        "official_name:mzn": "آذربایجون ِجمهوری",
        "official_name:nah": "Tlācatlahtohcāyōtl Azerbaiyan",
        "official_name:nap": "Repubbreca ell'Azerbaijian",
        "official_name:nds": "Republiek Aserbaidschan",
        "official_name:nds-nl": "Reppubliek Azerbeidzjan",
        "official_name:ne": "गणतन्त्र अजरबैजान",
        "official_name:new": "गणतन्त्र अजरबैजान",
        "official_name:nl": "Republiek Azerbeidzjan",
        "official_name:nn": "Republikken Aserbajdsjan",
        "official_name:no": "Republikken Aserbajdsjan",
        "official_name:ny": "Republic Azerbaijan",
        "official_name:oc": "Republica d'Azerbaitjan",
        "official_name:olo": "Azerbaidžuanan tazavaldu",
        "official_name:os": "Азербайджаны Республикæ",
        "official_name:pa": "ਅਜ਼ਰਬਾਈਜਾਨ ਦਾ ਗਣਤੰਤਰ",
        "official_name:pam": "Republika ning Azerbaijan",
        "official_name:pcd": "République d'Azerbaïdjan",
        "official_name:pl": "Republika Azerbejdżanu",
        "official_name:pnb": "آذربائیجان لوکراج",
        "official_name:ps": "اذربايجان جمهوريت",
        "official_name:pt": "República do Azerbaijão",
        "official_name:qu": "Asarsuyu Ripuwlika",
        "official_name:rm": "Republica Aserbeidschan",
        "official_name:ro": "Republica Azerbaidjan",
        "official_name:roa-rup": "Republica Azerbaigian",
        "official_name:ru": "Азербайджа́нская Респу́блика",
        "official_name:rue": "Азербайджаньска републіка",
        "official_name:rw": "Repubulika y’u Azeribayijani",
        "official_name:sah": "Азербайдьан Республиката",
        "official_name:sc": "Repùbrica de s'Azerbaigián",
        "official_name:sco": "Republic o Azerbaijan",
        "official_name:se": "Aserbaižana dásseváldi",
        "official_name:sh": "Republika Azerbajdžan",
        "official_name:sk": "Azerbajdžanská republika",
        "official_name:sl": "Republika Azerbajdžan",
        "official_name:sm": "Lepulika o Azerbaijin",
        "official_name:sq": "Republika e Azerbajxhanit",
        "official_name:sr": "Азербејџанска Република",
        "official_name:stq": "Republik Aserbaidschan",
        "official_name:su": "Républik Azerbaijan",
        "official_name:sv": "Republiken Azerbajdzjan",
        "official_name:sw": "Jamhuri ya Azerbaijan",
        "official_name:szl": "Republika Azerbejdżanu",
        "official_name:ta": "ஆசர்பைசான் குடியரசு",
        "official_name:te": "రిపబ్లిక్ ఆఫ్ అజర్‌బైజాన్",
        "official_name:tet": "Repúblika Azerbaijaun",
        "official_name:tg": "Azərbaycan Jumhuriyati",
        "official_name:th": "สาธารณรัฐอาเซอร์ไบจาน",
        "official_name:tk": "Azerbaýjan Respublikasy",
        "official_name:tl": "Republika ng Azerbaijan",
        "official_name:tr": "Azerbaycan Cumhuriyeti",
        "official_name:tt": "Азәрбайҗан Республикасы",
        "official_name:ug": "ئازەربەيجان جۇمھۇرىيىتى",
        "official_name:uk": "Азербайджа́нська Респу́бліка",
        "official_name:ur": "جمہوریہ آذربائیجان",
        "official_name:uz": "Ozarbayjon Respublikasi",
        "official_name:vec": "Republica de Azerbaigian",
        "official_name:vep": "Azerbaidžanan Tazovaldkund",
        "official_name:vi": "Cộng hoà Azerbaijan",
        "official_name:vls": "Republiek Azerbeidzjan",
        "official_name:war": "Republika han Aserbaiyan",
        "official_name:wo": "Republik bu Aserbayjaan",
        "official_name:xmf": "აზერბაიჯანიშ რესპუბლიკა",
        "official_name:yi": "רעפובליק פון אזערביידזשאן",
        "official_name:za": "Ahsehbaiqgyangh Gunghogzgoz",
        "official_name:zh": "阿塞拜疆共和国",
        "official_name:zh-classical": "阿塞拜疆共和國",
        "official_name:zh-min-nan": "Azerbaijan Kiōng-hô-kok",
        "official_name:zh-yue": "阿塞拜疆共和國",
        "timezone": "Asia/Baku",
        "type": "boundary",
        "wikidata": "Q227",
        "wikipedia": "az:Azərbaycan",
        "@geometry": "center"
      },
      "geometry": {
        "type": "Point",
        "coordinates": [
          47.8862002,
          40.1716249
        ]
      },
      "id": "relation/364110"
    },
    {
      "type": "Feature",
      "properties": {
        "@id": "relation/536900",
        "ISO3166-1": "AG",
        "ISO3166-1:alpha2": "AG",
        "ISO3166-1:alpha3": "ATG",
        "ISO3166-1:numeric": "028",
        "admin_level": "2",
        "alt_name:eo": "Antigvo kaj Barbudo",
        "alt_name:fr": "Antigue-et-Barbude",
        "alt_name:gd": "Aintìoga is Barbuda",
        "alt_name:ml": "ആന്റിഗ്വ ബർബുഡ",
        "alt_name:zh": "安地卡及巴布達",
        "boundary": "administrative",
        "flag": "http://upload.wikimedia.org/wikipedia/commons/8/89/Flag_of_Antigua_and_Barbuda.svg",
        "int_name": "Antigua and Barbuda",
        "is_in:continent": "North America",
        "name": "Antigua and Barbuda",
        "name:ace": "Antigua ngon Barbuda",
        "name:af": "Antigua en Barbuda",
        "name:ak": "Antigua ne Baabuda",
        "name:als": "Antigua und Barbuda",
        "name:am": "አንቲጋ እና ባርቡዳ",
        "name:an": "Antigua y Barbuda",
        "name:ang": "Antigua and Barbuda",
        "name:ar": "أنتيغوا وباربودا",
        "name:arz": "أنتيجا و باربودا",
        "name:as": "এণ্টিগুৱা আৰু বাৰ্বুডা",
        "name:ast": "Antigua y Barbuda",
        "name:ay": "Antiwa wan Barbuda",
        "name:az": "Antiqua və Barbuda",
        "name:azb": "آنتیگوآ و باربودا",
        "name:ba": "Антигуа һәм Барбуда",
        "name:bar": "Antigua und Barbuda",
        "name:bat-smg": "Antėgva ė Barbuda",
        "name:bcl": "Antigwa asin Barbuda",
        "name:be": "Антыгуа́ і Барбу́да",
        "name:be-tarask": "Антыгуа і Барбуда",
        "name:bg": "Антигуа и Барбуда",
        "name:bm": "Antiga-ni-Barbuda",
        "name:bn": "অ্যান্টিগুয়া ও বার্বুডা",
        "name:bo": "ཨེན་ཊི་གུའ་དང་བར་བུ་ཌ།",
        "name:bpy": "এন্টিগুয়া বারো বার্বুডা",
        "name:br": "Antigua ha Barbuda",
        "name:bs": "Antigva i Barbuda",
        "name:bxr": "Антигуа ба Барбуда",
        "name:ca": "Antigua i Barbuda",
        "name:cdo": "Antigua gâe̤ng Barbuda",
        "name:ce": "Анти́гуа а Барбу́да",
        "name:ceb": "Antigua ug Barbuda",
        "name:chr": "ᎤᏪᏘ ᎠᎴ ᏆᏊᏓ",
        "name:ckb": "ئانتیگوا و باربوودا",
        "name:crh": "Antigua ve Barbuda",
        "name:cs": "Antigua a Barbuda",
        "name:cy": "Antigwa a Barbiwda",
        "name:da": "Antigua og Barbuda",
        "name:de": "Antigua und Barbuda",
        "name:dsb": "Antigua a Barbuda",
        "name:dty": "एन्टिगुवा र बर्बुडा",
        "name:dv": "އެންޓިގުއާ އަދި ބާބިއުޑާ",
        "name:dz": "ཨན་ཊི་གུ་ཝ་ ཨེནཌ་ བྷར་བྷུ་ཌ",
        "name:ee": "Antigua and Barbuda",
        "name:el": "Αντίγκουα και Μπαρμπούντα",
        "name:en": "Antigua and Barbuda",
        "name:eo": "Antigvo-Barbudo",
        "name:es": "Antigua y Barbuda",
        "name:et": "Antigua ja Barbuda",
        "name:eu": "Antigua eta Barbuda",
        "name:ext": "Antígua i Barbua",
        "name:fa": "آنتیگوا و باربودا",
        "name:ff": "Antiguwaa e Barbudaa",
        "name:fi": "Antigua ja Barbuda",
        "name:fiu-vro": "Antigua ja Barbuda",
        "name:fo": "Antigua og Barbuda",
        "name:fr": "Antigua-et-Barbuda",
        "name:frp": "Antigoa-et-Barbuda",
        "name:frr": "Antiigua an Barbuuda",
        "name:fur": "Antigua e Barbuda",
        "name:fy": "Antigûa en Barbûda",
        "name:ga": "Antigua agus Barbúda",
        "name:gag": "Antigua hem Barbuda",
        "name:gd": "Antigua agus Barbuda",
        "name:gl": "Antiga e Barbuda",
        "name:gn": "Antigua ha Barbuda",
        "name:gom": "अँटिगा आणि बार्बुडा",
        "name:gu": "એન્ટીગુઆ અને બરબુડા",
        "name:gv": "Antigua as Barbuda",
        "name:ha": "Antigwa da Barbuba",
        "name:hak": "Antigua lâu Barbuda",
        "name:he": "אנטיגואה וברבודה",
        "name:hi": "अण्टीगुआ और बारबूडा",
        "name:hif": "Antigua and Barbuda",
        "name:hr": "Antigva i Barbuda",
        "name:hsb": "Antigua a Barbuda",
        "name:ht": "Antigwa ak Babouda",
        "name:hu": "Antigua és Barbuda",
        "name:hy": "Անտիգուա և Բարբուդա",
        "name:ia": "Antigua e Barbuda",
        "name:id": "Antigua dan Barbuda",
        "name:ie": "Antigua e Barbuda",
        "name:ilo": "Antigua ken Barbuda",
        "name:io": "Antigua e Barbuda",
        "name:is": "Antígva og Barbúda",
        "name:it": "Antigua e Barbuda",
        "name:ja": "アンティグア・バーブーダ",
        "name:jam": "Antiiga ah Baabyuuda",
        "name:jbo": "ntiguas.joik.barbudas",
        "name:jv": "Antigua lan Barbuda",
        "name:ka": "ანტიგუა და ბარბუდა",
        "name:kaa": "Antigua ha'm Barbuda",
        "name:kab": "Antigua ed Barbuda",
        "name:kbd": "Антигуэрэ Барбудэрэ",
        "name:ki": "Antigua na Barbuda",
        "name:kk": "Антигуа және Барбуда",
        "name:kl": "Antigua aamma Barbuda",
        "name:km": "អង់ទីគ័រ និង​បាបុយដា",
        "name:kn": "ಆಂಟಿಗುವ ಮತ್ತು ಬಾರ್ಬುಡ",
        "name:ko": "앤티가 바부다",
        "name:ks": "اٮ۪نٹِگُوا تہٕ باربوڑا",
        "name:ksh": "Antigwa un Barbuda",
        "name:ku": "Antîgua û Berbûda",
        "name:kw": "Antiga ha Barbuda",
        "name:ky": "Антигуа жана Барбуда",
        "name:la": "Antiqua et Barbuda",
        "name:lad": "Antigua i Barbuda",
        "name:lb": "Antigua a Barbuda",
        "name:lg": "Antigwa ne Barabuda",
        "name:li": "Antigua en Barbuda",
        "name:lij": "Antigua e Barbuda",
        "name:lmo": "Antigua e Barbuda",
        "name:ln": "Antigua mpé Barbuda",
        "name:lo": "ແອນຕີກາວ ແລະ ບາບູດາ",
        "name:lt": "Antigva ir Barbuda",
        "name:lv": "Antigva un Barbuda",
        "name:mai": "एन्टिगुआ आ बर्बुडा",
        "name:mg": "Antigua sy Barbuda",
        "name:min": "Antigua jo Barbuda",
        "name:mk": "Антигва и Барбуда",
        "name:ml": "ആന്റിഗ്വയ ആന്റ് ബാർബൂഡ",
        "name:mn": "Антигуа ба Барбуда",
        "name:mr": "अँटिगा आणि बार्बुडा",
        "name:mrj": "Антигуа дӓ Барбуда",
        "name:ms": "Antigua dan Barbuda",
        "name:mt": "Antigwa u Barbuda",
        "name:my": "အင်တီဂွါနှင့် ဘာဘူဒါ",
        "name:na": "Antigua me Barbuda",
        "name:nah": "Antigua īhuān Barbuda",
        "name:nb": "Antigua og Barbuda",
        "name:nds": "Antigua un Barbuda",
        "name:ne": "एन्टिगुआ र बर्बुडा",
        "name:new": "एन्टिगुवा व बार्बुडा",
        "name:nl": "Antigua en Barbuda",
        "name:nn": "Antigua og Barbuda",
        "name:no": "Antigua og Barbuda",
        "name:nov": "Antigua e Barbuda",
        "name:nv": "Antíígwa dóó Hashkʼaan Bikéyah Yázhí",
        "name:oc": "Antiga e Barbuda",
        "name:olo": "Antigua da Barbuda",
        "name:om": "Antiiguwaa fi Baarbuudaa",
        "name:or": "ଆଣ୍ଟିଗୁଆ ଓ ବରବୁଡା",
        "name:os": "Антигуæ æмæ Барбудæ",
        "name:pa": "ਐਂਟੀਗੁਆ ਅਤੇ ਬਰਬੂਡਾ",
        "name:pam": "Antigua at Barbuda",
        "name:pap": "Antigua y Barbuda",
        "name:pih": "Antigua a' Barbuda",
        "name:pl": "Antigua i Barbuda",
        "name:pms": "Antigua e Barbuda",
        "name:pnb": "انٹیگوا تے باربودا",
        "name:pt": "Antígua e Barbuda",
        "name:qu": "Antiwa Barbudawan",
        "name:rm": "Antigua e Barbuda",
        "name:ro": "Antigua și Barbuda",
        "name:roa-rup": "Antigua și Barbuda",
        "name:ru": "Анти́гуа и Барбу́да",
        "name:rue": "Антіґуа і Барбуда",
        "name:rw": "Antigwa na Baribuda",
        "name:sa": "अण्टीग्वा",
        "name:sah": "Антигуа уонна Барбуда",
        "name:sc": "Antigua e Barbuda",
        "name:scn": "Antigua e Barbuda",
        "name:sco": "Antigua an Barbuda",
        "name:se": "Antigua ja Barbuda",
        "name:sh": "Antigva i Barbuda",
        "name:si": "ඇන්ටිගුවා සහ බාබියුඩා",
        "name:sk": "Antigua a Barbuda",
        "name:sl": "Antigva in Barbuda",
        "name:sn": "Antigua and Barbuda",
        "name:so": "Antigua iyo Barbuda",
        "name:sq": "Antigua dhe Barbuda",
        "name:sr": "Антигва и Барбуда",
        "name:ss": "iBhabudi ne Anithikhu",
        "name:su": "Antigua jeung Barbuda",
        "name:sv": "Antigua och Barbuda",
        "name:sw": "Antigua na Barbuda",
        "name:szl": "Antigua a Barbuda",
        "name:ta": "அன்டிகுவா பர்புடா",
        "name:te": "ఆంటిగ్వా మరియు బార్బుడా",
        "name:tet": "Antígua no Barbuda",
        "name:tg": "Антигуаю Барбуда",
        "name:th": "แอนติกาและบาร์บูดา",
        "name:ti": "አንቲጓ እና ባሩዳ",
        "name:tl": "Antigua at Barbuda",
        "name:to": "Anitikua mo Palaputa",
        "name:tr": "Antigua ve Barbuda",
        "name:tt": "Анти́гуа һәм Барбу́да",
        "name:ug": "ئانتىگۇئا ۋە باربۇدا",
        "name:uk": "Анти́гуа і Барбу́да",
        "name:ur": "اینٹیگوا و باربوڈا",
        "name:uz": "Antigua va Barbuda",
        "name:vec": "Antigua e Barbuda",
        "name:vep": "Antigua da Barbud",
        "name:vi": "Antigua và Barbuda",
        "name:vo": "Lantigeän e Barbudeän",
        "name:war": "Antigua ngan Barbuda",
        "name:wo": "Antigua ak Barbuda",
        "name:xal": "Антигуд болн Барбуд",
        "name:xmf": "ანტიგუა დო ბარბუდა",
        "name:yo": "Ántígúà àti Bàrbúdà",
        "name:za": "Antigua caeuq Barbuda",
        "name:zea": "Antigua en Barbuda",
        "name:zh": "安提瓜和巴布达",
        "name:zh-min-nan": "Antigua kap Barbuda",
        "name:zh-yue": "安提瓜巴布達",
        "name:zu": "i-Antigua and Barbuda",
        "official_name": "State of Antigua and Barbuda",
        "official_name:cs": "Stát Antigua a Barbuda",
        "official_name:de": "Antigua und Barbuda",
        "official_name:dsb": "Stat Antiguy a Barbudy",
        "official_name:en": "State of Antigua and Barbuda",
        "official_name:fa": "آنتیگوا و باربودا",
        "official_name:it": "Antigua e Barbuda",
        "official_name:ka": "ანტიგუა და ბარბუდა",
        "official_name:my": "အင်တီဂွါနှင့် ဘာဘူဒါနိုင်ငံ",
        "official_name:roa-rup": "Republica Antigua și Barbuda",
        "official_name:th": "ประเทศแอนติกาและบาร์บูดา",
        "official_name:tr": "Antigua ve Barbuda",
        "official_name:vec": "Antigua e Barbuda",
        "population": "69842",
        "timezone": "America/Antigua",
        "type": "boundary",
        "wikidata": "Q781",
        "wikipedia": "en:Antigua and Barbuda",
        "@geometry": "center"
      },
      "geometry": {
        "type": "Point",
        "coordinates": [
          -62.0007544,
          17.343195
        ]
      },
      "id": "relation/536900"
    },
    {
      "type": "Feature",
      "properties": {
        "@id": "relation/1231749",
        "ISO3166-1": "AW",
        "ISO3166-1:alpha2": "AW",
        "ISO3166-1:alpha3": "ABW",
        "ISO3166-1:numeric": "533",
        "ISO3166-2": "NL-AW",
        "admin_level": "3",
        "boundary": "administrative",
        "description": "A constituent country within the Kingdom of the Netherlands",
        "is_in:continent": "North America",
        "name": "Aruba",
        "name:ar": "أروبا",
        "name:de": "Aruba",
        "name:en": "Aruba",
        "name:eo": "Arubo",
        "name:fr": "Aruba",
        "name:hr": "Aruba",
        "name:lt": "Aruba",
        "name:ru": "Аруба",
        "name:sk": "Aruba",
        "name:sr": "Аруба",
        "name:sv": "Aruba",
        "name:uk": "Аруба",
        "name:uz": "Aruba",
        "note:ISO3166-2": "Aruba is a subset (type Country) of the Kingdom of the Netherlands (ISO3166-1 country code NL)",
        "timezone": "America/Aruba",
        "type": "boundary",
        "wikidata": "Q21203",
        "wikipedia": "en:Aruba",
        "@geometry": "center"
      },
      "geometry": {
        "type": "Point",
        "coordinates": [
          -69.9654068,
          12.542889
        ]
      },
      "id": "relation/1231749"
    },
    {
      "type": "Feature",
      "properties": {
        "@id": "relation/2177161",
        "ISO3166-1": "AI",
        "ISO3166-1:alpha2": "AI",
        "ISO3166-1:alpha3": "AIA",
        "ISO3166-1:numeric": "660",
        "admin_level": "2",
        "boundary": "administrative",
        "flag": "http://upload.wikimedia.org/wikipedia/commons/b/b4/Flag_of_Anguilla.svg",
        "is_in:continent": "North America",
        "name": "Anguilla",
        "name:af": "Anguilla",
        "name:als": "Anguilla",
        "name:an": "Anguila",
        "name:ang": "Anguilla",
        "name:ar": "أنجويلا",
        "name:ast": "Anguila",
        "name:az": "Angilya",
        "name:ba": "Ангилья",
        "name:be": "Ангілья",
        "name:be-tarask": "Ангілья",
        "name:bg": "Ангуила",
        "name:br": "Anguilla",
        "name:bs": "Angvila",
        "name:ca": "Anguilla",
        "name:ckb": "ئەنگویلا",
        "name:cs": "Anguilla",
        "name:cy": "Anguilla",
        "name:da": "Anguilla",
        "name:de": "Anguilla",
        "name:dsb": "Anguilla",
        "name:dv": "އަންގީލާ",
        "name:el": "Ανγκουίλα",
        "name:en": "Anguilla",
        "name:eo": "Angvilo",
        "name:es": "Anguila",
        "name:et": "Anguilla",
        "name:eu": "Aingira",
        "name:fa": "آنگویلا",
        "name:fi": "Anguilla",
        "name:fr": "Anguilla",
        "name:frr": "Anguilla",
        "name:gl": "Anguila",
        "name:he": "אנגווילה",
        "name:hi": "अंगुइला",
        "name:hr": "Angvila",
        "name:hu": "Anguilla",
        "name:hy": "Անգիլիա",
        "name:id": "Anguilla",
        "name:ilo": "Anguilla",
        "name:io": "Anguila",
        "name:is": "Angvilla",
        "name:it": "Anguilla",
        "name:ja": "アンギラ",
        "name:jv": "Anguilla",
        "name:ka": "ანგილია",
        "name:ko": "앵귈라",
        "name:kw": "Angwilla",
        "name:lb": "Anguilla",
        "name:li": "Anguilla",
        "name:lij": "Anguilla",
        "name:lmo": "Anguilla",
        "name:lt": "Angilija",
        "name:lv": "Angilja",
        "name:mk": "Ангилја",
        "name:mr": "अँग्विला",
        "name:ms": "Anguilla",
        "name:nds": "Anguilla",
        "name:ne": "एन्गुला",
        "name:nl": "Anguilla",
        "name:nn": "Anguilla",
        "name:no": "Anguilla",
        "name:nov": "Angila",
        "name:nrm": "Anguilla",
        "name:oc": "Anguilla",
        "name:pa": "ਐਂਗੁਈਲਾ",
        "name:pl": "Anguilla",
        "name:pms": "Anguilla",
        "name:pnb": "اینگویلا",
        "name:pt": "Anguilla",
        "name:ro": "Anguilla",
        "name:ru": "Ангилья",
        "name:rue": "Анґуіла",
        "name:rw": "Angwiya",
        "name:sh": "Angvila",
        "name:simple": "Anguilla",
        "name:sk": "Anguilla",
        "name:sl": "Angvila",
        "name:sq": "Anguilla",
        "name:sr": "Ангвила",
        "name:su": "Anguilla",
        "name:sv": "Anguilla",
        "name:sw": "Anguilla",
        "name:ta": "அங்கியுலா",
        "name:th": "แองกวิลลา",
        "name:tl": "Anggilya",
        "name:tr": "Anguilla",
        "name:ug": "ئانگۋىللا",
        "name:uk": "Ангілья",
        "name:ur": "اینگویلا",
        "name:vi": "Anguilla",
        "name:war": "Anguilla",
        "name:wo": "Angila",
        "name:yo": "Àngúíllà",
        "name:zh": "安圭拉",
        "name:zh-min-nan": "Anguilla",
        "name:zh-yue": "安圭拉",
        "timezone": "America/Anguilla",
        "type": "boundary",
        "wikidata": "Q25228",
        "wikipedia": "en:Anguilla",
        "@geometry": "center"
      },
      "geometry": {
        "type": "Point",
        "coordinates": [
          -63.175872,
          18.4283324
        ]
      },
      "id": "relation/2177161"
    },
    {
      "type": "Feature",
      "properties": {
        "@id": "relation/2177187",
        "ISO3166-1": "AS",
        "ISO3166-1:alpha2": "AS",
        "ISO3166-1:alpha3": "ASM",
        "ISO3166-1:numeric": "016",
        "ISO3166-2": "US-AS",
        "admin_level": "4",
        "boundary": "administrative",
        "flag": "http://upload.wikimedia.org/wikipedia/commons/8/87/Flag_of_American_Samoa.svg",
        "is_in:continent": "Oceania",
        "is_in:country": "United States",
        "name": "American Samoa",
        "name:ca": "Samoa Nord-americana",
        "name:cs": "Americká Samoa",
        "name:el": "Αμερικανική Σαμόα",
        "name:eo": "Samoo Usona",
        "name:fr": "Samoa américaines",
        "name:hr": "Američka Samoa",
        "name:sl": "Ameriška Samoa",
        "name:sr": "Америчка Самоа",
        "name:uk": "Американське Самоа",
        "name:uz": "Amerika Samoasi",
        "name:vi": "Samoa thuộc Mỹ",
        "official_name:cs": "Území Americká Samoa",
        "timezone": "Pacific/Pago_Pago",
        "type": "boundary",
        "wikidata": "Q16641",
        "wikipedia": "en:American Samoa",
        "@geometry": "center"
      },
      "geometry": {
        "type": "Point",
        "coordinates": [
          -169.6137097,
          -12.8029052
        ]
      },
      "id": "relation/2177187"
    },
    {
      "type": "Feature",
      "properties": {
        "@id": "relation/2528142",
        "ISO3166-1": "BA",
        "ISO3166-1:alpha2": "BA",
        "ISO3166-1:alpha3": "BIH",
        "ISO3166-1:numeric": "070",
        "admin_level": "2",
        "alt_name:eo": "Bosnio kaj Hercegovino",
        "boundary": "administrative",
        "flag": "http://upload.wikimedia.org/wikipedia/commons/b/bf/Flag_of_Bosnia_and_Herzegovina.svg",
        "int_name": "Bosnia and Herzegovina",
        "is_in:continent": "Europe",
        "name": "Bosna i Hercegovina / Босна и Херцеговина",
        "name:ace": "Bosnia Hèrzègovina",
        "name:af": "Bosnië-Herzegowina",
        "name:als": "Bosnien und Herzegowina",
        "name:am": "ቦስኒያና ሄርጸጎቪና",
        "name:an": "Bosnia y Herzegovina",
        "name:ang": "Bosnia and Herzegovina",
        "name:ar": "البوسنة والهرسك",
        "name:arc": "ܒܘܣܢܐ ܘܗܪܬܣܓܘܒܝܢܐ",
        "name:arz": "البوسنه و الهرسك",
        "name:ast": "Bosnia y Herzegovina",
        "name:az": "Bosniya və Herseqovina",
        "name:bar": "Bosnien-Herzegowina",
        "name:bat-smg": "Bosnėjė ėr Hercuogovėna",
        "name:bcl": "Bosnya asin Hersegobina",
        "name:be": "Боснія і Герцагавіна",
        "name:be-tarask": "Босьнія і Герцагавіна",
        "name:bg": "Босна и Херцеговина",
        "name:bi": "Bosnia & Herzegovina",
        "name:bn": "বসনিয়া ও হার্জেগোভিনা",
        "name:bo": "བྷོསུ་ནིཡ་དང་ཧར་ཛེ་གྷོ་ཝི་ན།",
        "name:bpy": "বসনিয়া বারো হার্জেগোভিনা",
        "name:br": "Bosnia-ha-Herzegovina",
        "name:bs": "Bosna i Hercegovina",
        "name:bxr": "Босна ба Һерцеговина",
        "name:ca": "Bòsnia i Hercegovina",
        "name:ce": "Босни а Герцеговина",
        "name:ceb": "Bosnia ug Herzegovina",
        "name:chr": "ᏆᏍᏂᏯ ᎠᎴ ᎲᏤᎪᏫᎾ",
        "name:ckb": "بۆسنیا و ھەرزەگۆڤینا",
        "name:co": "Bosnia è Erzegovina",
        "name:crh": "Bosna ve Hersek",
        "name:cs": "Bosna a Hercegovina",
        "name:csb": "Bòsnijô ë Hercegòwina",
        "name:cu": "Босна",
        "name:cv": "Босни тата Герцеговина",
        "name:cy": "Bosnia a Hercegovina",
        "name:da": "Bosnien-Hercegovina",
        "name:de": "Bosnien und Herzegowina",
        "name:diq": "Bosna u Hersek",
        "name:dsb": "Bosniska-Hercegowinska",
        "name:dv": "ބޮސްނިޔާ އެންޑް ހެރްޒިގޮވީނާ",
        "name:ee": "Bosnia and Herzegovina",
        "name:el": "Βοσνία και Ερζεγοβίνη",
        "name:en": "Bosnia and Herzegovina",
        "name:eo": "Bosnujo kaj Hercegovino",
        "name:es": "Bosnia y Herzegovina",
        "name:et": "Bosnia ja Hertsegoviina",
        "name:eu": "Bosnia and Herzegovina",
        "name:ext": "Bósnia Ercegovina",
        "name:fa": "بوسنی و هرزگوین",
        "name:ff": "Bosniya",
        "name:fi": "Bosnia ja Hertsegovina",
        "name:fiu-vro": "Bosnia ja Hertsegoviina",
        "name:fo": "Bosnia og Hersegovina",
        "name:fr": "Bosnie-Herzégovine",
        "name:frp": "Bosnie-Hèrzègovena",
        "name:frr": "Bosnien an Herzegowina",
        "name:fy": "Bosnje",
        "name:ga": "An Bhoisnia-Heirseagaivéin",
        "name:gag": "Bosniya hem Herțegovina",
        "name:gd": "Bosna agus Hearsagobhana",
        "name:gl": "Bosnia e Hercegovina",
        "name:gn": "Vonia ha Hesegovina",
        "name:gv": "Bosnia as Herzegovina",
        "name:hak": "Pô-sṳ-nì-â lâu Het-set-kô-vì-ná",
        "name:haw": "Bosenia me Hesegowina",
        "name:he": "בוסניה והרצגובינה",
        "name:hi": "बॉस्निया और हर्ज़ेगोविना",
        "name:hif": "Bosnia and Herzegovina",
        "name:hr": "Bosna i Hercegovina",
        "name:hsb": "Bosniska a Hercegowina",
        "name:ht": "Bosni ak Erzegovin",
        "name:hu": "Bosznia-Hercegovina",
        "name:hy": "Բոսնիա և Հերցեգովինա",
        "name:ia": "Bosnia e Herzegovina",
        "name:id": "Bosnia dan Herzegovina",
        "name:ie": "Bosnia e Herzegovina",
        "name:ilo": "Bosnia ken Herzegovina",
        "name:io": "Bosnia e Herzegovina",
        "name:is": "Bosnía og Hersegóvína",
        "name:it": "Bosnia ed Erzegovina",
        "name:ja": "ボスニア・ヘルツェゴビナ",
        "name:jbo": "bosnas ertsegovinas",
        "name:jv": "Bosnia-Herzegovina",
        "name:ka": "ბოსნია და ჰერცეგოვინა",
        "name:kaa": "Bosniya ha'm Gertsegovina",
        "name:kbd": "Босниэрэ Герцеговинэрэ",
        "name:kg": "Bosna",
        "name:kk": "Босния және Герцеговина",
        "name:kl": "Bosnia-Hercegovina",
        "name:kn": "ಬೊಸ್ನಿಯ ಮತ್ತು ಹೆರ್ಜೆಗೊವಿನ",
        "name:ko": "보스니아 헤르체고비나",
        "name:koi": "Босна-Герцеговина",
        "name:krc": "Босния бла Герцеговина",
        "name:ksh": "Boßnije-Häzzejovina",
        "name:ku": "Bosniya û Herzegovîna",
        "name:kv": "Босния да Герцеговина",
        "name:kw": "Bosni–Hercegovina",
        "name:la": "Bosnia et Herzegovina",
        "name:lad": "Bosnia i Hersegovina",
        "name:lb": "Bosnien-Herzegowina",
        "name:li": "Bosnië en Herzegovina",
        "name:lij": "Bòsnia-Erçegòvina",
        "name:lmo": "Bosnia e Erzegovina",
        "name:ln": "Bosnia na Erzegovina",
        "name:lt": "Bosnija ir Hercegovina",
        "name:ltg": "Bosneja i Hercegovina",
        "name:lv": "Bosnija un Hercegovina",
        "name:map-bms": "Bosnia-Herzegovina",
        "name:mdf": "Босния ди Херцеговина",
        "name:mhr": "Босний да Герцеговина",
        "name:mi": "Pōngia-Herekōmina",
        "name:ml": "ബോസ്നിയ ഹെർസെഗോവിന",
        "name:mn": "Босни ба Херцеговина",
        "name:mr": "बॉस्निया आणि हर्झगोव्हिना",
        "name:ms": "Bosnia dan Herzegovina",
        "name:mt": "Bożnija u Ħerżegovina",
        "name:my": "ဘော့စနီးယားနှင့် ဟာဇီဂိုဗီးနားနိုင်ငံ",
        "name:na": "Boteniya me Erdegobina",
        "name:nah": "Bosnia īhuān Hertzegovina",
        "name:nap": "Bosnia-Erzegovina",
        "name:nds": "Bosnien-Herzegowina",
        "name:ne": "बोस्निया र हर्जगोभिना",
        "name:nl": "Bosnië en Herzegovina",
        "name:nn": "Bosnia-Hercegovina",
        "name:no": "Bosnia-Hercegovina",
        "name:nov": "Bosnia e Hertsegovina",
        "name:nv": "Bosna dóó Hetsog Bikéyah",
        "name:oc": "Bòsnia e Ercegovina",
        "name:or": "ବୋସନିଆ ଓ ହରଜଗୋଭିନା",
        "name:os": "Босни æмæ Герцеговинæ",
        "name:pa": "ਬੋਸਨੀਆ ਅਤੇ ਹਰਜ਼ੇਗੋਵੀਨਾ",
        "name:pag": "Bosnia tan Hersegobina",
        "name:pam": "Bosnia at Herzegovina",
        "name:pap": "Bosnia Herzogovina",
        "name:pcd": "Bosnie-Érzégovine",
        "name:pih": "Bosnya a' Hersegowinya",
        "name:pl": "Bośnia i Hercegowina",
        "name:pms": "Bòsnia e Erzegòvina",
        "name:pnb": "بوسنیا تے ہرزیگووینا",
        "name:pnt": "Βοσνία και Ερζεγοβίνη",
        "name:pt": "Bósnia e Herzegovina",
        "name:qu": "Busna-Hirsiquwina",
        "name:rm": "Bosnia-Erzegovina",
        "name:ro": "Bosnia și Herțegovina",
        "name:roa-tara": "Bosnie-Erzegovine",
        "name:ru": "Босния и Герцеговина",
        "name:rue": "Боснія і Герцеґовина",
        "name:rw": "Bosiniya na Herizegovina",
        "name:sa": "बास्निया",
        "name:sah": "Босния уонна Херцеговина",
        "name:sc": "Bòsnia Erzegovina",
        "name:scn": "Bosnia-Erzegovina",
        "name:sco": "Bosnie an Herzegovinae",
        "name:se": "Bosnia ja Hercegovina",
        "name:sh": "Bosna i Hercegovina",
        "name:si": "බොස්නියා සහ හර්සගෝවිනා",
        "name:sk": "Bosna a Hercegovina",
        "name:sl": "Bosna in Hercegovina",
        "name:sm": "Bosnia ma Herzegovina",
        "name:so": "Bosniya",
        "name:sq": "Bosnja dhe Hercegovina",
        "name:sr": "Босна и Херцеговина",
        "name:sr-Latn": "Bosna i Hercegovina",
        "name:srn": "Bosnikondre",
        "name:ss": "IBhosinya ne Hezegovi",
        "name:stq": "Bosnien un Herzegowina",
        "name:su": "Bosnia jeung Hérzégovina",
        "name:sv": "Bosnien och Hercegovina",
        "name:sw": "Bosnia na Herzegovina",
        "name:szl": "Bośńa a Hercegowina",
        "name:ta": "பொசுனியா எர்செகோவினா",
        "name:te": "బోస్నియా మరియు హెర్జెగొవీనా",
        "name:tg": "Босния ва Ҳерсеговина",
        "name:th": "ประเทศบอสเนียและเฮอร์เซโกวีนา",
        "name:tk": "Bosniýa we Gersegowina",
        "name:tl": "Bosnia at Herzegovina",
        "name:tr": "Bosna-Hersek",
        "name:tt": "Босния һәм Герцеговина",
        "name:tum": "Bosnia na Herzegovina",
        "name:udm": "Босния но Герцеговина",
        "name:ug": "بوسنىيە ۋە ھېرسېگوۋىنا",
        "name:uk": "Боснія і Герцеговина",
        "name:ur": "بوسنیا و ہرزیگووینا",
        "name:uz": "Bosniya va Gersegovina",
        "name:vec": "Bosnia e Erzegòvina",
        "name:vep": "Bosnii da Gercegovin",
        "name:vi": "Bosna và Hercegovina",
        "name:vo": "Bosnän e Härzegovän",
        "name:war": "Bosnya ngan Hersegovina",
        "name:wo": "Bosni",
        "name:wuu": "波斯尼亚",
        "name:xal": "Босмудин болн Херцегудин Орн",
        "name:xmf": "ბოსნია დო ჰერცეგოვინა",
        "name:yi": "באסניע און הערצעגאווינע",
        "name:yo": "Bósníà àti Hẹrjẹgòfínà",
        "name:zea": "Bosnië-Hercegovina",
        "name:zh": "波斯尼亞和黑塞哥維那",
        "name:zh-cn": "波斯尼亚和黑塞哥维纳",
        "name:zh-hk": "波斯尼亞和黑塞哥維那",
        "name:zh-min-nan": "Bosna kap Hercegovina",
        "name:zh-tw": "波士尼亞與赫塞哥維納",
        "name:zh-yue": "波斯尼亞",
        "note": "Molimo ne brisati relacije - za uređivanje posjetiti: http://wiki.openstreetmap.org/wiki/WikiProject_Bosnia_and_Herzegovina/Administrativne_granice",
        "official_name": "Bosna i Hercegovina",
        "source": "combination of data from 1991 census & data after the war, for complete image",
        "timezone": "Europe/Sarajevo",
        "type": "boundary",
        "wikidata": "Q225",
        "wikipedia": "en:Bosnia and Herzegovina",
        "@geometry": "center"
      },
      "geometry": {
        "type": "Point",
        "coordinates": [
          17.6762372,
          43.9158624
        ]
      },
      "id": "relation/2528142"
    }
  ]
}