{
  "type": "FeatureCollection",
  "generator": "overpass-ide",
  "copyright": "The data included in this document is from www.openstreetmap.org. The data is made available under ODbL.",
  "timestamp": "2017-12-10T20:33:02Z",
  "features": [
    {
      "type": "Feature",
      "properties": {
        "@id": "relation/60199",
        "ISO3166-1": "UA",
        "ISO3166-1:alpha2": "UA",
        "ISO3166-1:alpha3": "UKR",
        "ISO3166-1:numeric": "804",
        "admin_level": "2",
        "alt_name:eo": "Ukrainio",
        "alt_name:vi": "Uy Kiên",
        "boundary": "administrative",
        "flag": "http://upload.wikimedia.org/wikipedia/commons/4/49/Flag_of_Ukraine.svg",
        "int_name": "Ukraine",
        "is_in:continent": "Europe",
        "name": "Україна",
        "name:ab": "Украина",
        "name:ace": "Ukraina",
        "name:af": "Oekraïne",
        "name:als": "Ukraine",
        "name:am": "ዩክሬን",
        "name:an": "Ucraína",
        "name:ang": "Ucrægna",
        "name:ar": "أوكرانيا",
        "name:arc": "ܐܘܩܪܐܝܢܐ",
        "name:arz": "اوكرانيا",
        "name:ast": "Ucraína",
        "name:az": "Ukrayna",
        "name:ba": "Украина",
        "name:bar": "Ukraine",
        "name:bat-smg": "Okraėna",
        "name:bcl": "Ukranya",
        "name:be": "Украіна",
        "name:be-tarask": "Украіна",
        "name:bg": "Украйна",
        "name:bi": "Ukraine",
        "name:bn": "ইউক্রেন",
        "name:bo": "ཨུཀ་རཡི་ནི།",
        "name:bpy": "ইউক্রেন",
        "name:br": "Ukraina",
        "name:bs": "Ukrajina",
        "name:bxr": "Украина",
        "name:ca": "Ucraïna",
        "name:cbk-zam": "Ukrania",
        "name:cdo": "Ŭ-káik-làng",
        "name:ce": "Украина",
        "name:ceb": "Ukranya",
        "name:chr": "ᏳᎧᏪᏂ",
        "name:chy": "Ukraine",
        "name:ckb": "ئوکراینا",
        "name:crh": "Ukraina",
        "name:cs": "Ukrajina",
        "name:csb": "Ùkrajina",
        "name:cu": "Оукраина",
        "name:cv": "Украина",
        "name:cy": "Wcráin",
        "name:da": "Ukraine",
        "name:de": "Ukraine",
        "name:diq": "Ukrayna",
        "name:dsb": "Ukraina",
        "name:dv": "ޔުކްރެއިން",
        "name:ee": "Ukraine",
        "name:el": "Ουκρανία",
        "name:en": "Ukraine",
        "name:eo": "Ukrainujo",
        "name:es": "Ucrania",
        "name:et": "Ukraina",
        "name:eu": "Ukraina",
        "name:ext": "Ucránia",
        "name:fa": "اوکراین",
        "name:fi": "Ukraina",
        "name:fiu-vro": "Ukraina",
        "name:fo": "Ukraina",
        "name:fr": "Ukraine",
        "name:frp": "Ucrayena",
        "name:frr": "Ukraine",
        "name:fy": "Oekraïne",
        "name:ga": "An Úcráin",
        "name:gag": "Ukrayna",
        "name:gan": "烏克蘭",
        "name:gd": "An Ucràin",
        "name:gl": "Ucraína",
        "name:gn": "Ukyaña",
        "name:gu": "યુક્રેન",
        "name:gv": "Yn Ookraan",
        "name:hak": "Vû-khiet-làn",
        "name:haw": "ʻUkelena",
        "name:he": "אוקראינה",
        "name:hi": "युक्रेन",
        "name:hif": "Ukraine",
        "name:hr": "Ukrajina",
        "name:hsb": "Ukraina",
        "name:ht": "Ikrèn",
        "name:hu": "Ukrajna",
        "name:hy": "Ուկրաինա",
        "name:ia": "Ukraina",
        "name:id": "Ukraina",
        "name:ie": "Ucraina",
        "name:ig": "Yukrain",
        "name:ilo": "Ukrania",
        "name:io": "Ukrainia",
        "name:is": "Úkraína",
        "name:it": "Ucraina",
        "name:ja": "ウクライナ",
        "name:jbo": "vurgu'e",
        "name:jv": "Ukraina",
        "name:ka": "უკრაინა",
        "name:kaa": "Ukraina",
        "name:kab": "Ukrayin",
        "name:kbd": "Хуэхуэлей",
        "name:kg": "Ukrayina",
        "name:kk": "Украина",
        "name:kl": "Ukraine",
        "name:km": "អ៊ុយក្រែន",
        "name:kn": "ಯುಕ್ರೇನ್",
        "name:ko": "우크라이나",
        "name:koi": "Украина",
        "name:krc": "Украина",
        "name:ku": "Ûkrayna",
        "name:kv": "Украина",
        "name:kw": "Ukrayn",
        "name:ky": "Украина",
        "name:la": "Ucraina",
        "name:lad": "Ukraina",
        "name:lb": "Ukrain",
        "name:lez": "Украина",
        "name:li": "Oekraïne",
        "name:lij": "Ucrainn-a",
        "name:lmo": "Ücraina",
        "name:ln": "Ukraine",
        "name:lt": "Ukraina",
        "name:ltg": "Ukraina",
        "name:lv": "Ukraina",
        "name:mdf": "Украин",
        "name:mg": "Okraina",
        "name:mhr": "Украина",
        "name:mi": "Ūkareinga",
        "name:mk": "Украина",
        "name:ml": "ഉക്രൈൻ",
        "name:mn": "Украйн",
        "name:mr": "युक्रेन",
        "name:ms": "Ukraine",
        "name:mt": "Ukrajna",
        "name:mwl": "Oucránia",
        "name:my": "ယူကရိန်းနိုင်ငံ",
        "name:myv": "Украина",
        "name:mzn": "اوکراین",
        "name:na": "Ukraine",
        "name:nah": "Ucrania",
        "name:nap": "Ucraina",
        "name:nds": "Ukraine",
        "name:nds-nl": "Oekraïne",
        "name:ne": "युक्रेन",
        "name:new": "युक्रेन",
        "name:nl": "Oekraïne",
        "name:nn": "Ukraina",
        "name:no": "Ukraina",
        "name:nov": "Ukraina",
        "name:nrm": "Ukraîne",
        "name:nv": "Yóókwein",
        "name:oc": "Ucraïna",
        "name:or": "ୟୁକ୍ରେନ",
        "name:os": "Украинæ",
        "name:pa": "ਯੂਕ੍ਰੇਨ",
        "name:pam": "Ukranya",
        "name:pap": "Ukrania",
        "name:pcd": "Oucrinne",
        "name:pih": "Yukrayn",
        "name:pl": "Ukraina",
        "name:pms": "Ucrain-a",
        "name:pnb": "یوکرین",
        "name:pnt": "Ουκρανία",
        "name:ps": "اوکراین",
        "name:pt": "Ucrânia",
        "name:qu": "Ukranya",
        "name:rm": "Ucraina",
        "name:rmy": "Ukraina",
        "name:ro": "Ucraina",
        "name:roa-tara": "Ucraine",
        "name:ru": "Украина",
        "name:rue": "Україна",
        "name:rw": "Ikerene",
        "name:sah": "Украина",
        "name:sc": "Ucraina",
        "name:scn": "Ucraina",
        "name:sco": "Ukraine",
        "name:se": "Ukraina",
        "name:sh": "Ukrajina",
        "name:sk": "Ukrajina",
        "name:sl": "Ukrajina",
        "name:sm": "Ukraine",
        "name:sn": "Ukraine",
        "name:so": "Ukrain",
        "name:sq": "Ukraina",
        "name:sr": "Украјина",
        "name:ss": "IYukhureni",
        "name:stq": "Ukraine",
        "name:su": "Ukraina",
        "name:sv": "Ukraina",
        "name:sw": "Ukraine",
        "name:szl": "Ukrajina",
        "name:ta": "உக்ரைன்",
        "name:te": "ఉక్రెయిన్",
        "name:tg": "Украйина",
        "name:th": "ประเทศยูเครน",
        "name:tk": "Ukraina",
        "name:tl": "Ukranya",
        "name:tok": "ma Ukawina",
        "name:tpi": "Yukren",
        "name:tr": "Ukrayna",
        "name:ts": "Ukraine",
        "name:tt": "Украина",
        "name:tum": "Ukraine",
        "name:tw": "Ukraine",
        "name:tzl": "Ucraína",
        "name:udm": "Украина",
        "name:ug": "ئۇكرائىنا",
        "name:uk": "Україна",
        "name:ur": "یوکرین",
        "name:uz": "Ukraina",
        "name:vec": "Ucraina",
        "name:vep": "Ukrain",
        "name:vi": "Ukraina",
        "name:vls": "Oekraïne",
        "name:vo": "Lukrayän",
        "name:wa": "Oucrinne",
        "name:war": "Ukranya",
        "name:wo": "Ukreen",
        "name:xal": "Украинмудин Орн",
        "name:xmf": "უკრაინა",
        "name:yi": "אוקראינע",
        "name:yo": "Ukréìn",
        "name:zea": "Oekraïne",
        "name:zh": "乌克兰",
        "name:zh-classical": "烏克蘭",
        "name:zh-min-nan": "Ukrayina",
        "name:zh-yue": "烏克蘭",
        "official_name": "Україна",
        "old_name:vi": "Ô Khắc Lan",
        "type": "boundary",
        "wikidata": "Q212",
        "wikipedia": "uk:Україна",
        "@geometry": "center"
      },
      "geometry": {
        "type": "Point",
        "coordinates": [
          31.1823195,
          48.2818726
        ]
      },
      "id": "relation/60199"
    },
    {
      "type": "Feature",
      "properties": {
        "@id": "relation/88210",
        "ISO3166-1": "SZ",
        "ISO3166-1:alpha2": "SZ",
        "ISO3166-1:alpha3": "SWZ",
        "ISO3166-1:numeric": "748",
        "admin_level": "2",
        "alt_name:eo": "Svaziujo",
        "border_type": "country",
        "boundary": "administrative",
        "flag": "http://upload.wikimedia.org/wikipedia/commons/1/1e/Flag_of_Swaziland.svg",
        "is_in:continent": "Africa",
        "land_area": "administrative",
        "name": "eSwatini Swaziland",
        "name:ace": "Swaziland",
        "name:af": "Swaziland",
        "name:als": "Swasiland",
        "name:am": "ስዋዚላንድ",
        "name:an": "Swazilandia",
        "name:ang": "Sƿasiland",
        "name:ar": "سوازيلاند",
        "name:arz": "سوازيلاندا",
        "name:ast": "Suazilandia",
        "name:ay": "Suasïsuiu",
        "name:az": "Svazilend",
        "name:ba": "Свазиленд",
        "name:bat-smg": "Svazėlands",
        "name:bcl": "Swasilandya",
        "name:be": "Свазіленд",
        "name:be-tarask": "Сўазілэнд",
        "name:bg": "Свазиленд",
        "name:bjn": "Swaziland",
        "name:bn": "সোয়াজিল্যান্ড",
        "name:bo": "སུ་ཝ་ཛི་ལནཌ།",
        "name:bpy": "সোয়াজিল্যান্ড",
        "name:br": "Swaziland",
        "name:bs": "Svazilend",
        "name:bxr": "Свазиланд",
        "name:ca": "Swazilàndia",
        "name:ceb": "Suwasilandiya",
        "name:ckb": "سوازیلاند",
        "name:crh": "Svaziland",
        "name:cs": "Svazijsko",
        "name:cy": "Gwlad Swazi",
        "name:da": "Swaziland",
        "name:de": "Swasiland",
        "name:diq": "Swazilanda",
        "name:dv": "ސުވާޒިލޭންޑު",
        "name:ee": "Swaziland",
        "name:el": "Σουαζιλάνδη",
        "name:en": "Swaziland",
        "name:eo": "Svazilando",
        "name:es": "Suazilandia",
        "name:et": "Svaasimaa",
        "name:eu": "Swazilandia",
        "name:ext": "Suazilandia",
        "name:fa": "سوازیلند",
        "name:fi": "Swazimaa",
        "name:fiu-vro": "Svaasimaa",
        "name:fo": "Svasiland",
        "name:fr": "Swaziland",
        "name:frp": "Souazilande",
        "name:fy": "Swazilân",
        "name:ga": "An tSuasalainn",
        "name:gag": "Svazilend",
        "name:gd": "Dùthaich nan Suasaidh",
        "name:gl": "Suacilandia - Swaziland",
        "name:gu": "સ્વાઝીલેન્ડ",
        "name:gv": "Yn Çheer Swassee",
        "name:hak": "Sṳ̂-vî-sṳ-làn",
        "name:he": "סווזילנד",
        "name:hi": "स्वाज़ीलैण्ड",
        "name:hif": "Swaziland",
        "name:hr": "Svazi",
        "name:ht": "Swazilann",
        "name:hu": "Szváziföld",
        "name:hy": "Սվազիլենդ",
        "name:id": "Swaziland",
        "name:ie": "Swaziland",
        "name:ilo": "Swaziland",
        "name:io": "Swazilando",
        "name:is": "Svasíland",
        "name:it": "Swaziland",
        "name:ja": "スワジランド",
        "name:jbo": "suazilynd",
        "name:jv": "Swaziland",
        "name:ka": "სვაზილენდი",
        "name:kaa": "Svazilend",
        "name:kg": "Swati",
        "name:kk": "Суазиланд",
        "name:kn": "ಸ್ವಾಜಿಲ್ಯಾಂಡ್",
        "name:ko": "스와질란드",
        "name:ku": "Swaziland",
        "name:kw": "Pow Swati",
        "name:la": "Swazia",
        "name:lb": "Swasiland",
        "name:li": "Swaziland",
        "name:lij": "Swaziland",
        "name:lmo": "Swaziland",
        "name:ln": "Swaziland",
        "name:lt": "Svazilandas",
        "name:lv": "Svazilenda",
        "name:mhr": "Свазиленд",
        "name:mk": "Свазиленд",
        "name:ml": "സ്വാസിലാന്റ്",
        "name:mn": "Свазиланд",
        "name:mr": "स्वाझीलँड",
        "name:ms": "Swaziland",
        "name:mt": "Sważiland",
        "name:my": "ဆွာဇီလန်နိုင်ငံ",
        "name:nah": "Suazitlālpan",
        "name:nds": "Swasiland",
        "name:nl": "Swaziland",
        "name:nn": "Swaziland",
        "name:no": "Swaziland",
        "name:nov": "Swazilande",
        "name:nso": "Swaziland",
        "name:nv": "Swáazi Dineʼé Bikéyah",
        "name:oc": "Swaziland",
        "name:or": "ସ୍ଵାଜିଲ୍ୟାଣ୍ଡ",
        "name:os": "Свазиленд",
        "name:pa": "ਸਵਾਜ਼ੀਲੈਂਡ",
        "name:pam": "Swaziland",
        "name:pdc": "Swasiland",
        "name:pih": "Swoseland",
        "name:pl": "Suazi",
        "name:pms": "Swaziland",
        "name:pnb": "سوازی لینڈ",
        "name:ps": "سوازيلانډ",
        "name:pt": "Suazilândia",
        "name:qu": "Swasisuyu",
        "name:ro": "Swaziland",
        "name:ru": "Свазиленд",
        "name:rw": "Swazilande",
        "name:sa": "स्वाजीलैंड",
        "name:sah": "Суазилэнд",
        "name:sc": "Swaziland",
        "name:scn": "Swaziland",
        "name:sco": "Swaziland",
        "name:se": "Svazieana",
        "name:sg": "Swäzïlânde",
        "name:sh": "Svazilend",
        "name:sk": "Svazijsko",
        "name:sl": "Svazi",
        "name:sn": "Swaziland",
        "name:so": "Swasiland",
        "name:sq": "Suazilendi",
        "name:sr": "Свазиленд",
        "name:ss": "eSwatini",
        "name:stq": "Swasilound",
        "name:su": "Swaziland",
        "name:sv": "Swaziland",
        "name:sw": "Uswazi",
        "name:ta": "சுவாசிலாந்து",
        "name:tg": "Свазиленд",
        "name:th": "ประเทศสวาซิแลนด์",
        "name:ti": "ስዋዚላንድ",
        "name:tk": "Swazilend",
        "name:tl": "Suwasilandya",
        "name:tok": "ma Sawasi",
        "name:tr": "Svaziland",
        "name:ts": "Swaziland",
        "name:tt": "Свазиленд",
        "name:tzl": "Swaziphäts",
        "name:ug": "سۋازىلېند",
        "name:uk": "Свазіленд",
        "name:ur": "سوازی لینڈ",
        "name:uz": "Svazilend",
        "name:ve": "Swazini",
        "name:vec": "Swaziland",
        "name:vi": "Swaziland",
        "name:vo": "Svasiyän",
        "name:war": "Swazilandya",
        "name:wo": "Suwaasilaand",
        "name:xal": "Свазилендин Нутг",
        "name:yi": "סוואזילאנד",
        "name:yo": "Swásílándì",
        "name:zh": "斯威士兰/斯威士蘭/史瓦濟蘭",
        "name:zh-Hans-cn": "斯威士兰",
        "name:zh-Hant-hk": "斯威士蘭",
        "name:zh-Hant-tw": "史瓦濟蘭",
        "name:zh-min-nan": "Swazi-tē",
        "name:zh-yue": "斯威士蘭",
        "name:zu": "ISwazilandi",
        "official_name:cs": "Svazijské království",
        "source:name:zh-Hant-tw": "http://www.mofa.gov.tw/CountryInfo.aspx?CASN=D33B55D537402BAA&n=1C6028CA080A27B3&sms=26470E539B6FA395&s=29B3D06675FAF607",
        "timezone": "Africa/Mbabane",
        "type": "boundary",
        "wikidata": "Q1050",
        "wikipedia": "en:Swaziland",
        "@geometry": "center"
      },
      "geometry": {
        "type": "Point",
        "coordinates": [
          31.4628961,
          -26.5181401
        ]
      },
      "id": "relation/88210"
    },
    {
      "type": "Feature",
      "properties": {
        "@id": "relation/174737",
        "ISO3166-1": "TR",
        "ISO3166-1:alpha2": "TR",
        "ISO3166-1:alpha3": "TUR",
        "ISO3166-1:numeric": "792",
        "admin_level": "2",
        "alt_name:ar": "تركيا",
        "alt_name:eo": "Turkio",
        "boundary": "administrative",
        "flag": "http://upload.wikimedia.org/wikipedia/commons/b/b4/Flag_of_Turkey.svg",
        "int_name": "Turkey",
        "is_in:continent": "Asia",
        "is_in:continent_1": "Europe",
        "name": "Türkiye",
        "name:ab": "Ҭырқәтәыла",
        "name:ace": "Turuki",
        "name:af": "Turkye",
        "name:ak": "Turki",
        "name:als": "Türkei",
        "name:am": "ቱርክ",
        "name:an": "Turquía",
        "name:ang": "Turcland",
        "name:ar": "تركيا",
        "name:arc": "ܛܘܪܩܝܐ",
        "name:arz": "توركيا",
        "name:ast": "Turquía",
        "name:av": "Туркия",
        "name:ay": "Turkiya",
        "name:az": "Türkiyə",
        "name:ba": "Төркиә",
        "name:bar": "Tiakei",
        "name:bat-smg": "Torkėjė",
        "name:bcl": "Turkiya",
        "name:be": "Турцыя",
        "name:be-tarask": "Турэччына",
        "name:bg": "Турция",
        "name:bi": "Turkey",
        "name:bjn": "Turki",
        "name:bn": "তুরস",
        "name:bo": "ཏུར་ཀི།",
        "name:bpy": "তুরস্ক",
        "name:br": "Turkia",
        "name:bs": "Turska",
        "name:bug": "Turki",
        "name:bxr": "Тюрк Улас",
        "name:ca": "Turquia",
        "name:cbk-zam": "Turquía",
        "name:cdo": "Tū-ī-gì",
        "name:ce": "Турци",
        "name:ceb": "Turkiya",
        "name:chr": "ᎬᏂᏱ",
        "name:chy": "Turkey",
        "name:ckb": "تورکیا",
        "name:cr": "ᑐᕒᑭ",
        "name:crh": "Türkiye",
        "name:cs": "Turecko",
        "name:csb": "Tëreckô",
        "name:cu": "Тѷрци",
        "name:cv": "Турци",
        "name:cy": "Twrci",
        "name:da": "Tyrkiet",
        "name:de": "Türkei",
        "name:diq": "Tırkiya",
        "name:dsb": "Turkojska",
        "name:dv": "ތުރުކީވިލާތް",
        "name:ee": "Turkey",
        "name:el": "Τουρκία",
        "name:eml": "Turchî",
        "name:en": "Turkey",
        "name:eo": "Turkujo",
        "name:es": "Turquía",
        "name:et": "Türgi",
        "name:eu": "Turkia",
        "name:ext": "Turquia",
        "name:fa": "ترکیه",
        "name:fi": "Turkki",
        "name:fiu-vro": "Türgü",
        "name:fo": "Turkaland",
        "name:fr": "Turquie",
        "name:frp": "Turquie",
        "name:frr": "Türkei",
        "name:fy": "Turkije",
        "name:ga": "An Tuirc",
        "name:gag": "Türkiye",
        "name:gan": "土耳其",
        "name:gd": "An Tuirc",
        "name:gl": "Turquía",
        "name:gn": "Tuykia",
        "name:gu": "તુર્કસ્તાન",
        "name:gv": "Yn Turkee",
        "name:ha": "Turkiyya",
        "name:hak": "Thú-ngí-khì",
        "name:haw": "Tureke",
        "name:he": "טורקיה",
        "name:hi": "तुर्की",
        "name:hif": "Turkey",
        "name:hr": "Turska",
        "name:hsb": "Turkowska",
        "name:ht": "Tiki",
        "name:hu": "Törökország",
        "name:hy": "Թուրքիա",
        "name:ia": "Turchia",
        "name:id": "Turki",
        "name:ie": "Turcia",
        "name:ik": "Turkey",
        "name:ilo": "Turkia",
        "name:io": "Turkia",
        "name:is": "Tyrkland",
        "name:it": "Turchia",
        "name:ja": "トルコ",
        "name:jbo": "turk",
        "name:jv": "Turki",
        "name:ka": "თურქეთი",
        "name:kaa": "Tu'rkiya",
        "name:kab": "Tturk",
        "name:kbd": "Тырку",
        "name:kg": "Turki",
        "name:ki": "Turkey",
        "name:kk": "Түркия",
        "name:kl": "Tyrkia",
        "name:kn": "ಟರ್ಕಿ",
        "name:ko": "터키",
        "name:koi": "Тюркия",
        "name:krc": "Тюрк",
        "name:ku": "Tirkiye",
        "name:kv": "Турция",
        "name:kw": "Turki",
        "name:ky": "Түркия Республикасы",
        "name:la": "Turcia",
        "name:lad": "Turkiya",
        "name:lb": "Tierkei",
        "name:lbe": "Туркия",
        "name:lez": "Турция",
        "name:lg": "Buturuki",
        "name:li": "Turkije",
        "name:lij": "Turchia",
        "name:lmo": "Türchia",
        "name:ln": "Turkí",
        "name:lt": "Turkija",
        "name:ltg": "Turceja",
        "name:lv": "Turcija",
        "name:mdf": "Туркамастор",
        "name:mg": "Torkia",
        "name:mhr": "Турций",
        "name:mi": "Tākei",
        "name:mk": "Турција",
        "name:ml": "തുർക്കി",
        "name:mn": "Турк",
        "name:mr": "तुर्कस्तान",
        "name:mrj": "Турци",
        "name:ms": "Turki",
        "name:mt": "Turkija",
        "name:mwl": "Turquie",
        "name:my": "တူရကီနိုင်ငံ",
        "name:mzn": "ترکیه",
        "name:na": "Terki",
        "name:nah": "Turquia",
        "name:nap": "Turchia",
        "name:nds": "Törkie",
        "name:nds-nl": "Turkije",
        "name:ne": "टर्की",
        "name:new": "टर्की",
        "name:nl": "Turkije",
        "name:nn": "Tyrkia",
        "name:no": "Tyrkia",
        "name:nov": "Turkia",
        "name:nrm": "Turtchie",
        "name:nso": "Turkey",
        "name:nv": "Tʼóok Bikéyah",
        "name:oc": "Turquia",
        "name:or": "ତୁର୍କୀ",
        "name:os": "Турк",
        "name:pa": "ਤੁਰਕੀ",
        "name:pam": "Turkia",
        "name:pap": "Turkia",
        "name:pcd": "Turkie",
        "name:pdc": "Turkie",
        "name:pih": "Turkii",
        "name:pl": "Turcja",
        "name:pms": "Turchìa",
        "name:pnb": "ترکی",
        "name:pnt": "Τουρκία",
        "name:ps": "تورکيه",
        "name:pt": "Turquia",
        "name:qu": "Turkiya",
        "name:rm": "Tirchia",
        "name:rmy": "Turkiya",
        "name:rn": "Turukiya",
        "name:ro": "Turcia",
        "name:roa-rup": "Turchia",
        "name:roa-tara": "Turchie",
        "name:ru": "Турция",
        "name:rue": "Турція",
        "name:rw": "Turukiya",
        "name:sa": "तुर्की",
        "name:sah": "Түркийэ",
        "name:sc": "Turkia",
        "name:scn": "Turchìa",
        "name:sco": "Turkey",
        "name:se": "Durka",
        "name:sh": "Turska",
        "name:si": "තුර්කිය",
        "name:sk": "Turecko",
        "name:sl": "Turčija",
        "name:so": "Turki",
        "name:sq": "Turqia",
        "name:sr": "Турска",
        "name:srn": "Turkiyakondre",
        "name:ss": "IThekhi",
        "name:stq": "Turkäi",
        "name:su": "Turki",
        "name:sv": "Turkiet",
        "name:sw": "Uturuki",
        "name:szl": "Turcyjo",
        "name:ta": "துருக்கி",
        "name:te": "టర్కీ",
        "name:tet": "Turkia",
        "name:tg": "Туркия",
        "name:th": "ประเทศตุรกี",
        "name:tk": "Türkiýe",
        "name:tl": "Turkiya",
        "name:tpi": "Teki",
        "name:tr": "Türkiye",
        "name:tt": "Төркия",
        "name:tum": "Turkey",
        "name:tw": "Turkey",
        "name:tzl": "Türchia",
        "name:tzl_1": "ma Tuki",
        "name:udm": "Турция",
        "name:ug": "تۈركىيە جۇمھۇرىيىتى",
        "name:uk": "Туреччина",
        "name:ur": "ترکی",
        "name:uz": "Turkiya",
        "name:vec": "Turchia",
        "name:vep": "Turcii",
        "name:vi": "Thổ Nhĩ Kỳ",
        "name:vls": "Turkeye",
        "name:vo": "Türkän",
        "name:wa": "Tourkeye",
        "name:war": "Turkeya",
        "name:wo": "Tirki",
        "name:wuu": "土耳其",
        "name:xal": "Түргүдин Орн",
        "name:xmf": "თურქეთი",
        "name:yi": "טערקיי",
        "name:yo": "Túrkì",
        "name:za": "Dujwjgiz",
        "name:zea": "Turkije",
        "name:zh": "土耳其",
        "name:zh-classical": "土耳其",
        "name:zh-min-nan": "Türkiye",
        "name:zh-yue": "土耳其",
        "name:zu": "ITheki",
        "official_name": "Türkiye Cumhuriyeti",
        "official_name:cs": "Turecká republika",
        "official_name:el": "Δημοκρατία της Τουρκίας",
        "official_name:en": "Republic of Turkey",
        "official_name:eo": "Turka Respubliko",
        "official_name:fi": "Turkin tasavalta",
        "official_name:fr": "République de Turquie",
        "official_name:he": "הרפובליקה הטורקית",
        "official_name:ku": "Komara Tirkiyeyê",
        "population": "79814871",
        "timezone": "Europe/Istanbul",
        "type": "boundary",
        "wikidata": "Q43",
        "wikipedia": "tr:Türkiye",
        "@geometry": "center"
      },
      "geometry": {
        "type": "Point",
        "coordinates": [
          35.2194765,
          39.0523402
        ]
      },
      "id": "relation/174737"
    },
    {
      "type": "Feature",
      "properties": {
        "@id": "relation/192757",
        "ISO3166-1": "TN",
        "ISO3166-1:alpha2": "TN",
        "ISO3166-1:alpha3": "TUN",
        "ISO3166-1:numeric": "788",
        "admin_level": "2",
        "alt_name:vi": "Tuy-ni-di",
        "border_type": "nation",
        "boundary": "administrative",
        "flag": "http://upload.wikimedia.org/wikipedia/commons/c/ce/Flag_of_Tunisia.svg",
        "is_in:continent": "Africa",
        "name": "تونس",
        "name:ace": "Tunisia",
        "name:af": "Tunisië",
        "name:als": "Tunesien",
        "name:am": "ቱኒዚያ",
        "name:an": "Tunicia",
        "name:ang": "Tunisia",
        "name:ar": "تونس",
        "name:arc": "ܬܘܢܣ",
        "name:arz": "تونس",
        "name:ast": "Tunicia",
        "name:az": "Tunis",
        "name:ba": "Тунис",
        "name:bat-smg": "Tonėsos",
        "name:bcl": "Tunisya",
        "name:be": "Туніс",
        "name:be-tarask": "Туніс",
        "name:bg": "Тунис",
        "name:bjn": "Tunisia",
        "name:bm": "Tunizi",
        "name:bn": "তিউনিসিয়া",
        "name:bo": "ཏུ་ནི་ཤི་ཡ།",
        "name:bpy": "তিউনিসিয়া",
        "name:br": "Tunizia",
        "name:bs": "Republika Tunis",
        "name:bxr": "Тунис",
        "name:ca": "Tunísia",
        "name:ce": "Тунис",
        "name:ceb": "Tunisia",
        "name:ckb": "توونس",
        "name:crh": "Tunis",
        "name:cs": "Tunisko",
        "name:cv": "Тунис",
        "name:cy": "Tunisia",
        "name:da": "Tunesien",
        "name:de": "Tunesien",
        "name:diq": "Tunıs",
        "name:dv": "ތޫނިސް",
        "name:ee": "Tunisia",
        "name:el": "Τυνησία",
        "name:en": "Tunisia",
        "name:eo": "Tunizio",
        "name:es": "Túnez",
        "name:et": "Tuneesia",
        "name:eu": "Tunisia",
        "name:ext": "Túnis",
        "name:fa": "تونس",
        "name:fi": "Tunisia",
        "name:fiu-vro": "Tuneesiä",
        "name:fo": "Tunesia",
        "name:fr": "Tunisie",
        "name:frp": "Tunisie",
        "name:fy": "Tuneezje",
        "name:ga": "An Túinéis",
        "name:gag": "Tunis",
        "name:gd": "Tuinisia",
        "name:gl": "Tunisia",
        "name:gu": "ટ્યુનિશિયા",
        "name:gv": "Yn Tooneesh",
        "name:haw": "Tunisia",
        "name:he": "תוניסיה",
        "name:hi": "ट्यूनिशिया",
        "name:hif": "Tunisia",
        "name:hr": "Tunis",
        "name:hsb": "Tuneziska",
        "name:ht": "Tinizi",
        "name:hu": "Tunézia",
        "name:hy": "Թունիս",
        "name:id": "Tunisia",
        "name:ie": "Tunisia",
        "name:ilo": "Tunisia",
        "name:io": "Tunizia",
        "name:is": "Túnis",
        "name:it": "Tunisia",
        "name:ja": "チュニジア",
        "name:jv": "Tunisia",
        "name:ka": "ტუნისი",
        "name:kab": "Tunes",
        "name:kg": "Tunisia",
        "name:kk": "Тунис",
        "name:kn": "ಟುನೀಶಿಯ",
        "name:ko": "튀니지",
        "name:ku": "Tûnis",
        "name:kw": "Tunisi",
        "name:ky": "Тунис",
        "name:la": "Tunesia",
        "name:lad": "Tunesia",
        "name:lb": "Tunesien",
        "name:li": "Tunesië",
        "name:lij": "Tunixia",
        "name:lmo": "Tünisia",
        "name:ln": "Tunisia",
        "name:lt": "Tunisas",
        "name:lv": "Tunisija",
        "name:mdf": "Тунис",
        "name:mg": "Tonizia",
        "name:mk": "Тунис",
        "name:ml": "ടുണീഷ്യ",
        "name:mn": "Тунис",
        "name:mr": "ट्युनिसिया",
        "name:mrj": "Тунис",
        "name:ms": "Tunisia",
        "name:mt": "Tuneżija",
        "name:my": "တူနီးရှားနိုင်ငံ",
        "name:mzn": "تونس",
        "name:nah": "Tunez",
        "name:nds": "Tunesien",
        "name:new": "ट्युनिसिया",
        "name:nl": "Tunesië",
        "name:nn": "Tunisia",
        "name:no": "Tunisia",
        "name:nov": "Tunisia",
        "name:nso": "Tunisia",
        "name:oc": "Tunisia",
        "name:or": "ଟ୍ୟୁନିସିଆ",
        "name:os": "Тунис",
        "name:pa": "ਤੁਨੀਸੀਆ",
        "name:pam": "Tunisia",
        "name:pap": "Tunesia",
        "name:pl": "Tunezja",
        "name:pms": "Tunisìa",
        "name:pnb": "ٹیونس",
        "name:pnt": "Τυνησίαν",
        "name:ps": "تونس",
        "name:pt": "Tunísia",
        "name:qu": "Tunisya",
        "name:rm": "Tunesia",
        "name:ro": "Tunisia",
        "name:ru": "Тунис",
        "name:rw": "Tunisiya",
        "name:sa": "टुनिशिया",
        "name:sah": "Тунис",
        "name:sc": "Tunisia",
        "name:scn": "Tunisìa",
        "name:sco": "Tunisie",
        "name:se": "Tunisia",
        "name:sg": "Tunizïi",
        "name:sh": "Tunis",
        "name:simple": "Tunisia",
        "name:sk": "Tunisko",
        "name:sl": "Tunizija",
        "name:sn": "Tunisia",
        "name:so": "Tunisiya",
        "name:sq": "Tunizia",
        "name:sr": "Тунис",
        "name:ss": "IThunisiya",
        "name:stq": "Tunesien",
        "name:su": "Tunisia",
        "name:sv": "Tunisien",
        "name:sw": "Tunisia",
        "name:szl": "Tůnezyjo",
        "name:ta": "துனீசியா",
        "name:te": "ట్యునీషియా",
        "name:tg": "Тунис",
        "name:th": "ประเทศตูนิเซีย",
        "name:ti": "ቱኒዢያ",
        "name:tk": "Tunis",
        "name:tl": "Tunisya",
        "name:tr": "Tunus",
        "name:ts": "Tunisia",
        "name:tt": "Тунис",
        "name:tzl": "Tünis",
        "name:ug": "تۇنىس",
        "name:uk": "Туніс",
        "name:ur": "تونس",
        "name:uz": "Tunis",
        "name:vec": "Tunixia",
        "name:vi": "Tunisia",
        "name:vo": "Tünisän",
        "name:wa": "Tunizeye",
        "name:war": "Tunisia",
        "name:wo": "Tiniisi",
        "name:wuu": "突尼斯",
        "name:yi": "טוניסיע",
        "name:yo": "Tùnísíà",
        "name:zgh": "ⵜⵓⵏⵙ",
        "name:zh": "突尼西亞",
        "name:zh-min-nan": "Tunisia",
        "name:zh-yue": "突尼西亞",
        "name:zu": "ITunisia",
        "official_name:cs": "Tuniská republika",
        "timezone": "Africa/Tunis",
        "type": "boundary",
        "wikidata": "Q948",
        "wikipedia": "ar:تونس",
        "@geometry": "center"
      },
      "geometry": {
        "type": "Point",
        "coordinates": [
          9.701047,
          33.9957206
        ]
      },
      "id": "relation/192757"
    },
    {
      "type": "Feature",
      "properties": {
        "@id": "relation/192782",
        "ISO3166-1": "TG",
        "ISO3166-1:alpha2": "TG",
        "ISO3166-1:alpha3": "TGO",
        "ISO3166-1:numeric": "768",
        "admin_level": "2",
        "alt_name:eo": "Togo;Togolo",
        "boundary": "administrative",
        "currency": "XOF",
        "flag": "http://upload.wikimedia.org/wikipedia/commons/6/68/Flag_of_Togo.svg",
        "is_in:continent": "Africa",
        "name": "Togo",
        "name:ace": "Togo",
        "name:af": "Togo",
        "name:ak": "Togo",
        "name:als": "Togo",
        "name:am": "ቶጎ",
        "name:an": "Togo",
        "name:ar": "توغو",
        "name:arz": "توجو",
        "name:ast": "Togu",
        "name:az": "Toqo",
        "name:ba": "Того",
        "name:bat-smg": "Togs",
        "name:bcl": "Togo",
        "name:be": "Тога",
        "name:be-tarask": "Тога",
        "name:bg": "Того",
        "name:bjn": "Togo",
        "name:bm": "Togo",
        "name:bn": "টোগো",
        "name:bo": "ཊོ་གོ",
        "name:bpy": "টোগো",
        "name:br": "Togo",
        "name:bs": "Togo",
        "name:bxr": "Того",
        "name:ca": "Togo",
        "name:ce": "Того",
        "name:ceb": "Togo",
        "name:ckb": "تۆگۆ",
        "name:crh": "Togo",
        "name:cs": "Togo",
        "name:cv": "Того",
        "name:cy": "Togo",
        "name:da": "Togo",
        "name:de": "Togo",
        "name:diq": "Togo",
        "name:dsb": "Togo",
        "name:dv": "ޓޯގޯ",
        "name:ee": "Togo",
        "name:el": "Τόγκο",
        "name:en": "Togo",
        "name:eo": "Togolando",
        "name:es": "Togo",
        "name:et": "Togo",
        "name:eu": "Togo",
        "name:ext": "Togu",
        "name:fa": "توگو",
        "name:fi": "Togo",
        "name:fiu-vro": "Togo",
        "name:fr": "Togo",
        "name:frp": "Togô",
        "name:fy": "Togo",
        "name:ga": "Tóga",
        "name:gag": "Togo",
        "name:gd": "Tògo",
        "name:gl": "Togo",
        "name:gu": "ટોગો",
        "name:gv": "Yn Togo",
        "name:ha": "Togo",
        "name:he": "טוגו",
        "name:hi": "टोगो",
        "name:hif": "Togo",
        "name:hr": "Togo",
        "name:ht": "Togo",
        "name:hu": "Togo",
        "name:hy": "Տոգո",
        "name:id": "Togo",
        "name:ie": "Togo",
        "name:ig": "Togo",
        "name:ilo": "Togo",
        "name:io": "Togo",
        "name:is": "Tógó",
        "name:it": "Togo",
        "name:ja": "トーゴ",
        "name:jbo": "togos",
        "name:jv": "Togo",
        "name:ka": "ტოგო",
        "name:kk": "Того",
        "name:kn": "ಟೊಗೊ",
        "name:ko": "토고",
        "name:ku": "Togo",
        "name:kw": "Togo",
        "name:la": "Togum",
        "name:lad": "Togo",
        "name:lb": "Togo",
        "name:li": "Togo",
        "name:lij": "Tògo",
        "name:lmo": "Togo",
        "name:ln": "Togo",
        "name:lt": "Togas",
        "name:lv": "Togo",
        "name:mk": "Того",
        "name:ml": "ടോഗോ",
        "name:mr": "टोगो",
        "name:mrj": "Того",
        "name:ms": "Togo",
        "name:mt": "Togo",
        "name:my": "တိုဂိုနိုင်ငံ",
        "name:mzn": "توگو",
        "name:na": "Togo",
        "name:nah": "Togo",
        "name:nds": "Togo",
        "name:nl": "Togo",
        "name:nn": "Togo",
        "name:no": "Togo",
        "name:nov": "Togo",
        "name:nso": "Togo",
        "name:nv": "Tʼóogo",
        "name:oc": "Tògo",
        "name:or": "ଟୋଗୋ",
        "name:os": "Того",
        "name:pa": "ਟੋਗੋ",
        "name:pam": "Togo",
        "name:pap": "Togo",
        "name:pl": "Togo",
        "name:pms": "Tògo",
        "name:pnb": "ٹوگو",
        "name:pt": "Togo",
        "name:qu": "Tugu",
        "name:rm": "Togo",
        "name:ro": "Togo",
        "name:ru": "Того",
        "name:rw": "Togo",
        "name:sa": "टोगो",
        "name:sah": "Того",
        "name:sc": "Togo",
        "name:scn": "Togu",
        "name:sco": "Togo",
        "name:se": "Togo",
        "name:sg": "Togö",
        "name:sh": "Togo",
        "name:si": "ටෝගෝ",
        "name:sk": "Togo",
        "name:sl": "Togo",
        "name:sn": "Togo",
        "name:so": "Togo",
        "name:sq": "Togo",
        "name:sr": "Того",
        "name:ss": "IThogo",
        "name:st": "Togo",
        "name:stq": "Togo",
        "name:su": "Togo",
        "name:sv": "Togo",
        "name:sw": "Togo",
        "name:szl": "Togo",
        "name:ta": "டோகோ",
        "name:tg": "Того",
        "name:th": "ประเทศโตโก",
        "name:ti": "ቶጎ",
        "name:tk": "Togo",
        "name:tl": "Togo",
        "name:tr": "Togo",
        "name:ts": "Togo",
        "name:tw": "Togo",
        "name:tzl": "Togo",
        "name:ug": "توگو",
        "name:uk": "Того",
        "name:ur": "ٹوگو",
        "name:uz": "Togo",
        "name:vec": "Togo",
        "name:vi": "Togo",
        "name:vo": "Togoän",
        "name:war": "Togo",
        "name:wo": "Togóo",
        "name:xal": "Тоһлмудин Орн",
        "name:yi": "טאגא",
        "name:yo": "Tógò",
        "name:zh": "多哥",
        "name:zh-min-nan": "Togo",
        "name:zh-yue": "多哥",
        "name:zu": "ITogo",
        "official_name": "République togolaise",
        "official_name:cs": "Tožská republika",
        "official_name:eo": "Respubliko Togolando",
        "timezone": "Africa/Lome",
        "type": "boundary",
        "wikidata": "Q945",
        "wikipedia": "fr:Togo",
        "@geometry": "center"
      },
      "geometry": {
        "type": "Point",
        "coordinates": [
          0.8323943,
          8.533022
        ]
      },
      "id": "relation/192782"
    },
    {
      "type": "Feature",
      "properties": {
        "@id": "relation/192796",
        "ISO3166-1": "UG",
        "ISO3166-1:alpha2": "UG",
        "ISO3166-1:alpha3": "UGA",
        "ISO3166-1:numeric": "800",
        "admin_level": "2",
        "boundary": "administrative",
        "currency": "UGX",
        "flag": "http://upload.wikimedia.org/wikipedia/commons/4/4e/Flag_of_Uganda.svg",
        "is_in:continent": "Africa",
        "name": "Uganda",
        "name:ace": "Uganda",
        "name:af": "Uganda",
        "name:als": "Uganda",
        "name:am": "ዩጋንዳ",
        "name:an": "Uganda",
        "name:ang": "Uganda",
        "name:ar": "أوغندا",
        "name:arz": "اوجاندا",
        "name:ast": "Uganda",
        "name:az": "Uqanda",
        "name:ba": "Уганда",
        "name:bat-smg": "Uganda",
        "name:bcl": "Uganda",
        "name:be": "Уганда",
        "name:be-tarask": "Уганда",
        "name:bg": "Уганда",
        "name:bm": "Uganda",
        "name:bn": "উগান্ডা",
        "name:bo": "ཨུ་གན་ད།",
        "name:bpy": "উগান্ডা",
        "name:br": "Ouganda",
        "name:bs": "Uganda",
        "name:bxr": "Уганда",
        "name:ca": "Uganda",
        "name:ce": "Уганда",
        "name:ceb": "Uganda",
        "name:ckb": "ئووگەندا",
        "name:crh": "Uganda",
        "name:cs": "Uganda",
        "name:cv": "Уганда",
        "name:cy": "Uganda",
        "name:da": "Uganda",
        "name:de": "Uganda",
        "name:diq": "Uganda",
        "name:dsb": "Uganda",
        "name:dv": "ޔުގެންޑާ",
        "name:ee": "Uganda",
        "name:el": "Ουγκάντα",
        "name:en": "Uganda",
        "name:eo": "Ugando",
        "name:es": "Uganda",
        "name:et": "Uganda",
        "name:eu": "Uganda",
        "name:ext": "Uganda",
        "name:fa": "اوگاندا",
        "name:fi": "Uganda",
        "name:fiu-vro": "Uganda",
        "name:fo": "Uganda",
        "name:fr": "Ouganda",
        "name:frp": "Oganda",
        "name:fy": "Uganda",
        "name:ga": "Uganda",
        "name:gag": "Uganda",
        "name:gd": "Uganda",
        "name:gl": "Uganda",
        "name:gv": "Ooganda",
        "name:ha": "Uganda",
        "name:he": "אוגנדה",
        "name:hi": "युगाण्डा",
        "name:hif": "Uganda",
        "name:hr": "Uganda",
        "name:hsb": "Uganda",
        "name:ht": "Ouganda",
        "name:hu": "Uganda",
        "name:hy": "Ուգանդա",
        "name:ia": "Uganda",
        "name:id": "Uganda",
        "name:ie": "Uganda",
        "name:ilo": "Uganda",
        "name:io": "Uganda",
        "name:is": "Úganda",
        "name:it": "Uganda",
        "name:ja": "ウガンダ",
        "name:jbo": "ugandas",
        "name:jv": "Uganda",
        "name:ka": "უგანდა",
        "name:kaa": "Uganda",
        "name:kg": "Uganda",
        "name:ki": "Uganda",
        "name:kk": "Уганда",
        "name:kl": "Uganda",
        "name:kn": "ಉಗಾಂಡ",
        "name:ko": "우간다",
        "name:ku": "Ûganda",
        "name:kw": "Ouganda",
        "name:la": "Uganda",
        "name:lb": "Uganda",
        "name:lez": "Уганда",
        "name:lg": "Yuganda",
        "name:li": "Oeganda",
        "name:lij": "Uganda",
        "name:lmo": "Uganda",
        "name:ln": "Uganda",
        "name:lt": "Uganda",
        "name:lv": "Uganda",
        "name:mhr": "Уганде",
        "name:mi": "Ukānga",
        "name:mk": "Уганда",
        "name:ml": "ഉഗാണ്ട",
        "name:mn": "Уганда",
        "name:mr": "युगांडा",
        "name:mrj": "Уганда",
        "name:ms": "Uganda",
        "name:mt": "Uganda",
        "name:my": "ယူဂန်းဒါးနိုင်ငံ",
        "name:mzn": "اوگاندا",
        "name:nah": "Uganda",
        "name:nds": "Uganda",
        "name:nl": "Oeganda",
        "name:nn": "Uganda",
        "name:no": "Uganda",
        "name:nov": "Uganda",
        "name:nso": "Uganda",
        "name:nv": "Yogénda",
        "name:oc": "Oganda",
        "name:or": "ଉଗାଣ୍ଡା",
        "name:os": "Угандæ",
        "name:pa": "ਯੁਗਾਂਡਾ",
        "name:pam": "Uganda",
        "name:pap": "Uganda",
        "name:pih": "Yuganda",
        "name:pl": "Uganda",
        "name:pms": "Uganda",
        "name:pnb": "یوگنڈا",
        "name:pt": "Uganda",
        "name:qu": "Uganda",
        "name:rm": "Uganda",
        "name:ro": "Uganda",
        "name:ru": "Уганда",
        "name:rue": "Уґанда",
        "name:rw": "Ubugande",
        "name:sah": "Уганда",
        "name:sc": "Uganda",
        "name:scn": "Uganna",
        "name:sco": "Uganda",
        "name:se": "Uganda",
        "name:sg": "Ugandäa",
        "name:sh": "Uganda",
        "name:simple": "Uganda",
        "name:sk": "Uganda",
        "name:sl": "Uganda",
        "name:sn": "Uganda",
        "name:so": "Yugandha",
        "name:sq": "Uganda",
        "name:sr": "Уганда",
        "name:ss": "IBuganda",
        "name:stq": "Uganda",
        "name:su": "Uganda",
        "name:sv": "Uganda",
        "name:sw": "Uganda",
        "name:szl": "Uganda",
        "name:ta": "உகாண்டா",
        "name:te": "ఉగాండా",
        "name:tg": "Уганда",
        "name:th": "ประเทศยูกันดา",
        "name:tk": "Uganda",
        "name:tl": "Uganda",
        "name:tr": "Uganda",
        "name:ts": "Uganda",
        "name:tt": "Уганда",
        "name:tzl": "Uganda",
        "name:ug": "ئۇگاندا",
        "name:uk": "Уганда",
        "name:ur": "یوگنڈا",
        "name:uz": "Uganda",
        "name:vec": "Uganda",
        "name:vi": "Uganda",
        "name:vo": "Lugandayän",
        "name:war": "Uganda",
        "name:wo": "Ugandaa",
        "name:xal": "Угандин Орн",
        "name:yi": "אוגאנדע",
        "name:yo": "Ùgándà",
        "name:zh": "乌干达",
        "name:zh-classical": "烏干達",
        "name:zh-min-nan": "Uganda",
        "name:zh-yue": "烏干達",
        "name:zu": "IYuganda",
        "official_name:cs": "Ugandská republika",
        "timezone": "Africa/Kampala",
        "type": "boundary",
        "wikidata": "Q1036",
        "wikipedia": "en:Uganda",
        "@geometry": "center"
      },
      "geometry": {
        "type": "Point",
        "coordinates": [
          32.2868705,
          1.3758793
        ]
      },
      "id": "relation/192796"
    },
    {
      "type": "Feature",
      "properties": {
        "@id": "relation/214626",
        "ISO3166-1": "TJ",
        "ISO3166-1:alpha2": "TJ",
        "ISO3166-1:alpha3": "TJK",
        "ISO3166-1:numeric": "762",
        "admin_level": "2",
        "alt_name:eo": "Taĝikistano;Taĝikio",
        "boundary": "administrative",
        "flag": "http://upload.wikimedia.org/wikipedia/commons/d/d0/Flag_of_Tajikistan.svg",
        "int_ref": "TJ",
        "is_in:continent": "Asia",
        "land_area": "administrative",
        "name": "Тоҷикистон",
        "name:ace": "Tajikistan",
        "name:af": "Tadjikistan",
        "name:als": "Tadschikistan",
        "name:am": "ታጂኪስታን",
        "name:an": "Tachiquistán",
        "name:ang": "Tacgicastan",
        "name:ar": "طاجيكستان",
        "name:arc": "ܛܐܓܝܩܣܛܐܢ",
        "name:arz": "تاجيكيستان",
        "name:ast": "Taxiquistán",
        "name:ay": "Tayiksuyu",
        "name:az": "Tacikistan",
        "name:ba": "Тажикстан",
        "name:bar": "Tadschikistan",
        "name:bat-smg": "Tadžikistans",
        "name:bcl": "Tayikistan",
        "name:be": "Таджыкістан",
        "name:be-tarask": "Таджыкістан",
        "name:bg": "Таджикистан",
        "name:bn": "তাজিকিস্তান",
        "name:bo": "ཐ་ཇི་ཁེ་སི་ཏན།",
        "name:bpy": "তাজিকিস্তান",
        "name:br": "Tadjikistan",
        "name:bs": "Tadžikistan",
        "name:bug": "Tajikistan",
        "name:bxr": "Таджикистан",
        "name:ca": "Tadjikistan",
        "name:ce": "Таджикистан",
        "name:ceb": "Tayikistan",
        "name:chr": "ᏔᏥᎩᏍᏔᏂ",
        "name:ckb": "تاجیکستان",
        "name:crh": "Tacikistan",
        "name:cs": "Tádžikistán",
        "name:csb": "Tadżikistan",
        "name:cu": "Таджикистанъ",
        "name:cv": "Таджикистан",
        "name:cy": "Tajikistan",
        "name:da": "Tadsjikistan",
        "name:de": "Tadschikistan",
        "name:diq": "Tacikıstan",
        "name:dsb": "Tadžikistan",
        "name:dv": "ތަޖިކިސްތާން",
        "name:dz": "ཏ་ཇག་ཀིསི་ཏཱན་",
        "name:ee": "Tajikistan",
        "name:el": "Τατζικιστάν",
        "name:en": "Tajikistan",
        "name:eo": "Taĝikujo",
        "name:es": "Tayikistán",
        "name:et": "Tadžikistan",
        "name:eu": "Tajikistan",
        "name:ext": "Tayiquistán",
        "name:fa": "تاجیکستان",
        "name:fi": "Tadžikistan",
        "name:fiu-vro": "Tadžikistan",
        "name:fo": "Tadsjikistan",
        "name:fr": "Tadjikistan",
        "name:frp": "Tadj·iquistan",
        "name:fy": "Tadzjikistan",
        "name:ga": "An Táidsíceastáin",
        "name:gag": "Tacikistan",
        "name:gd": "Taidigeastàn",
        "name:gl": "Taxiquistán",
        "name:gu": "તાજિકિસ્તાન",
        "name:gv": "Yn Tajikistaan",
        "name:hak": "Thap-kit-khiet-sṳ̂-thán",
        "name:he": "טג'יקיסטן",
        "name:hi": "ताजिकिस्तान",
        "name:hif": "Tajikistan",
        "name:hr": "Tadžikistan",
        "name:hsb": "Tadźikistan",
        "name:ht": "Tadjikistan",
        "name:hu": "Tádzsikisztán",
        "name:hy": "Տաջիկստան",
        "name:ia": "Tajikistan",
        "name:id": "Tajikistan",
        "name:ie": "Tadjikistan",
        "name:ilo": "Tajikistan",
        "name:io": "Tajikistan",
        "name:is": "Tadsjikistan",
        "name:it": "Tagikistan",
        "name:ja": "タジキスタン",
        "name:jbo": "tadjikistan",
        "name:jv": "Tajikistan",
        "name:ka": "ტაჯიკეთი",
        "name:kbd": "Таджыкыстэн",
        "name:kk": "Тәжікстан",
        "name:km": "តាជីគីស្ថាន",
        "name:kn": "ತಜಿಕಿಸ್ತಾನ್",
        "name:ko": "타지키스탄",
        "name:ku": "Tacîkistan",
        "name:kv": "Таджикистан",
        "name:kw": "Pow Tajik",
        "name:ky": "Тажикстан",
        "name:la": "Tadzikistania",
        "name:lb": "Tadjikistan",
        "name:li": "Tadzjikistan",
        "name:lij": "Tajikistan",
        "name:lmo": "Tagikistan",
        "name:lt": "Tadžikija",
        "name:lv": "Tadžikistāna",
        "name:mdf": "Таджикистан",
        "name:mhr": "Таджикистан",
        "name:min": "Tajikistan",
        "name:mk": "Таџикистан",
        "name:ml": "താജിക്കിസ്ഥാൻ",
        "name:mn": "Тажикистан",
        "name:mr": "ताजिकिस्तान",
        "name:ms": "Tajikistan",
        "name:my": "တာဂျစ်ကစ္စတန်နိုင်ငံ",
        "name:na": "Tadjikitan",
        "name:nah": "Tayictlālpan",
        "name:nds": "Tadschikistan",
        "name:nl": "Tadzjikistan",
        "name:nn": "Tadsjikistan",
        "name:no": "Tadsjikistan",
        "name:nov": "Tajikistan",
        "name:nv": "Tʼajiʼ Bikéyah",
        "name:oc": "Tatgiquistan",
        "name:or": "ତାଜିକିସ୍ତାନ",
        "name:os": "Таджикистан",
        "name:pam": "Tajikistan",
        "name:pdc": "Datschikischtaan",
        "name:pih": "Tajikistaan",
        "name:pl": "Tadżykistan",
        "name:pms": "Tagikistan",
        "name:pnb": "تاجکستان",
        "name:ps": "تاجيکستان",
        "name:pt": "Tajiquistão",
        "name:qu": "Tayiksuyu",
        "name:ro": "Tadjikistan",
        "name:ru": "Таджикистан",
        "name:rw": "Tajikisitani",
        "name:sa": "ताजिकिस्थान",
        "name:sah": "Тадьикистаан",
        "name:scn": "Tagikistan",
        "name:sco": "Tajikistan",
        "name:se": "Tažikistan",
        "name:sh": "Tadžikistan",
        "name:si": "ටජිකිස්ථාන්",
        "name:sk": "Tadžikistan",
        "name:sl": "Tadžikistan",
        "name:so": "Tadsjikistan",
        "name:sq": "Taxhikistani",
        "name:sr": "Таџикистан",
        "name:ss": "IThajiki",
        "name:su": "Tajikistan",
        "name:sv": "Tadzjikistan",
        "name:sw": "Tajikistan",
        "name:szl": "Tadżykistůn",
        "name:ta": "தஜிகிஸ்தான்",
        "name:te": "తజికిస్తాన్",
        "name:tg": "Тоҷикистон",
        "name:th": "ประเทศทาจิกิสถาน",
        "name:tk": "Täjigistan",
        "name:tl": "Tayikistan",
        "name:tr": "Tacikistan",
        "name:tt": "Таҗикстан",
        "name:tzl": "Toxhikistan",
        "name:udm": "Таджикистан",
        "name:ug": "تاجىكىستان",
        "name:uk": "Таджикистан",
        "name:ur": "تاجکستان",
        "name:uz": "Tojikiston",
        "name:vi": "Tajikistan",
        "name:vo": "Tacikistän",
        "name:war": "Tayikistan",
        "name:wo": "Tajikistaan",
        "name:wuu": "塔吉克斯坦",
        "name:xal": "Тоҗгудин Орн",
        "name:yi": "טאדזשיקיסטאן",
        "name:yo": "Tajikistan",
        "name:zea": "Tadzjikistan",
        "name:zh": "塔吉克斯坦",
        "name:zh-min-nan": "Tajikistan",
        "name:zh-yue": "塔吉克",
        "official_name:cs": "Republika Tádžikistán",
        "official_name:eo": "Respubliko Taĝikistano",
        "timezone": "Asia/Dushanbe",
        "type": "boundary",
        "wikidata": "Q863",
        "wikipedia": "tg:Тоҷикистон",
        "@geometry": "center"
      },
      "geometry": {
        "type": "Point",
        "coordinates": [
          71.242415,
          38.8581044
        ]
      },
      "id": "relation/214626"
    },
    {
      "type": "Feature",
      "properties": {
        "@id": "relation/223026",
        "ISO3166-1": "TM",
        "ISO3166-1:alpha2": "TM",
        "ISO3166-1:alpha3": "TKM",
        "ISO3166-1:numeric": "795",
        "admin_level": "2",
        "alt_name:eo": "Turkmenistano;Turkmenio",
        "boundary": "administrative",
        "flag": "http://upload.wikimedia.org/wikipedia/commons/1/1b/Flag_of_Turkmenistan.svg",
        "int_name": "Türkmenistan",
        "is_in:continent": "Asia",
        "name": "Türkmenistan",
        "name:ace": "Turkmènistan",
        "name:af": "Turkmenistan",
        "name:als": "Turkmenistan",
        "name:am": "ቱርክመኒስታን",
        "name:an": "Turkmenistán",
        "name:ang": "Turcmenistan",
        "name:ar": "تركمانستان",
        "name:arc": "ܛܘܪܩܡܢܣܛܐܢ",
        "name:arz": "توركمينيستان",
        "name:ast": "Turkmenistán",
        "name:av": "Туркменистан",
        "name:az": "Türkmənistan",
        "name:ba": "Төрөкмәнстан",
        "name:bar": "Tuakmenien",
        "name:bat-smg": "Torkmienėstans",
        "name:bcl": "Turkmenistan",
        "name:be": "Туркменістан",
        "name:be-tarask": "Туркмэністан",
        "name:bg": "Туркменистан",
        "name:bn": "তুর্কমেনিস্তান",
        "name:bo": "ཏུརཀ་མེ་ནི་སུཏན།",
        "name:bpy": "তুর্কমেনিস্তান",
        "name:br": "Turkmenistan",
        "name:bs": "Turkmenistan",
        "name:bug": "Turkmenistan",
        "name:bxr": "Туркменистан",
        "name:ca": "Turkmenistan",
        "name:ceb": "Turkmenistan",
        "name:ckb": "تورکمانستان",
        "name:co": "Turkmenistan",
        "name:crh": "Türkmenistan",
        "name:cs": "Turkmenistán",
        "name:csb": "Turkmenistan",
        "name:cv": "Туркменистан",
        "name:cy": "Turkmenistan",
        "name:da": "Turkmenistan",
        "name:de": "Turkmenistan",
        "name:diq": "Tırkmenıstan",
        "name:dsb": "Turkmeńska",
        "name:dv": "ތުރުކުމެނިސްތާން",
        "name:ee": "Turkmenistan",
        "name:el": "Τουρκμενιστάν",
        "name:en": "Turkmenistan",
        "name:eo": "Turkmenujo",
        "name:es": "Turkmenistán",
        "name:et": "Türkmenistan",
        "name:eu": "Turkmenistan",
        "name:ext": "Turkmenistán",
        "name:fa": "ترکمنستان",
        "name:fi": "Turkmenistan",
        "name:fiu-vro": "Türkmenistan",
        "name:fo": "Turkmenistan",
        "name:fr": "Turkménistan",
        "name:frp": "Turcmènistan",
        "name:fy": "Turkmenistan",
        "name:ga": "An Tuircméanastáin",
        "name:gag": "Türkmenistan",
        "name:gd": "Turcmanastàn",
        "name:gl": "Turcomenistán",
        "name:gu": "તુર્કમેનિસ્તાન",
        "name:gv": "Yn Turkmenistaan",
        "name:hak": "Thú-khû-man-sṳ̂-thán",
        "name:he": "טורקמניסטן",
        "name:hi": "तुर्कमेनिस्तान",
        "name:hif": "Turkmenistan",
        "name:hr": "Turkmenistan",
        "name:hsb": "Turkmenistan",
        "name:ht": "Tirkmenistan",
        "name:hu": "Türkmenisztán",
        "name:hy": "Թուրքմենստան",
        "name:ia": "Turkmenistan",
        "name:id": "Turkmenistan",
        "name:ie": "Turkmenistan",
        "name:ilo": "Turkmenistan",
        "name:io": "Turkmenistan",
        "name:is": "Túrkmenistan",
        "name:it": "Turkmenistan",
        "name:ja": "トルクメニスタン",
        "name:jbo": "turkmenistan",
        "name:jv": "Turkmenistan",
        "name:ka": "თურქმენეთი",
        "name:kbd": "Туркменстэн",
        "name:kk": "Түрікменстан",
        "name:km": "តួរមិនីស្ថាន",
        "name:kn": "ತುರ್ಕಮೆನಿಸ್ತಾನ್",
        "name:ko": "투르크메니스탄",
        "name:ku": "Tirkmenistan",
        "name:kv": "Туркменистан",
        "name:kw": "Pow Turkmen",
        "name:ky": "Түркмөнстан",
        "name:la": "Turcomannia",
        "name:lad": "Turkmenistan",
        "name:lez": "Туьркменистан",
        "name:li": "Turkmenistan",
        "name:lij": "Turkmenistan",
        "name:lmo": "Turkmenistan",
        "name:ln": "Turkmenistáni",
        "name:lt": "Turkmėnija",
        "name:lv": "Turkmenistāna",
        "name:mhr": "Туркменистан",
        "name:min": "Turkmenistan",
        "name:mk": "Туркменистан",
        "name:ml": "തുർക്‌മെനിസ്ഥാൻ",
        "name:mn": "Туркменистан",
        "name:mr": "तुर्कमेनिस्तान",
        "name:ms": "Turkmenistan",
        "name:my": "တာ့ခ်မင်နစ္စတန်နိုင်ငံ",
        "name:mzn": "ترکمنون",
        "name:na": "Turkmenistan",
        "name:nah": "Turcmenistan",
        "name:nds": "Turkmenistan",
        "name:ne": "तुर्कमेनिस्तान",
        "name:nl": "Turkmenistan",
        "name:nn": "Turkmenistan",
        "name:no": "Turkmenistan",
        "name:nov": "Turkmenistan",
        "name:nv": "Tʼóokmen Bikéyah",
        "name:oc": "Turcmenistan",
        "name:or": "ତୁର୍କମେନିସ୍ଥାନ",
        "name:os": "Туркмени",
        "name:pa": "ਤੁਰਕਮੇਨਸਤਾਨ",
        "name:pam": "Turkmenistan",
        "name:pih": "Terkmenistaan",
        "name:pl": "Turkmenistan",
        "name:pms": "Turkmenistan",
        "name:pnb": "ترکمانستان",
        "name:ps": "ترکمنستان",
        "name:pt": "Turquemenistão",
        "name:qu": "Turkminsuyu",
        "name:ro": "Turkmenistan",
        "name:roa-rup": "Turcmenistan",
        "name:ru": "Туркменистан",
        "name:rue": "Туркменістан",
        "name:rw": "Turukimenisitani",
        "name:sa": "तुर्कमिनिस्थान",
        "name:sah": "Түркменистаан",
        "name:scn": "Turkmenistan",
        "name:sco": "Turkmenistan",
        "name:se": "Turkmenistan",
        "name:sh": "Turkmenistan",
        "name:sk": "Turkménsko",
        "name:sl": "Turkmenistan",
        "name:so": "Turkmenistan",
        "name:sq": "Turkmenistani",
        "name:sr": "Туркменистан",
        "name:ss": "IThumekhi",
        "name:su": "Turkménistan",
        "name:sv": "Turkmenistan",
        "name:sw": "Turkmenistan",
        "name:szl": "Turkmyńistan",
        "name:ta": "துருக்மெனிஸ்தான்",
        "name:te": "తుర్కమేనిస్తాన్",
        "name:tg": "Туркманистон",
        "name:th": "ประเทศเติร์กเมนิสถาน",
        "name:tk": "Türkmenistan",
        "name:tl": "Turkmenistan",
        "name:tr": "Türkmenistan",
        "name:tt": "Төрекмәнстан",
        "name:tzl": "Türkmenistan",
        "name:udm": "Туркмения",
        "name:ug": "تۈركمەنىستان",
        "name:uk": "Туркменістан",
        "name:ur": "ترکمانستان",
        "name:uz": "Turkmaniston",
        "name:vep": "Turkmenistan",
        "name:vi": "Turkmenistan",
        "name:vo": "Turkmenän",
        "name:war": "Turkmenistan",
        "name:wo": "Turkumenistaan",
        "name:wuu": "土库曼斯坦",
        "name:xal": "Йомудин Орн",
        "name:yi": "טורקמעניסטאן",
        "name:yo": "Turkmẹ́nìstán",
        "name:zea": "Toerkmenistan",
        "name:zh": "土库曼斯坦",
        "name:zh-min-nan": "Turkmenistan",
        "name:zh-yue": "土庫曼",
        "timezone": "Asia/Ashgabat",
        "type": "boundary",
        "wikidata": "Q874",
        "wikipedia": "en:Turkmenistan",
        "@geometry": "center"
      },
      "geometry": {
        "type": "Point",
        "coordinates": [
          59.5096895,
          38.9633251
        ]
      },
      "id": "relation/223026"
    },
    {
      "type": "Feature",
      "properties": {
        "@id": "relation/305142",
        "ISO3166-1": "TL",
        "ISO3166-1:alpha2": "TL",
        "ISO3166-1:alpha3": "TLS",
        "ISO3166-1:numeric": "626",
        "admin_level": "2",
        "border_type": "nation",
        "boundary": "administrative",
        "flag": "http://upload.wikimedia.org/wikipedia/commons/2/26/Flag_of_East_Timor.svg",
        "is_in:continent": "Asia",
        "name": "Timór Lorosa'e",
        "name:af": "Oos-Timor",
        "name:cs": "Východní Timor",
        "name:de": "Osttimor",
        "name:el": "Ανατολικό Τιμόρ",
        "name:en": "East Timor",
        "name:fr": "Timor oriental",
        "name:hr": "Istočni Timor",
        "name:lt": "Rytų Timoras",
        "name:ms": "Timor Timur",
        "name:no": "Øst-Timor",
        "name:pl": "Timor Wschodni",
        "name:ru": "Восточный Тимор",
        "name:sk": "Východný Timor",
        "name:ta": "கிழக்குத் திமோர்",
        "name:tet": "Timór Lorosa'e",
        "name:tt": "Көнчыгыш Тимор",
        "name:uk": "Східний Тимор",
        "official_name:cs": "Demokratická republika Východní Timor",
        "timezone": "Asia/Dili",
        "type": "boundary",
        "wikidata": "Q574",
        "wikipedia": "en:East Timor",
        "@geometry": "center"
      },
      "geometry": {
        "type": "Point",
        "coordinates": [
          125.7875547,
          -8.8269117
        ]
      },
      "id": "relation/305142"
    },
    {
      "type": "Feature",
      "properties": {
        "@id": "relation/547479",
        "ISO3166-1": "TC",
        "ISO3166-1:alpha2": "TC",
        "ISO3166-1:alpha3": "TCA",
        "ISO3166-1:numeric": "796",
        "admin_level": "2",
        "boundary": "administrative",
        "description": "british overseas territory",
        "flag": "http://upload.wikimedia.org/wikipedia/commons/a/a0/Flag_of_the_Turks_and_Caicos_Islands.svg",
        "is_in:continent": "North America",
        "name": "Turks and Caicos Islands",
        "name:cs": "Turks a Caicos",
        "name:de": "Turks- und Caicosinseln",
        "name:en": "Turks and Caicos Islands",
        "name:eo": "Turkoj kaj Kajkoj",
        "name:fr": "Îles Turques-et-Caïques",
        "name:hr": "Otočje Turks i Caicos",
        "name:lt": "Terksas ir Kaikosas",
        "name:ru": "Тёркс и Кайкос",
        "name:sk": "Turks a Caicos",
        "name:sr": "Туркс и Кајкос",
        "name:uk": "Острови Теркс і Кайкос",
        "official_name:cs": "Ostrovy Turks a Caicos",
        "timezone": "America/Grand_Turk",
        "type": "boundary",
        "wikidata": "Q18221",
        "wikipedia": "en:Turks and Caicos Islands",
        "@geometry": "center"
      },
      "geometry": {
        "type": "Point",
        "coordinates": [
          -71.7721318,
          21.5592203
        ]
      },
      "id": "relation/547479"
    },
    {
      "type": "Feature",
      "properties": {
        "@id": "relation/555717",
        "ISO3166-1": "TT",
        "ISO3166-1:alpha2": "TT",
        "ISO3166-1:alpha3": "TTO",
        "ISO3166-1:numeric": "780",
        "admin_level": "2",
        "boundary": "administrative",
        "flag": "http://upload.wikimedia.org/wikipedia/commons/6/64/Flag_of_Trinidad_and_Tobago.svg",
        "is_in:continent": "North America",
        "name": "Trinidad and Tobago",
        "name:cs": "Trinidad a Tobago",
        "name:de": "Trinidad und Tobago",
        "name:en": "Trinidad and Tobago",
        "name:eo": "Trinidado kaj Tobago",
        "name:es": "Trinidad y Tobago",
        "name:fr": "Trinité-et-Tobago",
        "name:fy": "Trinidad en Tobago",
        "name:hr": "Trinidad i Tobago",
        "name:lt": "Trinidadas ir Tobagas",
        "name:nl": "Trinidad en Tobago",
        "name:pl": "Trynidad i Tobago",
        "name:pt": "Trindade e Tobago",
        "name:ru": "Тринидад и Тобаго",
        "name:sk": "Trinidad a Tobago",
        "name:ta": "டிரினிடாட் மற்றும் டொபாகோ",
        "name:tzl": "Þriadia-es-Tobago",
        "name:uk": "Тринідад і Тобаго",
        "name:vo": "Trinidadeän e Tobageäns",
        "official_name:cs": "Republika Trinidad a Tobago",
        "official_name:lt": "Trinidado ir Tobago Respublika",
        "timezone": "America/Port_of_Spain",
        "type": "boundary",
        "wikidata": "Q754",
        "wikipedia": "en:Trinidad and Tobago",
        "@geometry": "center"
      },
      "geometry": {
        "type": "Point",
        "coordinates": [
          -61.1863204,
          10.7180239
        ]
      },
      "id": "relation/555717"
    },
    {
      "type": "Feature",
      "properties": {
        "@id": "relation/2067731",
        "ISO3166-1": "TH",
        "ISO3166-1:alpha2": "TH",
        "ISO3166-1:alpha3": "THA",
        "ISO3166-1:numeric": "764",
        "admin_level": "2",
        "alt_name:eo": "Tajujo",
        "boundary": "administrative",
        "flag": "http://upload.wikimedia.org/wikipedia/commons/a/a9/Flag_of_Thailand.svg",
        "is_in:continent": "Asia",
        "name": "ประเทศไทย",
        "name:ace": "Muang Thai",
        "name:af": "Thailand",
        "name:als": "Thailand",
        "name:am": "ታይላንድ",
        "name:an": "Tailandia",
        "name:ang": "Thailand",
        "name:ar": "تايلاند",
        "name:arz": "تايلاندا",
        "name:ast": "Tailandia",
        "name:az": "Tailand",
        "name:ba": "Таиланд",
        "name:bar": "Thailand",
        "name:bat-smg": "Tailands",
        "name:bcl": "Tailandya",
        "name:be": "Тайланд",
        "name:be-tarask": "Тайлянд",
        "name:bg": "Тайланд",
        "name:bn": "থাইল্যান্ড",
        "name:bo": "ཐའི་ལེན།",
        "name:bpy": "টাইলান্ডিয়া",
        "name:br": "Thailand",
        "name:bs": "Tajland",
        "name:bug": "Thailand",
        "name:bxr": "Таиланд",
        "name:ca": "Tailàndia",
        "name:ce": "Таиланд",
        "name:ceb": "Tailandya",
        "name:chr": "ᏔᏱᎦᏙᎯ",
        "name:ckb": "تایلەند",
        "name:crh": "Tayland",
        "name:cs": "Thajsko",
        "name:csb": "Tajlandiô",
        "name:cv": "Таиланд",
        "name:cy": "Gwlad Thai",
        "name:da": "Thailand",
        "name:de": "Thailand",
        "name:diq": "Taylanda",
        "name:dsb": "Thailandska",
        "name:dv": "ސިޔާމު",
        "name:dz": "ཐཱའི་ལེནཌ",
        "name:el": "Ταϊλάνδη",
        "name:en": "Thailand",
        "name:eo": "Tajlando",
        "name:es": "Tailandia",
        "name:et": "Tai",
        "name:eu": "Thailandia",
        "name:ext": "Tailándia",
        "name:fa": "تایلند",
        "name:fi": "Thaimaa",
        "name:fiu-vro": "Tai",
        "name:fo": "Teiland",
        "name:fr": "Thaïlande",
        "name:frp": "Tayilande",
        "name:fur": "Tailandie",
        "name:fy": "Tailân",
        "name:ga": "An Téalainn",
        "name:gag": "Tailand",
        "name:gan": "泰國",
        "name:gd": "Dùthaich nan Tàidh",
        "name:gl": "Tailandia",
        "name:gn": "Tailandia",
        "name:gu": "થાઇલેન્ડ",
        "name:gv": "Yn Çheer Thai",
        "name:hak": "Thai-koet",
        "name:haw": "Tailani",
        "name:he": "תאילנד",
        "name:hi": "थाईलैण्ड",
        "name:hif": "Thailand",
        "name:hr": "Tajland",
        "name:hsb": "Thailandska",
        "name:ht": "Tayilann",
        "name:hu": "Thaiföld",
        "name:hy": "Թաիլանդ",
        "name:ia": "Thailanda",
        "name:id": "Thailand",
        "name:ie": "Thailand",
        "name:ilo": "Tailandia",
        "name:io": "Tailando",
        "name:is": "Taíland",
        "name:it": "Thailandia",
        "name:ja": "タイ王国",
        "name:jbo": "tais",
        "name:jv": "Thailand",
        "name:ka": "ტაილანდი",
        "name:kbd": "Тайлэнд",
        "name:ki": "Thailand",
        "name:kk": "Тайланд",
        "name:kl": "Thailandi",
        "name:km": "ថៃ",
        "name:kn": "ಥೈಲ್ಯಾಂಡ್",
        "name:ko": "타이",
        "name:ku": "Taylenda",
        "name:kv": "Таиланд",
        "name:kw": "Pow Tay",
        "name:la": "Thailandia",
        "name:lb": "Thailand",
        "name:lez": "Таиланд",
        "name:li": "Thailand",
        "name:lij": "Thailandia",
        "name:lmo": "Thailandia",
        "name:lo": "ປະເທດໄທ",
        "name:lt": "Tailandas",
        "name:lv": "Taizeme",
        "name:map-bms": "Thailand",
        "name:mg": "Tailandy",
        "name:mhr": "Таиланд",
        "name:mi": "Tairana",
        "name:min": "Thailand",
        "name:mk": "Тајланд",
        "name:ml": "തായ്‌ലാന്റ്",
        "name:mn": "Тайланд",
        "name:mr": "थायलंड",
        "name:ms": "Thailand",
        "name:my": "ထိုင်းနိုင်ငံ",
        "name:na": "Thailand",
        "name:nah": "Taitlālpan",
        "name:nds": "Thailand",
        "name:nds-nl": "Thailaand",
        "name:ne": "थाइल्याण्ड",
        "name:new": "थाइल्याण्ड",
        "name:nl": "Thailand",
        "name:nn": "Thailand",
        "name:no": "Thailand",
        "name:nov": "Tailande",
        "name:nv": "Tʼáí Bikéyah",
        "name:oc": "Tailàndia",
        "name:or": "ଥାଇଲାଣ୍ଡ",
        "name:os": "Таиланд",
        "name:pa": "ਥਾਈਲੈਂਡ",
        "name:pam": "Tailandya",
        "name:pap": "Thailand",
        "name:pih": "Tailan",
        "name:pl": "Tajlandia",
        "name:pms": "Thailandia",
        "name:pnb": "تھائی لینڈ",
        "name:ps": "تايلنډ",
        "name:pt": "Tailândia",
        "name:qu": "Thaysuyu",
        "name:ro": "Thailanda",
        "name:roa-tara": "Thailandie",
        "name:ru": "Таиланд",
        "name:rue": "Таїланд",
        "name:rw": "Tayilande",
        "name:sa": "श्यामदेश",
        "name:sah": "Тайлаан",
        "name:scn": "Thailandia",
        "name:sco": "Thailand",
        "name:se": "Thaieana",
        "name:sg": "Tailânde",
        "name:sh": "Tajland",
        "name:sk": "Thajsko",
        "name:sl": "Tajska",
        "name:so": "Tayland",
        "name:sq": "Tajlanda",
        "name:sr": "Тајланд",
        "name:srn": "Taikondre",
        "name:ss": "IThayilandi",
        "name:stq": "Thailound",
        "name:su": "Thailand",
        "name:sv": "Thailand",
        "name:sw": "Uthai",
        "name:szl": "Tajlandyjo",
        "name:ta": "தாய்லாந்து",
        "name:te": "థాయిలాండ్",
        "name:tg": "Таиланд",
        "name:th": "ประเทศไทย",
        "name:tk": "Tailand",
        "name:tl": "Taylandiya",
        "name:tpi": "Tailan",
        "name:tr": "Tayland",
        "name:tt": "Таиланд",
        "name:tw": "Thailand",
        "name:tzl": "Taiphäts",
        "name:udm": "Таиланд",
        "name:ug": "تايلاند",
        "name:uk": "Таїланд",
        "name:ur": "تھائی لینڈ",
        "name:uz": "Tailand",
        "name:vec": "Thailandia",
        "name:vi": "Thái Lan",
        "name:vo": "Tayän",
        "name:war": "Taylandya",
        "name:wo": "Taaylaand",
        "name:wuu": "泰国",
        "name:xal": "Тагилмудин Нутг",
        "name:yi": "טיילאנד",
        "name:yo": "Tháílàndì",
        "name:za": "Daigoz",
        "name:zea": "Thailand",
        "name:zh": "泰国",
        "name:zh-classical": "泰國",
        "name:zh-min-nan": "Thài-kok",
        "name:zh-yue": "泰國",
        "official_name": "ราชอาณาจักรไทย",
        "official_name:cs": "Thajské království",
        "official_name:en": "Kingdom of Thailand",
        "official_name:eo": "Tajlanda Reĝlando",
        "official_name:pl": "Królestwo Tajlandii",
        "timezone": "Asia/Bangkok",
        "type": "boundary",
        "wikidata": "Q869",
        "wikipedia": "en:Thailand",
        "@geometry": "center"
      },
      "geometry": {
        "type": "Point",
        "coordinates": [
          101.4903096,
          13.0388424
        ]
      },
      "id": "relation/2067731"
    },
    {
      "type": "Feature",
      "properties": {
        "@id": "relation/2177266",
        "ISO3166-1": "TV",
        "ISO3166-1:alpha2": "TV",
        "ISO3166-1:alpha3": "TUV",
        "ISO3166-1:numeric": "798",
        "admin_level": "2",
        "boundary": "administrative",
        "country_code_fips": "TV",
        "country_code_iso3166_1_alpha_2": "TV",
        "flag": "http://upload.wikimedia.org/wikipedia/commons/3/38/Flag_of_Tuvalu.svg",
        "int_name": "Tuvalu",
        "is_in:continent": "Oceania",
        "name": "Tuvalu",
        "name:am": "ቱቫሉ",
        "name:ar": "توفالو",
        "name:be": "Тувалу",
        "name:bg": "Тувалу",
        "name:bn": "টুভালু",
        "name:bo": "ཐུ་ཝ་ལུ།",
        "name:br": "Tuvalu",
        "name:ca": "Tuvalu",
        "name:cs": "Tuvalu",
        "name:cy": "Twfalw",
        "name:da": "Tuvalu",
        "name:de": "Tuvalu",
        "name:dz": "ཏུ་ཝ་ལུ",
        "name:ee": "Tuvalu nutome",
        "name:el": "Τουβαλού",
        "name:en": "Tuvalu",
        "name:eo": "Tuvalo",
        "name:es": "Tuvalu",
        "name:fa": "تووالو",
        "name:ff": "Tuwaluu",
        "name:fi": "Tuvalu",
        "name:fr": "Tuvalu",
        "name:fy": "Tûvalû",
        "name:ga": "Tuvalu",
        "name:gd": "Tubhalu",
        "name:gu": "તુવાલુ",
        "name:gv": "Tuvalu",
        "name:ha": "Tubalu",
        "name:he": "טובלו",
        "name:hi": "तुवालु",
        "name:hr": "Tuvalu",
        "name:hu": "Tuvalu",
        "name:hy": "Տուվալու",
        "name:is": "Túvalú",
        "name:ja": "ツバル",
        "name:jbo": "tuvalus",
        "name:ka": "ტუვალუ",
        "name:kab": "Ṭuvalu",
        "name:km": "ទូវ៉ាលូ",
        "name:kn": "ಟುವಾಲು",
        "name:ko": "투발루",
        "name:ks": "توٗوالوٗ",
        "name:ku": "Tûvalû",
        "name:lo": "ຕູວາລູ",
        "name:lt": "Tuvalu",
        "name:lv": "Tuvalu",
        "name:mg": "Tovalò",
        "name:mk": "Тувалу",
        "name:ml": "തുവാലു",
        "name:mn": "Тувалу",
        "name:mr": "टुवालु",
        "name:ne": "तुभालु",
        "name:no": "Tuvalu",
        "name:or": "ଟୁଭାଲୁ",
        "name:pl": "Tuvalu",
        "name:pt": "Tuvalu",
        "name:ru": "Тувалу",
        "name:sg": "Tüvalü",
        "name:si": "ටුවාලූ",
        "name:sk": "Tuvalu",
        "name:sr": "Тувалу",
        "name:sv": "Tuvalu",
        "name:ta": "துவாலூ",
        "name:te": "టువాలు",
        "name:th": "ประเทศตูวาลู",
        "name:ti": "ቱቫሉ",
        "name:to": "Tūvalu",
        "name:tzl": "Tuvalù",
        "name:uk": "Тувалу",
        "name:ur": "ٹووالو",
        "name:vo": "Tuvaluäns",
        "name:yo": "Orílẹ́ède Tufalu",
        "name:zh": "吐瓦鲁",
        "name:zu": "i-Tuvalu",
        "old_name": "Ellice Islands",
        "population": "10000",
        "timezone": "Pacific/Funafuti",
        "type": "boundary",
        "url": "http://www.timelesstuvalu.com/",
        "wikidata": "Q672",
        "wikipedia": "de:Tuvalu",
        "@geometry": "center"
      },
      "geometry": {
        "type": "Point",
        "coordinates": [
          0,
          -8.21545
        ]
      },
      "id": "relation/2177266"
    },
    {
      "type": "Feature",
      "properties": {
        "@id": "relation/2186600",
        "ISO3166-1": "TK",
        "ISO3166-1:alpha2": "TK",
        "ISO3166-1:alpha3": "TKL",
        "ISO3166-1:numeric": "772",
        "admin_level": "2",
        "boundary": "administrative",
        "country_code_fips": "TL",
        "country_code_iso3166_1_alpha_2": "TK",
        "flag": "http://upload.wikimedia.org/wikipedia/commons/8/8e/Flag_of_Tokelau.svg",
        "int_name": "Tokelau",
        "is_in:continent": "Oceania",
        "is_in:ocean": "Pacific",
        "maratine": "yes",
        "name": "Tokelau",
        "name:am": "ቶክላው",
        "name:ar": "توكلو",
        "name:ast": "Tokeláu",
        "name:be": "Такелаў",
        "name:bg": "Токелау",
        "name:bm": "Tokelo",
        "name:bn": "টোকেলাউ",
        "name:br": "Tokelau",
        "name:ca": "Tokelau",
        "name:cs": "Tokelau",
        "name:da": "Tokelau",
        "name:de": "Tokelau",
        "name:dz": "ཏོ་ཀེ་ལའུ་ མཚོ་གླིང",
        "name:ee": "Tokelau nutome",
        "name:el": "Τοκελάου",
        "name:en": "Tokelau",
        "name:eo": "Tokelao",
        "name:es": "Tokelau",
        "name:fa": "توکلائو",
        "name:ff": "Tokelaaw",
        "name:fi": "Tokelau",
        "name:fr": "Tokelau",
        "name:fy": "Tokelaû",
        "name:ga": "Oileáin Tócalá",
        "name:gu": "ટોકેલાઉ",
        "name:ha": "Takelau",
        "name:he": "טוקלאו",
        "name:hi": "तोकेलाउ",
        "name:hr": "Tokelau",
        "name:hu": "Tokelau-szigetek",
        "name:is": "Tókelá",
        "name:ja": "トケラウ",
        "name:kab": "Ṭuklu",
        "name:km": "តូខេឡៅ",
        "name:kn": "ಟೊಕೆಲಾವ್",
        "name:ko": "토켈라우",
        "name:ks": "توکیلاو",
        "name:ku": "Tokelau",
        "name:lg": "Tokelawu",
        "name:lo": "ໂຕເກເລົາ",
        "name:lt": "Tokelau",
        "name:lv": "Tokelau",
        "name:mg": "Tokelao",
        "name:mk": "Токелау",
        "name:ml": "ടൊകെലാവു",
        "name:mn": "Токелау",
        "name:mr": "तोकेलाउ",
        "name:mt": "Tokelaw",
        "name:ne": "तोगो",
        "name:no": "Tokelau",
        "name:or": "ଟୋକେଲାଉ",
        "name:pl": "Tokelau",
        "name:pt": "Toquelau",
        "name:rn": "Tokelawu",
        "name:ru": "Токелау",
        "name:si": "ටොකලාවු",
        "name:sk": "Tokelau",
        "name:sr": "Токелау",
        "name:sv": "Tokelauöarna",
        "name:ta": "டோகேலோ",
        "name:te": "టోకేలావ్",
        "name:th": "โตเกเลา",
        "name:ti": "ቶክላው",
        "name:uk": "Токелау",
        "name:ur": "ٹوکیلاؤ",
        "name:vi": "Tokelau",
        "name:yo": "Orílẹ́ède Tokelau",
        "name:zh": "托克劳",
        "name:zu": "i-Tokelau",
        "population": "1411",
        "timezone": "Pacific/Fakaofo",
        "type": "boundary",
        "wikidata": "Q36823",
        "wikipedia": "en:Tokelau",
        "@geometry": "center"
      },
      "geometry": {
        "type": "Point",
        "coordinates": [
          -171.8505629,
          -8.9885565
        ]
      },
      "id": "relation/2186600"
    },
    {
      "type": "Feature",
      "properties": {
        "@id": "relation/2186658",
        "ISO3166-1": "TF",
        "ISO3166-1:alpha2": "TF",
        "ISO3166-1:alpha3": "ATF",
        "ISO3166-1:numeric": "260",
        "ISO3166-2": "FR-TF",
        "admin_level": "3",
        "border_type": "territorial",
        "boundary": "administrative",
        "currency": "EUR",
        "description": "France, collectivités d'outre-mer, territoires régis par l’article 74 de la Constitution",
        "flag": "http://upload.wikimedia.org/wikipedia/commons/c/c3/Flag_of_France.svg",
        "is_in:continent": "Africa;Antarctica",
        "is_in:country": "France",
        "is_in:country_code": "FR",
        "is_in:ocean": "Indian",
        "name": "Terres australes et antarctiques françaises",
        "name:af": "Franse Suidelike en Antarktiese Gebiede",
        "name:am": "የፈረንሳይ ደቡባዊ ግዛቶች",
        "name:an": "Territorios Australs Franzeses",
        "name:ar": "الأراضي الجنوبية الفرنسية",
        "name:ast": "Tierres Australes Franceses",
        "name:az": "Fransız Cənub teritoriyası",
        "name:be": "Французскія Паўднёвыя тэрыторыі",
        "name:be-tarask": "Францускія Паўднёвыя Тэрыторыі",
        "name:bg": "Френски южни и антарктически територии",
        "name:bn": "ফরাসী দক্ষিণাঞ্চল",
        "name:br": "Douaroù Aostral hag Antarktikel Frañs",
        "name:bs": "Francuske Južne Teritorije",
        "name:ca": "Terres Australs i Antàrtiques Franceses",
        "name:cs": "Francouzská jižní a antarktická území",
        "name:cy": "Tiriogaethau Ffrengig y De",
        "name:da": "Franske sydlige og Antarktiske territorier",
        "name:de": "Französische Süd- und Antarktisgebiete",
        "name:dz": "ཕྲནཅ་གི་ལྷོ་ཕྱོགས་མངའ་ཁོངས",
        "name:ee": "Anyiehe Franseme nutome",
        "name:el": "Γαλλικά νότια και ανταρκτικά εδάφη",
        "name:en": "French Southern and Antarctic Lands",
        "name:eo": "Francaj Sudaj Teritorioj",
        "name:es": "Tierras Australes y Antárticas Francesas",
        "name:et": "Prantsuse Lõunaalad",
        "name:eu": "Frantziaren lurralde austral eta antartikoak",
        "name:fa": "مستعمره‌های جنوبی فرانسه",
        "name:fi": "Ranskan eteläiset ja antarktiset alueet",
        "name:fr": "Terres australes et antarctiques françaises",
        "name:fur": "Teritoris meridionâi francês",
        "name:fy": "Frânske Súdlike en Antarktyske Lannen",
        "name:ga": "Críocha Deisceartacha na Fraince",
        "name:gd": "Ranntairean a Deas na Frainge",
        "name:gl": "Terras Austrais e Antárticas Francesas",
        "name:gu": "ફ્રેંચ સદર્ન ટેરિટરીઝ",
        "name:he": "טריטוריות דרומיות של צרפת",
        "name:hi": "फ़्रांसीसी दक्षिणी क्षेत्र",
        "name:hr": "Francuski Južni i Antarktički Teritoriji",
        "name:hu": "Francia déli és antarktiszi területek",
        "name:ia": "Territorios meridional francese",
        "name:id": "Daratan Selatan dan Antarktika Perancis",
        "name:is": "Frönsku suðlægu landsvæðin",
        "name:it": "Terre Australi e Antartiche Francesi",
        "name:ja": "フランス領南方・南極地域",
        "name:ka": "ფრანგული სამხრეთის ტერიტორიები",
        "name:km": "ដែន​​ហ្វ្រេន​ខាង​ត្បូង",
        "name:kn": "ಫ್ರೆಂಚ್ ದಕ್ಷಿಣ ಪ್ರದೇಶಗಳು",
        "name:ko": "프랑스령 남부와 남극 지역",
        "name:ks": "فرٛانسِسی جَنوٗبی عَلاقہٕ",
        "name:ksh": "Franzüüsesche Södsee-Enselle",
        "name:ku": "Xakên Başûr û Antarktîk ên Fransayê",
        "name:kw": "Tiryow Deghow hag Antarktik Frynkek",
        "name:lij": "Tæritöi Françèisi Meridionâ e dell'Antartigo",
        "name:lo": "ອານາເຂດທາງໃຕ້ຂອງຝລັ່ງເສດ",
        "name:lt": "Prancūzijos Pietų Sritys",
        "name:lv": "Francijas Dienvidjūru un Antarktikas Zemes",
        "name:mk": "Француски Јужни територии",
        "name:ml": "ഫ്രഞ്ച് ദക്ഷിണ ഭൂപ്രദേശം",
        "name:mn": "Францын өмнөд газар нутаг",
        "name:mr": "फ्रेंच दाक्षिणात्य प्रदेश",
        "name:ms": "French Southern Territories",
        "name:mt": "Territorji Franċiżi ta’ Nofsinhar",
        "name:my": "ပြင်သစ် တောင်ပိုင်း ပိုင်နက်များ",
        "name:ne": "फ्रान्सेली दक्षिणी क्षेत्र",
        "name:nl": "Franse Zuidelijke en Antarctische Gebieden",
        "name:nn": "Franske sørområde",
        "name:no": "De franske sørterritorier",
        "name:oc": "Tèrras Australas e Antarticas Francesas",
        "name:or": "ଫରାସୀ ଦକ୍ଷିଣ କ୍ଷେତ୍ର",
        "name:pl": "Francuskie Terytoria Południowe i Antarktyczne",
        "name:pt": "Terras Austrais e Antárticas Francesas",
        "name:rm": "Territoris Franzos Meridiunals",
        "name:ro": "Teritoriile australe şi antarctice franceze",
        "name:ru": "Французские Южные и Антарктические территории",
        "name:sh": "Francuske Južne Teritorije",
        "name:si": "දකුණු ප්‍රංශ දූපත් සමූහය",
        "name:sk": "Francúzske južné a antarktické územia",
        "name:sl": "Francoske južne in antarktične dežele",
        "name:sr": "Француске јужне и антарктичке земље",
        "name:sv": "Franska sydterritorierna",
        "name:sw": "Maeneo ya Kusini ya Ufaransa",
        "name:ta": "பிரெஞ்சு தென்னக நிலங்களும் அண்டாடிக் நிலமும்",
        "name:te": "ఫ్రెంచ్ దక్షిణ ప్రాంతాలు",
        "name:th": "เฟรนช์เซาเทิร์นเทร์ริทอรีส์",
        "name:ti": "የፈረንሳይ ደቡባዊ ግዛቶች",
        "name:to": "Potu fonua tonga fakafalanisē",
        "name:tr": "Fransız Güney ve Antarktika Toprakları",
        "name:uk": "Французькі Південні території",
        "name:ur": "فرانسیسی جنوبی خطے",
        "name:vi": "Vùng đất phía Nam và châu Nam Cực thuộc Pháp",
        "name:zh": "法属南部领地",
        "name:zu": "e-French Southern Territories",
        "official_name:cs": "Teritorium Francouzská jižní a antarktická území",
        "ref:INSEE": "984",
        "type": "boundary",
        "wikidata": "Q129003",
        "wikipedia": "fr:Terres australes et antarctiques françaises",
        "@geometry": "center"
      },
      "geometry": {
        "type": "Point",
        "coordinates": [
          58.6316825,
          -30.7663548
        ]
      },
      "id": "relation/2186658"
    },
    {
      "type": "Feature",
      "properties": {
        "@id": "relation/2186665",
        "ISO3166-1": "TO",
        "ISO3166-1:alpha2": "TO",
        "ISO3166-1:alpha3": "TON",
        "ISO3166-1:numeric": "776",
        "admin_level": "2",
        "boundary": "administrative",
        "flag": "http://upload.wikimedia.org/wikipedia/commons/9/9a/Flag_of_Tonga.svg",
        "is_in:continent": "Oceania",
        "maratine": "yes",
        "name": "Tonga",
        "name:ace": "Tonga",
        "name:af": "Tonga",
        "name:als": "Tonga",
        "name:am": "ቶንጋ",
        "name:an": "Tonga",
        "name:ar": "تونجا",
        "name:arz": "تونجا",
        "name:ast": "Tonga",
        "name:az": "Tonqa",
        "name:ba": "Тонга",
        "name:bat-smg": "Tuonga",
        "name:bcl": "Tonga",
        "name:be": "Тонга",
        "name:be-tarask": "Тонга",
        "name:bg": "Тонга",
        "name:bjn": "Tonga",
        "name:bn": "টোঙ্গা",
        "name:bo": "ཊོང་ག",
        "name:bpy": "টঙ্গা",
        "name:br": "Tonga",
        "name:bs": "Tonga",
        "name:bxr": "Тонга",
        "name:ca": "Tonga",
        "name:ce": "Тонга",
        "name:ceb": "Tonga",
        "name:chy": "Tonga",
        "name:ckb": "تۆنگا",
        "name:crh": "Tonga",
        "name:cs": "Tonga",
        "name:cu": "Тонга",
        "name:cy": "Tonga",
        "name:da": "Tonga",
        "name:de": "Tonga",
        "name:diq": "Tonga",
        "name:dv": "ޓޮންގާ",
        "name:el": "Τόνγκα",
        "name:en": "Tonga",
        "name:eo": "Tongo",
        "name:es": "Tonga",
        "name:et": "Tonga",
        "name:eu": "Tonga",
        "name:ext": "Tonga",
        "name:fa": "تونگا",
        "name:fi": "Tonga",
        "name:fiu-vro": "Tonga",
        "name:fo": "Tonga",
        "name:fr": "Tonga",
        "name:frp": "Tonga",
        "name:fy": "Tonga",
        "name:ga": "Tonga",
        "name:gd": "Tonga",
        "name:gl": "Tonga",
        "name:gv": "Yn Tongey",
        "name:hak": "Tûng-kâ",
        "name:he": "טונגה",
        "name:hi": "टोंगा",
        "name:hif": "Tonga",
        "name:hr": "Tonga",
        "name:ht": "Tonga",
        "name:hu": "Tonga",
        "name:hy": "Տոնգա",
        "name:ia": "Tonga",
        "name:id": "Tonga",
        "name:ilo": "Tonga",
        "name:io": "Tonga",
        "name:is": "Tonga",
        "name:it": "Tonga",
        "name:ja": "トンガ",
        "name:jv": "Tonga",
        "name:ka": "ტონგა",
        "name:kk": "Тонга",
        "name:kn": "ಟೋಂಗಾ",
        "name:ko": "통가",
        "name:ku": "Tonga",
        "name:kw": "Tonga",
        "name:la": "Tonga",
        "name:lb": "Tonga",
        "name:li": "Tonga",
        "name:lij": "Tonga",
        "name:lmo": "Tonga",
        "name:lt": "Tonga",
        "name:lv": "Tonga",
        "name:mk": "Тонга",
        "name:ml": "ടോങ്ക",
        "name:mn": "Тонга",
        "name:mr": "टोंगा",
        "name:mrj": "Тонга",
        "name:ms": "Tonga",
        "name:mt": "Tonga",
        "name:my": "တုံဂါနိုင်ငံ",
        "name:nah": "Tonga",
        "name:nds": "Tonga",
        "name:nl": "Tonga",
        "name:nn": "Tonga",
        "name:no": "Tonga",
        "name:nv": "Tʼónga",
        "name:oc": "Tònga",
        "name:or": "ଟୋଙ୍ଗା",
        "name:os": "Тонгæ",
        "name:pa": "ਟੋਂਗਾ",
        "name:pam": "Tonga",
        "name:pih": "Tonga",
        "name:pl": "Tonga",
        "name:pms": "Tònga",
        "name:pnb": "ٹونگا",
        "name:pt": "Tonga",
        "name:qu": "Tunqa",
        "name:rm": "Tonga",
        "name:ro": "Tonga",
        "name:ru": "Тонга",
        "name:rw": "Tonga",
        "name:sa": "टोंगा",
        "name:sah": "Тонга",
        "name:scn": "Tonga",
        "name:sco": "Tonga",
        "name:se": "Tonga",
        "name:sh": "Tonga",
        "name:simple": "Tonga",
        "name:sk": "Tonga",
        "name:sl": "Tonga",
        "name:sm": "Toga",
        "name:sq": "Tonga",
        "name:sr": "Тонга",
        "name:su": "Tonga",
        "name:sv": "Tonga",
        "name:sw": "Tonga",
        "name:szl": "Tůnga",
        "name:ta": "தொங்கா",
        "name:tg": "Тонга",
        "name:th": "ประเทศตองกา",
        "name:tl": "Tonga",
        "name:to": "Tonga",
        "name:tpi": "Tonga",
        "name:tr": "Tonga",
        "name:ts": "Tonga",
        "name:tw": "Tonga",
        "name:ty": "To’a",
        "name:tzl": "Tonga",
        "name:ug": "Ton’ga",
        "name:uk": "Тонга",
        "name:ur": "ٹونگا",
        "name:uz": "Tonga",
        "name:vi": "Tonga",
        "name:vo": "Tonguäns",
        "name:war": "Tonga",
        "name:wo": "Tonga",
        "name:xal": "Тонһлмудин Нутг",
        "name:yo": "Tóngà",
        "name:zh": "東加",
        "name:zh-min-nan": "Tonga",
        "name:zh-yue": "湯加",
        "note": "hideous polygon covering the tonga islands",
        "official_name:cs": "Království Tonga",
        "timezone": "Pacific/Tongatapu",
        "type": "boundary",
        "wikidata": "Q678",
        "wikipedia": "en:Tonga",
        "@geometry": "center"
      },
      "geometry": {
        "type": "Point",
        "coordinates": [
          -176.4580757,
          -19.7345111
        ]
      },
      "id": "relation/2186665"
    },
    {
      "type": "Feature",
      "properties": {
        "@id": "relation/2361304",
        "ISO3166-1": "TD",
        "ISO3166-1:alpha2": "TD",
        "ISO3166-1:alpha3": "TCD",
        "ISO3166-1:numeric": "148",
        "admin_level": "2",
        "boundary": "administrative",
        "currency": "XAF",
        "flag": "http://upload.wikimedia.org/wikipedia/commons/4/4b/Flag_of_Chad.svg",
        "is_in:continent": "Africa",
        "long_name:ar": "جمهوريّة تشاد",
        "name": "Tchad تشاد",
        "name:ace": "Chad",
        "name:af": "Tsjad",
        "name:als": "Tschad",
        "name:am": "ቻድ",
        "name:an": "Chad",
        "name:ang": "Cead",
        "name:ar": "تشاد",
        "name:arc": "ܬܫܐܕ",
        "name:arz": "تشاد",
        "name:ast": "Chad",
        "name:az": "Çad",
        "name:ba": "Чад",
        "name:bat-smg": "Čads",
        "name:bcl": "Tsad",
        "name:be": "Чад",
        "name:be-tarask": "Чад",
        "name:ber": "ⵜⵛⴰⴷ",
        "name:bg": "Чад",
        "name:bjn": "Chad",
        "name:bm": "Cad",
        "name:bn": "চাদ",
        "name:bo": "ཆཱ་ཌ།",
        "name:bpy": "চাদ",
        "name:br": "Tchad",
        "name:bs": "Čad",
        "name:bxr": "Чад",
        "name:ca": "Txad",
        "name:ce": "Чад",
        "name:ceb": "Chad",
        "name:ckb": "چاد",
        "name:crh": "Çad",
        "name:cs": "Čad",
        "name:cv": "Чад",
        "name:cy": "Tchad",
        "name:da": "Tchad",
        "name:de": "Tschad",
        "name:diq": "Çad",
        "name:dsb": "Čad",
        "name:dv": "ޝާދު",
        "name:ee": "Chad",
        "name:el": "Τσαντ",
        "name:en": "Chad",
        "name:eo": "Ĉado",
        "name:es": "Chad",
        "name:et": "Tšaad",
        "name:eu": "Txad",
        "name:ext": "Chad",
        "name:fa": "چاد",
        "name:fi": "Tšad",
        "name:fiu-vro": "Tšaad",
        "name:fo": "Kjad",
        "name:fr": "Tchad",
        "name:frp": "Tch·ad",
        "name:fy": "Tsjaad",
        "name:ga": "Sead",
        "name:gag": "Çad",
        "name:gd": "An t-Siad",
        "name:gl": "Chad - Tchad",
        "name:gu": "ચૅડ",
        "name:gv": "Shad",
        "name:ha": "Cadi",
        "name:he": "צ'אד",
        "name:hi": "चाड",
        "name:hif": "Chad",
        "name:hr": "Čad",
        "name:hsb": "Čad",
        "name:ht": "Tchad",
        "name:hu": "Csád",
        "name:hy": "Չադ",
        "name:ia": "Tchad",
        "name:id": "Chad",
        "name:ie": "Chad",
        "name:ig": "Chad",
        "name:ilo": "Chad",
        "name:io": "Chad",
        "name:is": "Tsjad",
        "name:it": "Ciad",
        "name:ja": "チャド",
        "name:jbo": "tcad",
        "name:jv": "Chad",
        "name:ka": "ჩადი",
        "name:kaa": "Chad",
        "name:kab": "Ččad",
        "name:kg": "Tasadi",
        "name:kk": "Чад",
        "name:ko": "차드",
        "name:ku": "Çad",
        "name:kw": "Chad",
        "name:la": "Tzadia",
        "name:lb": "Tschad",
        "name:li": "Tsjaad",
        "name:lij": "Ciad",
        "name:lmo": "Ciad",
        "name:ln": "Tshadi",
        "name:lt": "Čadas",
        "name:lv": "Čada",
        "name:min": "Chad",
        "name:mk": "Чад",
        "name:ml": "ഛാഡ്",
        "name:mr": "चाड",
        "name:mrj": "Чад",
        "name:ms": "Chad",
        "name:mt": "Ċad",
        "name:my": "ချဒ်သမ္မတနိုင်ငံ",
        "name:mzn": "چاد",
        "name:na": "Tsiad",
        "name:nah": "Chad",
        "name:nds": "Tschad",
        "name:nl": "Tsjaad",
        "name:nn": "Tsjad",
        "name:no": "Tsjad",
        "name:nov": "Chad",
        "name:nso": "Chad",
        "name:oc": "Chad",
        "name:or": "ଚାଡ",
        "name:os": "Чад",
        "name:pa": "ਚਾਡ",
        "name:pag": "Jhad",
        "name:pam": "Chad",
        "name:pih": "Chad",
        "name:pl": "Czad",
        "name:pms": "Ciad",
        "name:pnb": "چڈ",
        "name:ps": "چاډ",
        "name:pt": "Chade",
        "name:qu": "Chad",
        "name:rm": "Tschad",
        "name:ro": "Ciad",
        "name:ru": "Чад",
        "name:rue": "Чад",
        "name:rw": "Cade",
        "name:sa": "चाड",
        "name:sah": "Чад",
        "name:sc": "Chad",
        "name:scn": "Ciad",
        "name:sco": "Chad",
        "name:se": "Chad",
        "name:sg": "Sâde",
        "name:sh": "Čad",
        "name:si": "චෑඩ්",
        "name:simple": "Chad",
        "name:sk": "Čad",
        "name:sl": "Čad",
        "name:sn": "Chad",
        "name:so": "Jad",
        "name:sq": "Çadi",
        "name:sr": "Чад",
        "name:ss": "IShedi",
        "name:stq": "Tschad",
        "name:su": "Chad",
        "name:sv": "Tchad",
        "name:sw": "Chad",
        "name:szl": "Czad",
        "name:ta": "சாட்",
        "name:te": "చాద్",
        "name:tet": "Xade",
        "name:tg": "Чад",
        "name:th": "ประเทศชาด",
        "name:ti": "ቻድ",
        "name:tk": "Çad",
        "name:tl": "Tsad",
        "name:tr": "Çad",
        "name:ts": "Chad",
        "name:tt": "Чад",
        "name:tzl": "Tschad",
        "name:ug": "چاد",
        "name:uk": "Чад",
        "name:ur": "چاڈ",
        "name:uz": "Chad",
        "name:vec": "Ciad",
        "name:vi": "Tchad",
        "name:vo": "Tjadän",
        "name:wa": "Tchad",
        "name:war": "Chad",
        "name:wo": "Cadd",
        "name:xal": "Чадигин Орн",
        "name:yi": "טשאד",
        "name:yo": "Tsad",
        "name:zgh": "ⵜⵛⴰⴷ",
        "name:zh": "乍得",
        "name:zh-min-nan": "Tchad",
        "name:zh-yue": "乍得",
        "name:zu": "ITshedi",
        "official_name:cs": "Čadská republika",
        "timezone": "Africa/Ndjamena",
        "type": "boundary",
        "wikidata": "Q657",
        "wikipedia": "ar:تشاد",
        "@geometry": "center"
      },
      "geometry": {
        "type": "Point",
        "coordinates": [
          18.73674,
          15.469285
        ]
      },
      "id": "relation/2361304"
    }
  ]
}