{
  "type": "FeatureCollection",
  "generator": "overpass-ide",
  "copyright": "The data included in this document is from www.openstreetmap.org. The data is made available under ODbL.",
  "timestamp": "2017-12-10T20:40:02Z",
  "features": [
    {
      "type": "Feature",
      "properties": {
        "@id": "relation/53293",
        "ISO3166-1": "MK",
        "ISO3166-1:alpha2": "MK",
        "ISO3166-1:alpha3": "MKD",
        "ISO3166-1:numeric": "807",
        "admin_level": "2",
        "alt_name:cs": "Bývalá jugoslávská republika Makedonie",
        "alt_name:eo": "Makedonio",
        "boundary": "administrative",
        "flag": "http://upload.wikimedia.org/wikipedia/commons/f/f8/Flag_of_Macedonia.svg",
        "int_name": "Macedonia",
        "is_in:continent": "Europe",
        "name": "Macedonia, Republic of",
        "name:UN:ar": "جمهورية مقدونيا اليوغوسلافية السابقة",
        "name:UN:en": "The former Yugoslav Republic of Macedonia",
        "name:UN:es": "la ex República Yugoslava de Macedonia",
        "name:UN:fr": "l'ex-République yougoslave de Macédoine",
        "name:UN:ru": "бывшая югославская Республика Македония",
        "name:UN:zh": "前南斯拉夫的马其顿共和国",
        "name:ace": "Makèdonia",
        "name:af": "Masedonië",
        "name:als": "Mazedonie",
        "name:am": "መቄዶኒያ",
        "name:an": "Macedonia",
        "name:ang": "Macedonia",
        "name:ar": "مقدونيا",
        "name:arc": "ܕܡܩܕܘܢܝܐ",
        "name:arz": "جمهورية مقدونيا",
        "name:ast": "Macedonia",
        "name:az": "Makedoniya",
        "name:ba": "Македония Республикаһы",
        "name:bar": "Mazedonien",
        "name:bat-smg": "Makeduonėjė",
        "name:bcl": "Republika kan Masedonya",
        "name:be": "Рэспубліка Македонія",
        "name:be-tarask": "Рэспубліка Македонія",
        "name:bg": "Република Македония",
        "name:bi": "Macedonia",
        "name:bn": "ম্যাসেডোনিয়া প্রজাতন্ত্র",
        "name:bo": "མ་སེ་ཌོ་ནིཡ། (རྒྱལ་ཁབ།)",
        "name:br": "Republik Makedonia",
        "name:bs": "Makedonija",
        "name:ca": "República de Macedònia",
        "name:ce": "Македони",
        "name:ceb": "Republika sa Macedonia",
        "name:chr": "ᎹᏎᏙᏂᏯ",
        "name:ckb": "کۆماری مەقدوونیا",
        "name:crh": "Makedoniya Cumhuriyeti",
        "name:cs": "Makedonie",
        "name:csb": "Macedońskô",
        "name:cu": "Макєдонїꙗ",
        "name:cv": "Македони Республики",
        "name:cy": "Gweriniaeth Macedonia",
        "name:da": "Makedonien",
        "name:de": "Mazedonien",
        "name:diq": "Cumhuriyetê Makedonya",
        "name:dsb": "Makedońska",
        "name:dv": "މެސެޑޯނިއާ",
        "name:ee": "Republic of Macedonia",
        "name:el": "Πρώην Γιουγκοσλαβική Δημοκρατία της Μακεδονίας",
        "name:en": "Macedonia",
        "name:eo": "Makedonujo",
        "name:es": "República de Macedonia",
        "name:et": "Makedoonia",
        "name:eu": "Former Yugoslav Republic Of Macedonia",
        "name:ext": "Repúbrica de Macedónia",
        "name:fa": "جمهوری مقدونیه",
        "name:fi": "Makedonia",
        "name:fiu-vro": "Makõdoonia Vabariik",
        "name:fo": "Lýðveldið Makedónia",
        "name:fr": "Macédoine (pays)",
        "name:frp": "Rèpublica de Macèdonie",
        "name:frr": "Mazedoonien",
        "name:fy": "Masedoanje (lân)",
        "name:ga": "Poblacht na Macadóine",
        "name:gag": "Makedoniya",
        "name:gd": "Masadoinia",
        "name:gl": "República de Macedonia - Република Македонија",
        "name:gn": "Masendoña",
        "name:gu": "મેસેડોનિયા",
        "name:gv": "Pobblaght ny Massadoan",
        "name:hak": "Mâ-khì-tun",
        "name:haw": "Repupalika o Masedonia",
        "name:he": "מקדוניה",
        "name:hi": "मैसिडोनिया",
        "name:hif": "Republic of Macedonia",
        "name:hr": "Makedonija",
        "name:hsb": "Makedonska",
        "name:ht": "Repiblik d Masedoni",
        "name:hu": "Macedónia",
        "name:hy": "Մակեդոնիայի Հանրապետություն",
        "name:ia": "Republica de Macedonia",
        "name:id": "Republik Makedonia",
        "name:ie": "Macedonia",
        "name:ilo": "Macedonia",
        "name:io": "Republiko Macedonia",
        "name:is": "Lýðveldið Makedónía",
        "name:it": "Repubblica di Macedonia",
        "name:ja": "マケドニア共和国",
        "name:jbo": "makedonias",
        "name:jv": "Républik Makedonia",
        "name:ka": "მაკედონია",
        "name:kaa": "Makedoniya",
        "name:kbd": "Македониэ",
        "name:kg": "Makedonia",
        "name:kk": "Македония Республикасы",
        "name:kl": "Makedonia",
        "name:kn": "ಮ್ಯಾಸೆಡೊನಿಯ ಗಣರಾಜ್ಯ",
        "name:ko": "마케도니아 공화국",
        "name:koi": "Республика Македония",
        "name:krc": "Македония",
        "name:ku": "Komara Makedonyayê",
        "name:kv": "Македония Республика",
        "name:kw": "Repoblek Makedoni",
        "name:la": "Respublica Macedonica",
        "name:lad": "Makedonia",
        "name:lb": "Republik Mazedonien",
        "name:li": "Macedonië (land)",
        "name:lij": "Maçedònia",
        "name:lmo": "Macedonia",
        "name:lt": "Makedonija",
        "name:ltg": "Makedonejis Republika",
        "name:lv": "Maķedonija",
        "name:mdf": "Македоние",
        "name:mhr": "Македоний",
        "name:mi": "Makerōnia",
        "name:mk": "Македонија",
        "name:ml": "റിപ്പബ്ലിക് ഓഫ് മാസിഡോണിയ",
        "name:mn": "Бүгд Найрамдах Македон Улс",
        "name:mr": "मॅसिडोनिया",
        "name:ms": "Republik Macedonia",
        "name:mt": "Repubblika tal-Maċedonja",
        "name:my": "မက်စီဒိုးနီးယားနိုင်ငံ",
        "name:na": "Matedoniya",
        "name:nah": "Tlācatlahtohcāyōtl Macedonia",
        "name:nds": "Republiek Makedonien",
        "name:nds-nl": "Massedonië",
        "name:ne": "म्यासेडोनिया",
        "name:nl": "Macedonië (land)",
        "name:nn": "Republikken Makedonia",
        "name:no": "Republikken Makedonia",
        "name:oc": "Republica de Macedònia",
        "name:or": "ମାସିଡୋନିଆ",
        "name:os": "Республикæ Македони",
        "name:pa": "ਮਕਦੂਨੀਆ ਗਣਰਾਜ",
        "name:pam": "Republika ning Makedonia",
        "name:pap": "Macedonia",
        "name:pcd": "Machédoène",
        "name:pih": "Repablik o' Masedoenya",
        "name:pl": "Macedonia",
        "name:pms": "Macedònia",
        "name:ps": "د مقدونيې ولسمشريزه",
        "name:pt": "Macedónia",
        "name:pt-br": "Macedônia",
        "name:qu": "Makidunya",
        "name:rmy": "Makedoniya",
        "name:ro": "Macedonia",
        "name:roa-rup": "Machedonia",
        "name:roa-tara": "Macidonie",
        "name:ru": "Македония",
        "name:rw": "Masedoniya",
        "name:sa": "मेसेडोनिया",
        "name:sah": "Македония",
        "name:sc": "Matzedònia",
        "name:scn": "Macidonia",
        "name:sco": "Macedonie",
        "name:se": "Makedonia",
        "name:sh": "Makedonija",
        "name:sk": "Macedónsko",
        "name:sl": "Makedonija",
        "name:so": "Makedonia",
        "name:sq": "Maqedonia",
        "name:sr": "Македонија",
        "name:sr-Latn": "Makedonija",
        "name:ss": "IMakhedoniya",
        "name:stq": "Makedonien",
        "name:su": "Makédonia",
        "name:sv": "Makedonien",
        "name:sw": "Jamhuri ya Masedonia",
        "name:szl": "Macedůńijo",
        "name:ta": "மாக்கடோனியக் குடியரசு",
        "name:te": "మేసిడోనియా",
        "name:tg": "Ҷумҳурии Мақдуния",
        "name:th": "ประเทศมาซิโดเนีย",
        "name:tk": "Makedoniýa Respublikasy",
        "name:tl": "Republika ng Masedonya",
        "name:tr": "Makedonya Cumhuriyeti",
        "name:tt": "Македония Җөмһүрияте",
        "name:udm": "Македония Республика",
        "name:ug": "ماكېدونىيە",
        "name:uk": "Македонія",
        "name:ur": "مقدونیہ",
        "name:uz": "Makedoniya Respublikasi",
        "name:vec": "Republica de Macedonia",
        "name:vep": "Makedonii",
        "name:vi": "Cộng hòa Macedonia",
        "name:vls": "Macedonië",
        "name:vo": "Makedoniyän",
        "name:war": "Republika han Macedonia",
        "name:wo": "Réewum Maseduwaan",
        "name:wuu": "马其顿",
        "name:xal": "Масидин Орн",
        "name:xmf": "მაკედონია",
        "name:yi": "רעפובליק פון מאקעדאניע",
        "name:yo": "Orílẹ̀-èdè Olómìnira ilẹ̀ Makẹdóníà",
        "name:zea": "Macedonië",
        "name:zh": "馬其頓共和國",
        "name:zh-min-nan": "Makedonija Kiōng-hô-kok",
        "name:zh-yue": "馬其頓共和國",
        "official_name": "Република Македонија",
        "official_name:cs": "Makedonská republika",
        "official_name:el": "Δημοκρατία της Μακεδονίας",
        "official_name:en": "Republic of Macedonia",
        "official_name:eo": "Respubliko Makedonujo",
        "official_name:fr": "République de Macédoine",
        "official_name:uk": "Республіка Македонія",
        "short_name:ca": "Macedònia",
        "short_name:el": "Μακεδονία (χώρα)",
        "timezone": "Europe/Skopje",
        "type": "boundary",
        "wikidata": "Q221",
        "wikipedia": "mk:Македонија",
        "@geometry": "center"
      },
      "geometry": {
        "type": "Point",
        "coordinates": [
          21.7434767,
          41.6135977
        ]
      },
      "id": "relation/53293"
    },
    {
      "type": "Feature",
      "properties": {
        "@id": "relation/58974",
        "ISO3166-1": "MD",
        "ISO3166-1:alpha2": "MD",
        "ISO3166-1:alpha3": "MDA",
        "ISO3166-1:numeric": "498",
        "admin_level": "2",
        "alt_name:eo": "Moldavio",
        "border_type": "nation",
        "boundary": "administrative",
        "flag": "http://upload.wikimedia.org/wikipedia/commons/2/27/Flag_of_Moldova.svg",
        "int_name": "Moldova, Republic of",
        "is_in:continent": "Europe",
        "name": "Moldova, Republic of",
        "name:ab": "Молдова",
        "name:ace": "Moldova",
        "name:af": "Moldowa",
        "name:als": "Moldawien",
        "name:am": "ሞልዶቫ",
        "name:an": "Republica de Moldavia",
        "name:ang": "Moldofa",
        "name:ar": "مولدوفا",
        "name:arc": "ܡܘܠܕܘܒܐ",
        "name:arz": "مولدوڤا",
        "name:ast": "Moldavia",
        "name:az": "Moldova",
        "name:ba": "Молдова",
        "name:bar": "Moidowien",
        "name:bat-smg": "Moldavėjė",
        "name:bcl": "Moldoba",
        "name:be": "Малдова",
        "name:be-tarask": "Малдова",
        "name:bg": "Молдова",
        "name:bi": "Moldova",
        "name:bn": "মলদোভা",
        "name:bo": "མོལ་དོ་ཝ།",
        "name:bpy": "মোলদোভা",
        "name:br": "Moldova",
        "name:bs": "Moldavija",
        "name:bxr": "Молдав",
        "name:ca": "República de Moldàvia",
        "name:cbk-zam": "Moldavia",
        "name:ce": "Молдави",
        "name:ceb": "Moldabya",
        "name:chr": "ᎼᎵᏙᏩ",
        "name:ckb": "مۆلدۆڤا",
        "name:co": "Moldavia",
        "name:cs": "Moldavsko",
        "name:csb": "Mòłdawskô",
        "name:cu": "Молдова",
        "name:cv": "Молдави",
        "name:cy": "Moldofa",
        "name:da": "Moldova",
        "name:de": "Moldawien",
        "name:diq": "Moldova",
        "name:dsb": "Moldawska",
        "name:dv": "މޮލްޑޯވާ",
        "name:ee": "Moldova",
        "name:el": "Μολδαβία",
        "name:en": "Moldova",
        "name:eo": "Moldavujo",
        "name:es": "Moldavia",
        "name:et": "Moldova",
        "name:eu": "Moldavia",
        "name:ext": "Moldávia",
        "name:fa": "مولداوی",
        "name:fi": "Moldova",
        "name:fiu-vro": "Moldova",
        "name:fo": "Moldova",
        "name:fr": "Moldavie",
        "name:frp": "Moldavie",
        "name:frr": "Moldaawien",
        "name:fy": "Moldaavje",
        "name:ga": "An Mholdóiv",
        "name:gag": "Moldova Republikası",
        "name:gd": "Moldàibhia",
        "name:gl": "Moldavia - Moldova",
        "name:gu": "મોલ્દોવા",
        "name:gv": "Moldova",
        "name:haw": "Molodowa",
        "name:he": "מולדובה",
        "name:hi": "मॉल्डोवा",
        "name:hif": "Moldova",
        "name:hr": "Moldova",
        "name:hsb": "Moldawska",
        "name:ht": "Moldavi",
        "name:hu": "Moldova",
        "name:hy": "Մոլդովա",
        "name:ia": "Moldova",
        "name:id": "Moldova",
        "name:ie": "Moldavia",
        "name:ilo": "Moldova",
        "name:io": "Moldova",
        "name:is": "Moldóva",
        "name:it": "Moldavia",
        "name:ja": "モルドバ",
        "name:jbo": "moldovas",
        "name:jv": "Moldova",
        "name:ka": "მოლდოვა",
        "name:kaa": "Moldaviya",
        "name:kbd": "Молдавиэ",
        "name:kg": "Moldova",
        "name:kk": "Молдова",
        "name:kl": "Moldova",
        "name:kn": "ಮಾಲ್ಡೋವ",
        "name:ko": "몰도바",
        "name:koi": "Молдова",
        "name:krc": "Молдавия",
        "name:ku": "Moldova",
        "name:kv": "Молдова",
        "name:kw": "Moldova",
        "name:ky": "Молдова",
        "name:la": "Respublica Moldavica",
        "name:lad": "Moldova",
        "name:lb": "Moldawien",
        "name:li": "Moldavië",
        "name:lij": "Moldavia",
        "name:lmo": "Muldavia",
        "name:lt": "Moldavija",
        "name:ltg": "Moldaveja",
        "name:lv": "Moldova",
        "name:mdf": "Молдова",
        "name:mhr": "Молдово",
        "name:mi": "Morotawa",
        "name:mk": "Молдавија",
        "name:ml": "മൊൾഡോവ",
        "name:mn": "Молдав",
        "name:mo": "Молдова",
        "name:mr": "मोल्दोव्हा",
        "name:ms": "Moldova",
        "name:mt": "Moldova",
        "name:my": "မော်လ်ဒိုဗာနိုင်ငံ",
        "name:na": "Ripubrikin Mordowa",
        "name:nah": "Moldova",
        "name:nds": "Moldawien",
        "name:nds-nl": "Moldavië",
        "name:ne": "मोल्दोवा",
        "name:new": "मोल्दोवा",
        "name:nl": "Moldavië",
        "name:nn": "Moldova",
        "name:no": "Moldova",
        "name:nov": "Moldova",
        "name:oc": "Moldàvia",
        "name:or": "ମାଲଡୋଭା",
        "name:os": "Молдави",
        "name:pa": "ਮੋਲਦੋਵਾ",
        "name:pam": "Moldabya",
        "name:pcd": "Moldavie",
        "name:pih": "Moldoewa",
        "name:pl": "Mołdawia",
        "name:pms": "Moldavia",
        "name:pnb": "مولڈوا",
        "name:pnt": "Μολδαβία",
        "name:pt": "Moldávia",
        "name:qu": "Mulduwa",
        "name:ro": "Moldova",
        "name:roa-rup": "Moldova",
        "name:roa-tara": "Moldavie",
        "name:ru": "Молдавия",
        "name:rue": "Молдавія",
        "name:rw": "Molidova",
        "name:sa": "मोल्दोवा",
        "name:sah": "Молдова",
        "name:scn": "Moldavia",
        "name:sco": "Moldovae",
        "name:se": "Moldova",
        "name:sh": "Moldavija",
        "name:sk": "Moldavsko",
        "name:sl": "Moldavija",
        "name:so": "Moldofa",
        "name:sq": "Moldavia",
        "name:sr": "Молдавија",
        "name:ss": "IMolidiva",
        "name:st": "Moldova",
        "name:stq": "Moldawien",
        "name:su": "Moldova",
        "name:sv": "Moldavien",
        "name:sw": "Moldova",
        "name:szl": "Mołdawijo",
        "name:ta": "மல்தோவா",
        "name:te": "మోల్డోవా",
        "name:tg": "Молдова",
        "name:th": "ประเทศมอลโดวา",
        "name:tk": "Moldawiýa",
        "name:tl": "Moldavia",
        "name:tr": "Moldova",
        "name:tt": "Молдавия",
        "name:tzl": "Moldova",
        "name:udm": "Молдавия",
        "name:ug": "مولدوۋا",
        "name:uk": "Молдова",
        "name:ur": "مالدووا",
        "name:uz": "Moldova",
        "name:vec": "Moldavia",
        "name:vep": "Moldov",
        "name:vi": "Moldova",
        "name:vls": "Moldavië",
        "name:vo": "Moldovän",
        "name:war": "Moldavia",
        "name:wo": "Moldaawi",
        "name:wuu": "摩尔多瓦",
        "name:xal": "Молдавмудин Орн",
        "name:xmf": "მოლდოვა",
        "name:yi": "מאלדאווע",
        "name:yo": "Móldófà",
        "name:zea": "Moldâvië",
        "name:zh": "摩尔多瓦",
        "name:zh-min-nan": "Moldova",
        "name:zh-yue": "摩爾多瓦",
        "official_name": "Republica Moldova",
        "official_name:cs": "Moldavská republika",
        "official_name:eo": "Moldava Respubliko",
        "official_name:fi": "Moldovan tasavalta",
        "population": "4128047",
        "timezone": "Europe/Chisinau",
        "type": "boundary",
        "wikidata": "Q217",
        "wikipedia": "en:Moldova",
        "@geometry": "center"
      },
      "geometry": {
        "type": "Point",
        "coordinates": [
          28.389898,
          46.9792858
        ]
      },
      "id": "relation/58974"
    },
    {
      "type": "Feature",
      "properties": {
        "@id": "relation/184840",
        "ISO3166-1": "SY",
        "ISO3166-1:alpha2": "SY",
        "ISO3166-1:alpha3": "SYR",
        "ISO3166-1:numeric": "760",
        "admin_level": "2",
        "boundary": "administrative",
        "flag": "http://upload.wikimedia.org/wikipedia/commons/5/53/Flag_of_Syria.svg",
        "full_name:ar": "الجمهورية العربية السورية",
        "int_name": "Syria",
        "is_in:continent": "Asia",
        "name": "Syrian Arab Republic",
        "name:ace": "Suriyah",
        "name:af": "Sirië",
        "name:als": "Syrien",
        "name:am": "ሶርያ",
        "name:an": "Siria",
        "name:ang": "Syria",
        "name:ar": "سوريا",
        "name:arc": "ܣܘܪܝܐ",
        "name:arz": "سوريا",
        "name:ast": "Siria",
        "name:av": "Сирия",
        "name:az": "Suriya",
        "name:ba": "Сирия",
        "name:bar": "Syrien",
        "name:bat-smg": "Sėrėjė",
        "name:bcl": "Sirya",
        "name:be": "Сірыя",
        "name:be-tarask": "Сырыя",
        "name:bg": "Сирия",
        "name:bm": "Suriya",
        "name:bn": "সিরিয়া",
        "name:bo": "སི་རི་ཡ།",
        "name:bpy": "সিরিয়া",
        "name:br": "Siria",
        "name:bs": "Sirija",
        "name:bug": "Suriah",
        "name:bxr": "Сири",
        "name:ca": "República Àrab Siriana",
        "name:cdo": "Sṳ̆-lê-ā",
        "name:ce": "Сири",
        "name:ceb": "Siria",
        "name:ckb": "سووریا",
        "name:crh": "Suriye",
        "name:cs": "Sýrie",
        "name:cu": "Сѷрїꙗ",
        "name:cv": "Сири",
        "name:cy": "Syria",
        "name:da": "Syrien",
        "name:de": "Syrien",
        "name:diq": "Suriya",
        "name:dsb": "Syriska",
        "name:dv": "ސޫރިޔާ",
        "name:el": "Συρία",
        "name:en": "Syria",
        "name:eo": "Sirio",
        "name:es": "Siria",
        "name:et": "Süüria",
        "name:eu": "Siria",
        "name:ext": "Síria",
        "name:fa": "سوریه",
        "name:fi": "Syyria",
        "name:fiu-vro": "Süüria",
        "name:fo": "Sýria",
        "name:fr": "Syrie",
        "name:frp": "Sirie",
        "name:fy": "Syrje",
        "name:ga": "An tSiria",
        "name:gag": "Siriya",
        "name:gd": "Siria",
        "name:gl": "Siria - سورية",
        "name:glk": "سوری",
        "name:gu": "સિરિયા",
        "name:gv": "Yn Teer",
        "name:hak": "Si-li-â",
        "name:haw": "Suria",
        "name:he": "סוריה",
        "name:hi": "सीरिया",
        "name:hif": "Syria",
        "name:hr": "Sirija",
        "name:hsb": "Syriska",
        "name:ht": "Siri",
        "name:hu": "Szíria",
        "name:hy": "Սիրիա",
        "name:ia": "Syria",
        "name:id": "Suriah",
        "name:ie": "Siria",
        "name:ilo": "Siria",
        "name:io": "Siria",
        "name:is": "Sýrland",
        "name:it": "Siria",
        "name:ja": "シリア",
        "name:jbo": "sixygu'e",
        "name:jv": "Suriah",
        "name:ka": "სირია",
        "name:kab": "Surya",
        "name:kbd": "Шам",
        "name:ki": "Syria",
        "name:kk": "Сирия",
        "name:kl": "Syria",
        "name:kn": "ಸಿರಿಯಾ",
        "name:ko": "시리아",
        "name:ku": "Sûrî",
        "name:kv": "Сирия",
        "name:kw": "Syri",
        "name:ky": "Сирия",
        "name:la": "Syria",
        "name:lb": "Syrien",
        "name:lez": "Сирия",
        "name:li": "Syrië",
        "name:lij": "Sciria",
        "name:lmo": "Siria",
        "name:ln": "Sirí",
        "name:lt": "Sirija",
        "name:lv": "Sīrija",
        "name:mdf": "Сирие",
        "name:mg": "Siria",
        "name:mhr": "Сирий",
        "name:mi": "Hiria",
        "name:mk": "Сирија",
        "name:ml": "സിറിയ",
        "name:mn": "Сири",
        "name:mr": "सीरिया",
        "name:ms": "Syria",
        "name:my": "ဆီးရီးယားနိုင်ငံ",
        "name:mzn": "سوریه",
        "name:na": "Syria",
        "name:nah": "Siria",
        "name:nds": "Syrien",
        "name:nds-nl": "Syrië",
        "name:ne": "सीरिया",
        "name:nl": "Syrië",
        "name:nn": "Syria",
        "name:no": "Syria",
        "name:nov": "Siria",
        "name:nv": "Sííwiya",
        "name:oc": "Siria",
        "name:or": "ସିରିଆ",
        "name:os": "Сири",
        "name:pa": "ਸੀਰੀਆ",
        "name:pam": "Siria",
        "name:pih": "Siriya",
        "name:pl": "Syria",
        "name:pms": "Siria",
        "name:pnb": "شام",
        "name:pnt": "Συρία",
        "name:ps": "سوريه",
        "name:pt": "Síria",
        "name:qu": "Sirya",
        "name:ro": "Siria",
        "name:ru": "Сирия",
        "name:rw": "Siriya",
        "name:sa": "सिरिया",
        "name:sah": "Сирия",
        "name:sc": "Siria",
        "name:scn": "Siria",
        "name:sco": "Sirie",
        "name:se": "Syria",
        "name:sh": "Sirija",
        "name:simple": "Syria",
        "name:sk": "Sýria",
        "name:sl": "Sirija",
        "name:so": "Suuriya",
        "name:sq": "Siria",
        "name:sr": "Сирија",
        "name:ss": "ISiriya",
        "name:su": "Suriah",
        "name:sv": "Syrien",
        "name:sw": "Syria",
        "name:szl": "Syryjo",
        "name:ta": "சிரியா",
        "name:te": "సిరియా",
        "name:tg": "Сурия",
        "name:th": "ประเทศซีเรีย",
        "name:tk": "Siriýa",
        "name:tl": "Sirya",
        "name:tr": "Suriye",
        "name:tt": "Сүрия",
        "name:tzl": "Süria",
        "name:udm": "Сирия",
        "name:ug": "سۇرىيە",
        "name:uk": "Сирія",
        "name:ur": "شام",
        "name:uz": "Suriya",
        "name:vi": "Syria",
        "name:vo": "Süriyän",
        "name:wa": "Sireye",
        "name:war": "Sirya",
        "name:wo": "Siri",
        "name:wuu": "叙利亚",
        "name:xal": "Сирмудин Араб Орн",
        "name:yi": "סיריע",
        "name:yo": "Síríà",
        "name:zea": "Syrië",
        "name:zh": "叙利亚",
        "name:zh-min-nan": "Su-lī-a",
        "name:zh-yue": "敘利亞",
        "official_name:cs": "Syrská arabská republika",
        "population": "17951639",
        "population:date": "2014",
        "source:population": "wikipedia",
        "timezone": "Asia/Damascus",
        "type": "boundary",
        "wikidata": "Q858",
        "wikipedia": "ar:سوريا",
        "@geometry": "center"
      },
      "geometry": {
        "type": "Point",
        "coordinates": [
          38.9230057,
          34.8149064
        ]
      },
      "id": "relation/184840"
    },
    {
      "type": "Feature",
      "properties": {
        "@id": "relation/252645",
        "ISO3166-1": "BO",
        "ISO3166-1:alpha2": "BO",
        "ISO3166-1:alpha3": "BOL",
        "ISO3166-1:numeric": "068",
        "admin_level": "2",
        "boundary": "administrative",
        "currency": "BOB",
        "flag": "http://upload.wikimedia.org/wikipedia/commons/4/48/Flag_of_Bolivia.svg",
        "is_in:continent": "South America",
        "name": "Bolivia",
        "name:ab": "Боливиа",
        "name:ace": "Bolivia",
        "name:af": "Bolivië",
        "name:als": "Bolivien",
        "name:am": "ቦሊቪያ",
        "name:an": "Bolivia",
        "name:ang": "Bolifia",
        "name:ar": "بوليفيا",
        "name:arz": "بوليفيا",
        "name:ast": "Bolivia",
        "name:ay": "Wuliwya",
        "name:az": "Boliviya",
        "name:ba": "Боливия",
        "name:bat-smg": "Buolėvėjė",
        "name:bcl": "Bolibya",
        "name:be": "Балівія",
        "name:be-tarask": "Балівія",
        "name:bg": "Боливия",
        "name:bi": "Bolivia",
        "name:bm": "Bolivia",
        "name:bn": "বলিভিয়া",
        "name:bo": "བྷོ་ལི་ཝི་ཡ།",
        "name:bpy": "বলিভিয়া",
        "name:br": "Bolivia",
        "name:bs": "Bolivija",
        "name:ca": "Bolívia",
        "name:cbk-zam": "Bolivia",
        "name:ce": "Боливи",
        "name:ceb": "Bolivia",
        "name:chr": "ᏉᎵᏫᏯ",
        "name:ckb": "بۆلیڤیا",
        "name:co": "Bolivia",
        "name:crh": "Boliviya",
        "name:cs": "Bolívie",
        "name:cv": "Боливи",
        "name:cy": "Bolifia",
        "name:da": "Bolivia",
        "name:de": "Bolivien",
        "name:diq": "Bolivya",
        "name:dsb": "Boliwiska",
        "name:dv": "ބޮލީވިއާ",
        "name:ee": "Bolivia",
        "name:el": "Βολιβία",
        "name:en": "Bolivia",
        "name:eo": "Bolivio",
        "name:es": "Bolivia",
        "name:et": "Boliivia",
        "name:eu": "Bolivia",
        "name:ext": "Bolívia",
        "name:fa": "بولیوی",
        "name:fi": "Bolivia",
        "name:fiu-vro": "Boliivia",
        "name:fo": "Bolivia",
        "name:fr": "Bolivie",
        "name:frp": "Bolivie",
        "name:frr": "Boliiwien",
        "name:fy": "Bolivia",
        "name:ga": "An Bholaiv",
        "name:gag": "Boliviya",
        "name:gd": "Boilibhia",
        "name:gl": "Bolivia",
        "name:gn": "Volívia",
        "name:gu": "બોલીવિયા",
        "name:gv": "Yn Volivia",
        "name:hak": "Pô-li-vì-â",
        "name:he": "בוליביה",
        "name:hi": "बोलिविया",
        "name:hif": "Bolivia",
        "name:hr": "Bolivija",
        "name:hsb": "Boliwiska",
        "name:ht": "Bolivi",
        "name:hu": "Bolívia",
        "name:hy": "Բոլիվիա",
        "name:ia": "Bolivia",
        "name:id": "Bolivia",
        "name:ie": "Bolivia",
        "name:ilo": "Bolivia",
        "name:io": "Bolivia",
        "name:is": "Bólivía",
        "name:it": "Bolivia",
        "name:ja": "ボリビア",
        "name:jbo": "bolivias",
        "name:jv": "Bolivia",
        "name:ka": "ბოლივია",
        "name:kaa": "Boliviya",
        "name:kk": "Боливия",
        "name:kl": "Bolivia",
        "name:kn": "ಬೊಲಿವಿಯ",
        "name:ko": "볼리비아",
        "name:krc": "Боливия",
        "name:ku": "Bolîvya",
        "name:kw": "Bolivi",
        "name:ky": "Боливия",
        "name:la": "Bolivia",
        "name:lb": "Bolivien",
        "name:lez": "Боливия",
        "name:li": "Bolivia",
        "name:lij": "Bolivia",
        "name:lmo": "Bulivia",
        "name:ln": "Bolivia",
        "name:lt": "Bolivija",
        "name:ltg": "Boliveja",
        "name:lv": "Bolīvija",
        "name:mhr": "Боливий",
        "name:mi": "Poriwia",
        "name:mk": "Боливија",
        "name:ml": "ബൊളീവിയ",
        "name:mn": "Боливи",
        "name:mr": "बोलिव्हिया",
        "name:mrj": "Боливи",
        "name:ms": "Bolivia",
        "name:mt": "Bolivja",
        "name:mwl": "Bolíbia",
        "name:my": "ဘိုလီးဗီးယားနိုင်ငံ",
        "name:na": "Boribiya",
        "name:nah": "Bolivia",
        "name:nds": "Bolivien",
        "name:ne": "बोलिभिया",
        "name:new": "बोलिभिया",
        "name:nl": "Bolivia",
        "name:nn": "Bolivia",
        "name:no": "Bolivia",
        "name:nov": "Bolivia",
        "name:nv": "Bolíbiya",
        "name:oc": "Bolívia",
        "name:or": "ବୋଲିଭିଆ",
        "name:os": "Боливи",
        "name:pa": "ਬੋਲੀਵੀਆ",
        "name:pam": "Bolivia",
        "name:pap": "Bolivia",
        "name:pih": "Boliwya",
        "name:pl": "Boliwia",
        "name:pms": "Bolivia",
        "name:pnb": "بولیویا",
        "name:ps": "بولېویا",
        "name:pt": "Bolívia",
        "name:qu": "Buliwya",
        "name:rm": "Bolivia",
        "name:rmy": "Boliviya",
        "name:rn": "Boliviya",
        "name:ro": "Bolivia",
        "name:ru": "Боливия",
        "name:rue": "Болівія",
        "name:rw": "Boliviya",
        "name:sa": "बोलिविया",
        "name:sah": "Боливия",
        "name:scn": "Bolivia",
        "name:sco": "Bolivie",
        "name:se": "Bolivia",
        "name:sh": "Bolivija",
        "name:simple": "Bolivia",
        "name:sk": "Bolívia",
        "name:sl": "Bolivija",
        "name:so": "Boliifia",
        "name:sq": "Bolivia",
        "name:sr": "Боливија",
        "name:ss": "IBholiviya",
        "name:su": "Bolivia",
        "name:sv": "Bolivia",
        "name:sw": "Bolivia",
        "name:szl": "Boliwijo",
        "name:ta": "பொலிவியா",
        "name:te": "బొలీవియా",
        "name:tet": "Bolívia",
        "name:tg": "Боливия",
        "name:th": "ประเทศโบลิเวีย",
        "name:tl": "Bolivia",
        "name:tr": "Bolivya",
        "name:tt": "Боливия",
        "name:tzl": "Bolivia",
        "name:ug": "بولىۋىيە",
        "name:uk": "Болівія",
        "name:ur": "بولیویا",
        "name:uz": "Boliviya",
        "name:vec": "Bołivia",
        "name:vi": "Bolivia",
        "name:vo": "Bolivän",
        "name:wa": "Boliveye",
        "name:war": "Bolivia",
        "name:wo": "Boliibi",
        "name:wuu": "玻利维亚",
        "name:xal": "Дала Улста Боливмудин Орн",
        "name:xmf": "ბოლივია",
        "name:yi": "באליוויע",
        "name:yo": "Bòlífíà",
        "name:zh": "玻利維亞",
        "name:zh-classical": "玻利維亞",
        "name:zh-min-nan": "Bolivia",
        "name:zh-yue": "玻利維亞",
        "official_name": "Estado Plurinacional de Bolivia",
        "official_name:ay": "Wuliwya Suyu",
        "official_name:ca": "Estat Plurinacional de Bolívia",
        "official_name:cs": "Mnohonárodní stát Bolívie",
        "official_name:de": "Plurinationaler Staat Bolivien",
        "official_name:en": "Plurinational State of Bolivia",
        "official_name:eu": "Boliviako Estatu Plurinazionala",
        "official_name:fr": "État plurinational de Bolivie",
        "official_name:gn": "Tetã Volívia",
        "official_name:it": "Stato Plurinazionale della Bolivia",
        "official_name:nl": "Plurinationale Staat Bolivia",
        "official_name:pl": "Wielonarodowe Państwo Boliwia",
        "official_name:pt": "Estado Plurinacional da Bolívia",
        "official_name:qu": "Buliwya Mamallaqta",
        "official_name:ru": "Многонациона́льное Госуда́рство Боли́вия",
        "old_name": "República de Bolivia",
        "source": "wikipedia, 2014",
        "timezone": "America/La_Paz",
        "type": "boundary",
        "wikidata": "Q750",
        "wikipedia": "es:Bolivia",
        "@geometry": "center"
      },
      "geometry": {
        "type": "Point",
        "coordinates": [
          -63.5490037,
          -16.283609
        ]
      },
      "id": "relation/252645"
    },
    {
      "type": "Feature",
      "properties": {
        "@id": "relation/286898",
        "ISO3166-1": "VI",
        "ISO3166-1:alpha2": "VI",
        "ISO3166-2": "US-VI",
        "admin_level": "4",
        "alt_name": "U.S. Virgin Islands",
        "alt_name:en": "U.S. Virgin Islands",
        "alt_name:tr": "ABD Virgin Adaları",
        "alt_name:vi": "Quần đảo Virgin thuộc Mĩ",
        "boundary": "administrative",
        "is_in:continent": "North America",
        "is_in:country": "United States",
        "name": "Virgin Islands, U.S.",
        "name:ar": "جزر العذراء الأمريكية",
        "name:be": "Амерыканскія Віргінскія астравы",
        "name:cs": "Americké Panenské ostrovy",
        "name:da": "Amerikanske Jomfruøer",
        "name:de": "Amerikanische Jungferninseln",
        "name:en": "United States Virgin Islands",
        "name:eo": "Virgulininsuloj Usonaj",
        "name:es": "Islas Vírgenes de los Estados Unidos",
        "name:et": "USA Neitsisaared",
        "name:fi": "Yhdysvaltain Neitsytsaaret",
        "name:fo": "Amerikonsku Jómfrúoyggjar",
        "name:fr": "Îles Vierges des États-Unis",
        "name:hr": "Američki Djevičanski Otoci",
        "name:is": "Bandarísku Jómfrúaeyjar",
        "name:it": "Isole Vergini americane",
        "name:lt": "JAV Mergelių salos",
        "name:nl": "Amerikaanse Maagdeneilanden",
        "name:nn": "Dei amerikanske Jomfruøyane",
        "name:pt": "Ilhas Virgens dos Estados Unidos",
        "name:ru": "Американские Виргинские острова",
        "name:sk": "Americké Panenské ostrovy",
        "name:sr": "Америчка Девичанска Острва",
        "name:sv": "Amerikanska Jungfruöarna",
        "name:tr": "ABD Virjin Adaları",
        "name:vi": "Quần đảo Virgin thuộc Mỹ",
        "name:war": "Kapuropud-an Birhen han Estados Unidos",
        "name:yo": "Àwọn Erékùṣù Wúndíá ti Amẹ́ríkà",
        "name:zh": "美屬維爾京群島",
        "official_name": "Virgin Islands of the United States",
        "official_name:en": "Virgin Islands of the United States",
        "place": "state",
        "ref:fips": "78",
        "timezone": "America/St_Thomas",
        "type": "boundary",
        "wikidata": "Q11703",
        "wikipedia": "en:United States Virgin Islands",
        "@geometry": "center"
      },
      "geometry": {
        "type": "Point",
        "coordinates": [
          -64.835884,
          18.044226
        ]
      },
      "id": "relation/286898"
    }
  ]
}