{
  "type": "FeatureCollection",
  "generator": "overpass-ide",
  "copyright": "The data included in this document is from www.openstreetmap.org. The data is made available under ODbL.",
  "timestamp": "2017-12-10T20:13:02Z",
  "features": [
    {
      "type": "Feature",
      "properties": {
        "@id": "relation/52411",
        "ISO3166-1": "BE",
        "ISO3166-1:alpha2": "BE",
        "ISO3166-1:alpha3": "BEL",
        "ISO3166-1:numeric": "056",
        "TMC:cid_58:tabcd_1:Class": "Area",
        "TMC:cid_58:tabcd_1:LCLversion": "8.00",
        "TMC:cid_58:tabcd_1:LocationCode": "3",
        "admin_level": "2",
        "alt_name:eo": "Belgio",
        "boundary": "administrative",
        "currency": "EUR",
        "flag": "http://upload.wikimedia.org/wikipedia/commons/6/65/Flag_of_Belgium.svg",
        "int_name": "België",
        "is_in:continent": "Europe",
        "name": "België - Belgique - Belgien",
        "name:ace": "Bèlgia",
        "name:af": "België",
        "name:als": "Belgie",
        "name:am": "ቤልጅግ",
        "name:an": "Belchica",
        "name:ang": "Belgice",
        "name:ar": "بلجيكا",
        "name:arc": "ܒܠܓܝܩܐ",
        "name:arz": "بلجيكا",
        "name:ast": "Bélxica",
        "name:ay": "Bilkiya",
        "name:az": "Belçika",
        "name:ba": "Бельгия",
        "name:bar": "Bäigien",
        "name:bat-smg": "Belgėjė",
        "name:bcl": "Belhika",
        "name:be": "Бельгія",
        "name:be-tarask": "Бэльгія",
        "name:bg": "Белгия",
        "name:bi": "Belgium",
        "name:bn": "বেলজিয়াম",
        "name:bo": "པེར་ཅིན།",
        "name:bpy": "বেলজিয়াম",
        "name:br": "Belgia",
        "name:bs": "Belgija",
        "name:bug": "Belgia",
        "name:bxr": "Бельги",
        "name:ca": "Bèlgica",
        "name:cdo": "Bī-lé-sì",
        "name:ce": "Бельги",
        "name:ceb": "Belhika",
        "name:chr": "ᏇᎵᏥᎥᎻ",
        "name:ckb": "بەلجیکا",
        "name:co": "Belgica",
        "name:crh": "Belçika",
        "name:cs": "Belgie",
        "name:csb": "Belgijskô",
        "name:cu": "Бєлгїѥ",
        "name:cv": "Бельги",
        "name:cy": "Gwlad Belg",
        "name:da": "Belgien",
        "name:de": "Belgien",
        "name:diq": "Belçıka",
        "name:dsb": "Belgiska",
        "name:dv": "ބެލްޖިއަމް",
        "name:dz": "བེལ་ཇིཡམ",
        "name:ee": "Belgium",
        "name:el": "Βέλγιο",
        "name:eml": "Bélgi",
        "name:en": "Belgium",
        "name:eo": "Belgujo",
        "name:es": "Bélgica",
        "name:et": "Belgia",
        "name:eu": "Belgika",
        "name:ext": "Bélgica",
        "name:fa": "بلژیک",
        "name:fi": "Belgia",
        "name:fiu-vro": "Belgiä",
        "name:fo": "Belgia",
        "name:fr": "Belgique",
        "name:frp": "Bèlg·ique",
        "name:frr": "Bälgien",
        "name:fur": "Belgjo",
        "name:fy": "Belgje",
        "name:ga": "An Bheilg",
        "name:gag": "Belgiya",
        "name:gd": "A' Bheilg",
        "name:gl": "Bélxica",
        "name:gn": "Véyhika",
        "name:gu": "બેલ્જિયમ",
        "name:gv": "Velg",
        "name:hak": "Pí-li-sṳ̀",
        "name:haw": "Pelekiuma",
        "name:he": "בלגיה",
        "name:hi": "बेल्जियम",
        "name:hif": "Belgium",
        "name:hr": "Belgija",
        "name:hsb": "Belgiska",
        "name:ht": "Bèljik",
        "name:hu": "Belgium",
        "name:hy": "Բելգիա",
        "name:ia": "Belgica",
        "name:id": "Belgia",
        "name:ie": "Belgia",
        "name:ilo": "Belhika",
        "name:io": "Belgia",
        "name:is": "Belgía",
        "name:it": "Belgio",
        "name:ja": "ベルギー",
        "name:jbo": "beldjym",
        "name:jv": "Bèlgia",
        "name:ka": "ბელგია",
        "name:kaa": "Belgiya",
        "name:kab": "Biljik",
        "name:kbd": "Белгэ",
        "name:kg": "Belezi",
        "name:kk": "Бельгия",
        "name:kl": "Belgia",
        "name:ko": "벨기에",
        "name:koi": "Белгия",
        "name:krc": "Бельгия",
        "name:ks": "बेल्जियम",
        "name:ksh": "Beljie",
        "name:ku": "Belgiya",
        "name:kv": "Бельгия",
        "name:kw": "Pow Belg",
        "name:ky": "Бельгия",
        "name:la": "Belgica",
        "name:lad": "Beljika",
        "name:lb": "Belsch",
        "name:lez": "Бельгия",
        "name:li": "Belsj",
        "name:lij": "Belgiò",
        "name:lmo": "Belgi",
        "name:ln": "Bɛ́ljika",
        "name:lt": "Belgija",
        "name:ltg": "Beļgeja",
        "name:lv": "Beļģija",
        "name:mdf": "Бельгие",
        "name:mg": "Belzika",
        "name:mhr": "Бельгий",
        "name:mi": "Peratiamu",
        "name:mk": "Белгија",
        "name:ml": "ബെൽജിയം",
        "name:mn": "Бельги",
        "name:mr": "बेल्जियम",
        "name:ms": "Belgium",
        "name:mt": "Belġju",
        "name:my": "ဘယ်လ်ဂျီယမ်နိုင်ငံ",
        "name:na": "Berdjiyum",
        "name:nah": "Belgica",
        "name:nap": "Belge",
        "name:nds": "Königriek vun Belgien",
        "name:nds-nl": "België",
        "name:ne": "बेल्जियम",
        "name:new": "बेल्जियम",
        "name:nl": "België",
        "name:nn": "Belgia",
        "name:no": "Belgia",
        "name:nov": "Belgia",
        "name:nrm": "Belgique",
        "name:nv": "Bélgii Bikéyah",
        "name:oc": "Belgica",
        "name:or": "ବେଲଜିଅମ",
        "name:os": "Бельги",
        "name:pa": "ਬੈਲਜੀਅਮ",
        "name:pam": "Belgika",
        "name:pap": "Bélgika",
        "name:pcd": "Bergike",
        "name:pdc": "Belgien",
        "name:pfl": "Belgje",
        "name:pih": "Beljum",
        "name:pl": "Belgia",
        "name:pms": "Belgi",
        "name:pnb": "بیلجیم",
        "name:pnt": "Βέλγιον",
        "name:ps": "بلجیم",
        "name:pt": "Bélgica",
        "name:qu": "Bilhika",
        "name:rm": "Belgia",
        "name:rmy": "Beljiya",
        "name:ro": "Belgia",
        "name:roa-rup": "Belghia",
        "name:roa-tara": "Bèlge",
        "name:ru": "Бельгия",
        "name:rue": "Белґія",
        "name:rw": "Ububiligi",
        "name:sa": "बेल्जियम",
        "name:sah": "Бельгия",
        "name:scn": "Belgiu",
        "name:sco": "Belgium",
        "name:se": "Belgia",
        "name:sg": "Bêleze",
        "name:sh": "Belgija",
        "name:sk": "Belgicko",
        "name:sl": "Belgija",
        "name:so": "Beljim",
        "name:sq": "Belgjika",
        "name:sr": "Белгија",
        "name:srn": "Belgikondre",
        "name:ss": "IBhelijiyamu",
        "name:stq": "Belgien",
        "name:su": "Bélgia",
        "name:sv": "Belgien",
        "name:sw": "Ubelgiji",
        "name:szl": "Belgijo",
        "name:ta": "பெல்ஜியம்",
        "name:te": "బెల్జియం",
        "name:tet": "Béljika",
        "name:tg": "Белгия",
        "name:th": "ประเทศเบลเยียม",
        "name:tk": "Belgiýa",
        "name:tl": "Belhika",
        "name:tok": "ma Pesije",
        "name:tpi": "Beljiam",
        "name:tr": "Belçika",
        "name:tt": "Бельгия",
        "name:tum": "Belgium",
        "name:tzl": "Belxhíc",
        "name:udm": "Бельгия",
        "name:ug": "بېلگىيە",
        "name:uk": "Бельгія",
        "name:ur": "بلجئیم",
        "name:uz": "Belgiya",
        "name:vec": "Belgio",
        "name:vep": "Bel'gii",
        "name:vi": "Bỉ",
        "name:vls": "België",
        "name:vo": "Belgän",
        "name:wa": "Beldjike",
        "name:war": "Belhika",
        "name:wo": "Belsik",
        "name:wuu": "比利时",
        "name:xmf": "ბელგია",
        "name:yi": "בעלגיע",
        "name:yo": "Bẹ́ljíọ̀m",
        "name:zea": "Belhië",
        "name:zh": "比利時",
        "name:zh-min-nan": "Belgien",
        "name:zh-yue": "比利時",
        "nat_name:af": "Koninkryk van België",
        "nat_name:als": "Königriich Belgie",
        "nat_name:ay": "Bilhika Qhapaqsuyu",
        "nat_name:az": "Belçika Krallığı",
        "nat_name:ba": "Бельгия Короллеге",
        "nat_name:bar": "Kinigraich Bäigien",
        "nat_name:be": "Каралеўства Бельгія",
        "nat_name:br": "Rouantelezh Belgia",
        "nat_name:bs": "Kraljevina Belgija",
        "nat_name:ca": "Regne de Bèlgica",
        "nat_name:co": "Regnu di Belgica",
        "nat_name:crh": "Belçika Qırallığı",
        "nat_name:cs": "Belgické království",
        "nat_name:cu": "Кралѥ́вьство Бєлгїѥ",
        "nat_name:cy": "Teyrnas Gwlad Belg",
        "nat_name:da": "Kongeriget Belgien",
        "nat_name:de": "Königreich Belgien",
        "nat_name:dsb": "Kralojstwo Belgiskej",
        "nat_name:el": "Βασίλειο του Βελγίου",
        "nat_name:eml": "Regno dal Bèlgi",
        "nat_name:en": "Kingdom of Belgium",
        "nat_name:eo": "Reĝlando Belgujo",
        "nat_name:es": "Reino de Bélgica",
        "nat_name:et": "Belgia Kuningriik",
        "nat_name:fi": "Belgian kuningaskunta",
        "nat_name:fiu-vro": "Belgiä Kuningriik",
        "nat_name:fr": "Royaume de Belgique",
        "nat_name:frp": "Royômo de Bèlg·ique",
        "nat_name:ga": "Ríocht na Beilge",
        "nat_name:gd": "Rìoghachd na Beilge",
        "nat_name:gl": "Reino de Bélxica",
        "nat_name:gv": "Reeriaght ny Belg",
        "nat_name:he": "ממלכת בלגיה",
        "nat_name:hr": "Kraljevina Belgija",
        "nat_name:hu": "Belga Királyság",
        "nat_name:hy": "Բելգիայի Թագավորություն",
        "nat_name:ia": "Regno de Belgica",
        "nat_name:id": "Kerajaan Belgia",
        "nat_name:is": "Konungsríkið Belgía",
        "nat_name:ka": "ბელგიის სამეფო",
        "nat_name:kbd": "Белгэ Пэштыхьей",
        "nat_name:kg": "Nsi ya ntotila ya Belezi",
        "nat_name:kk": "Белгия Корольдігі",
        "nat_name:kl": "Kunngeqarfik Belgia",
        "nat_name:koi": "Короля Белгия",
        "nat_name:krc": "Бельгия Королевство",
        "nat_name:ku": "Keyaniya Belgiyayê",
        "nat_name:kv": "Бельгия Корольув",
        "nat_name:lb": "Kinnekräich Belsch",
        "nat_name:li": "Keuninkriek Belsj",
        "nat_name:ln": "Mani ya Bɛ́ljika",
        "nat_name:lv": "Beļģijas Karaliste",
        "nat_name:mk": "Кралство Белгија",
        "nat_name:mn": "Бельгийн Вант Улс",
        "nat_name:mr": "बेल्जियमचे राजतंत्र",
        "nat_name:ms": "Kerajaan Belgium",
        "nat_name:mt": "Renju tal-Belġju",
        "nat_name:nds": "Königriek vun Belgien",
        "nat_name:nds-nl": "Koninkriek België",
        "nat_name:nl": "Koninkrijk België",
        "nat_name:nn": "Kongeriket Belgia",
        "nat_name:no": "Kongeriket Belgia",
        "nat_name:pap": "Reino Bélgika",
        "nat_name:pcd": "Roéyôme d’ Bergike",
        "nat_name:pl": "Królestwo Belgii",
        "nat_name:pt": "Reino da Bélgica",
        "nat_name:qu": "Bilhika Qhapaqsuyu",
        "nat_name:ro": "Regatul Belgiei",
        "nat_name:sah": "Бельгия Хоруоллуга",
        "nat_name:sco": "Kinrick o Belgium",
        "nat_name:sh": "Kraljevina Belgija",
        "nat_name:sl": "Kraljevína Bélgija",
        "nat_name:sr": "Краљевина Белгија",
        "nat_name:su": "Karajaan Bélgia",
        "nat_name:sv": "Konungariket Belgien",
        "nat_name:tk": "Belgiýa korollygy",
        "nat_name:tl": "Kaharian ng Belhika",
        "nat_name:tr": "Belçika Krallığı",
        "nat_name:uk": "Королівство Бельгія",
        "nat_name:ur": "مملکتِ بلجئیم",
        "nat_name:vi": "Vương quốc Bỉ",
        "nat_name:vls": "Keunienkryk België",
        "nat_name:wo": "Ruwaayom bu Beljik",
        "nat_name:xal": "Бельҗмудин Нутг",
        "official_name:cs": "Belgické království",
        "timezone": "Europe/Brussels",
        "type": "boundary",
        "wikidata": "Q31",
        "wikipedia": "en:Belgium",
        "@geometry": "center"
      },
      "geometry": {
        "type": "Point",
        "coordinates": [
          4.3985053,
          50.5243244
        ]
      },
      "id": "relation/52411"
    },
    {
      "type": "Feature",
      "properties": {
        "@id": "relation/59470",
        "ISO3166-1": "BR",
        "ISO3166-1:alpha2": "BR",
        "ISO3166-1:alpha3": "BRA",
        "ISO3166-1:numeric": "076",
        "admin_level": "2",
        "alt_name:vi": "Brazil;Bra-xin",
        "boundary": "administrative",
        "currency": "BRL",
        "driving_side": "right",
        "flag": "http://upload.wikimedia.org/wikipedia/commons/0/05/Flag_of_Brazil.svg",
        "is_in:continent": "South America",
        "name": "Brasil",
        "name:ace": "Brasil",
        "name:af": "Brasilië",
        "name:als": "Brasilien",
        "name:am": "ብራዚል",
        "name:an": "Brasil",
        "name:ang": "Brasil",
        "name:ar": "البرازيل",
        "name:arc": "ܒܪܐܙܝܠ",
        "name:arz": "البرازيل",
        "name:as": "ব্ৰাজিল",
        "name:ast": "Brasil",
        "name:ay": "Wrasil",
        "name:az": "Braziliya",
        "name:ba": "Бразилия",
        "name:bar": "Brasilien",
        "name:bat-smg": "Brazilėjė",
        "name:bcl": "Brasil",
        "name:be": "Бразілія",
        "name:be-tarask": "Бразылія",
        "name:bg": "Бразилия",
        "name:bi": "Brazil",
        "name:bm": "Brazil",
        "name:bn": "ব্রাজিল",
        "name:bo": "པུ་རུ་ཟིལ།",
        "name:bpy": "ব্রাজিল",
        "name:br": "Brazil",
        "name:bs": "Brazil",
        "name:bxr": "Бразил",
        "name:ca": "Brasil",
        "name:cbk-zam": "Brasil",
        "name:cdo": "Brazil",
        "name:ce": "Бразилия",
        "name:ceb": "Brasil",
        "name:chr": "ᏆᏏᎵ",
        "name:ckb": "بەڕازیل",
        "name:co": "Brasile",
        "name:crh": "Brazil",
        "name:cs": "Brazílie",
        "name:csb": "Brazylskô",
        "name:cu": "Браꙁїлїꙗ",
        "name:cv": "Бразили",
        "name:cy": "Brasil",
        "name:da": "Brasilien",
        "name:de": "Brasilien",
        "name:diq": "Brezilya",
        "name:dsb": "Brazilska",
        "name:dv": "ބުރެޒިލް",
        "name:dz": "བཱརཱ་ཛིལ་",
        "name:ee": "Brazil",
        "name:el": "Βραζιλία",
        "name:eml": "Brasil",
        "name:en": "Brazil",
        "name:eo": "Brazilo",
        "name:es": "Brasil",
        "name:et": "Brasiilia",
        "name:eu": "Brasil",
        "name:ext": "Brasil",
        "name:fa": "برزیل",
        "name:fi": "Brasilia",
        "name:fiu-vro": "Brasiilia",
        "name:fo": "Brasil",
        "name:fr": "Brésil",
        "name:frp": "Brèsil",
        "name:frr": "Brasiilien",
        "name:fur": "Brasîl",
        "name:fy": "Brazylje",
        "name:ga": "An Bhrasaíl",
        "name:gag": "Braziliya",
        "name:gan": "巴西",
        "name:gd": "Braisil",
        "name:gl": "Brasil",
        "name:gn": "Pindorama",
        "name:gu": "બ્રાઝિલ",
        "name:gv": "Yn Vrasseel",
        "name:hak": "Pâ-sî",
        "name:haw": "Palakila",
        "name:he": "ברזיל",
        "name:hi": "ब्राज़ील",
        "name:hif": "Brazil",
        "name:hr": "Brazil",
        "name:hsb": "Brazilska",
        "name:ht": "Brezil",
        "name:hu": "Brazília",
        "name:hy": "Բրազիլիա",
        "name:ia": "Brasil",
        "name:id": "Brasil",
        "name:ie": "Brasil",
        "name:ig": "Brazil",
        "name:ilo": "Brasil",
        "name:io": "Brazilia",
        "name:is": "Brasilía",
        "name:it": "Brasile",
        "name:ja": "ブラジル",
        "name:jbo": "razgu'e",
        "name:jv": "Brasil",
        "name:ka": "ბრაზილია",
        "name:kaa": "Braziliya",
        "name:kab": "Brazil",
        "name:kbd": "Бразил",
        "name:kg": "Brazil",
        "name:ki": "Brazil",
        "name:kk": "Бразилия",
        "name:kl": "Brazil",
        "name:km": "ប្រេស៊ីល",
        "name:kn": "ಬ್ರೆಜಿಲ್",
        "name:ko": "브라질",
        "name:krc": "Бразилия",
        "name:ku": "Brazîl",
        "name:kv": "Бразилия",
        "name:kw": "Brasil",
        "name:ky": "Бразилия",
        "name:la": "Brasilia",
        "name:lad": "Brasil",
        "name:lb": "Brasilien",
        "name:lez": "Бразилия",
        "name:li": "Braziel",
        "name:lij": "Braxî",
        "name:lmo": "Brasil",
        "name:ln": "Brazil",
        "name:lt": "Brazilija",
        "name:ltg": "Brazileja",
        "name:lv": "Brazīlija",
        "name:mdf": "Бразилие",
        "name:mg": "Brazila",
        "name:mhr": "Бразилий",
        "name:mi": "Parīhi",
        "name:mk": "Бразил",
        "name:ml": "ബ്രസീൽ",
        "name:mn": "Бразил",
        "name:mr": "ब्राझील",
        "name:mrj": "Бразили",
        "name:ms": "Brazil",
        "name:mt": "Brażil",
        "name:mwl": "Brasil",
        "name:my": "ဘရာဇီးနိုင်ငံ",
        "name:mzn": "برزیل",
        "name:na": "Bradir",
        "name:nah": "Brasil",
        "name:nap": "Brasile",
        "name:nds": "Brasilien",
        "name:nds-nl": "Brazilië",
        "name:ne": "ब्राजिल",
        "name:new": "ब्राजिल",
        "name:nl": "Brazilië",
        "name:nn": "Brasil",
        "name:no": "Brasil",
        "name:nov": "Brasilia",
        "name:nrm": "Brési",
        "name:nv": "Bwazííl",
        "name:oc": "Brasil",
        "name:or": "ବ୍ରାଜିଲ",
        "name:os": "Бразили",
        "name:pa": "ਬ੍ਰਾਜ਼ੀਲ",
        "name:pag": "Brazil",
        "name:pam": "Brasil",
        "name:pap": "Brazil",
        "name:pcd": "Brésil",
        "name:pdc": "Brasilien",
        "name:pih": "Bresel",
        "name:pl": "Brazylia",
        "name:pms": "Brasil",
        "name:pnb": "برازیل",
        "name:ps": "برازیل",
        "name:pt": "Brasil",
        "name:qu": "Brasil",
        "name:rm": "Brasilia",
        "name:rmy": "Brazil",
        "name:rn": "Brazil",
        "name:ro": "Brazilia",
        "name:roa-tara": "Brasile",
        "name:ru": "Бразилия",
        "name:rue": "Бразілія",
        "name:rw": "Burezile",
        "name:sa": "ब्रासील",
        "name:sah": "Бразилия",
        "name:sc": "Brasile",
        "name:scn": "Brasili",
        "name:sco": "Brazil",
        "name:se": "Brasilia",
        "name:sh": "Brazil",
        "name:sk": "Brazília",
        "name:sl": "Brazilija",
        "name:so": "Barasiil",
        "name:sq": "Brazili",
        "name:sr": "Бразил",
        "name:srn": "Brasilkondre",
        "name:st": "Brazil",
        "name:stq": "Brasilien",
        "name:su": "Brasil",
        "name:sv": "Brasilien",
        "name:sw": "Brazil",
        "name:szl": "Brazylijo",
        "name:ta": "பிரேசில்",
        "name:te": "బ్రెజిల్",
        "name:tet": "Brazíl",
        "name:tg": "Бразилия",
        "name:th": "ประเทศบราซิล",
        "name:tk": "Braziliýa",
        "name:tl": "Brasil",
        "name:tok": "ma Pasila",
        "name:tr": "Brezilya",
        "name:tt": "Бразилия",
        "name:ty": "Brazil",
        "name:tzl": "Brasil",
        "name:ug": "برازىلىيە",
        "name:uk": "Бразилія",
        "name:ur": "برازیل",
        "name:uz": "Braziliya",
        "name:vec": "Braxil",
        "name:vep": "Brazilii",
        "name:vi": "Brasil",
        "name:vls": "Brazilië",
        "name:vo": "Brasilän",
        "name:wa": "Braezi",
        "name:war": "Brasil",
        "name:wo": "Breesil",
        "name:wuu": "巴西",
        "name:xal": "Ниицәтә Бразилмудин Орн",
        "name:xh": "Brasil",
        "name:xmf": "ბრაზილია",
        "name:yi": "בראזיל",
        "name:yo": "Brasil",
        "name:za": "Bahsih",
        "name:zea": "Brezilië",
        "name:zh": "巴西",
        "name:zh-classical": "巴西",
        "name:zh-min-nan": "Pa-se",
        "name:zh-yue": "巴西",
        "name:zu": "IBrazili",
        "official_name": "República Federativa do Brasil",
        "official_name:ar": "جمهورية البرازيل الإتحادية",
        "official_name:bn": "সংযুক্ত প্রজাতন্ত্রী ব্রাজিল",
        "official_name:cs": "Brazilská federativní republika",
        "official_name:de": "Föderative Republik Brasilien",
        "official_name:en": "Federative Republic of Brazil",
        "official_name:eo": "Federacia Respubliko Brazilo",
        "official_name:es": "República Federativa del Brasil",
        "official_name:fa": "جمهوری فدرال برزیل",
        "official_name:fr": "République fédérative du Brésil",
        "official_name:hi": "ब्राज़ील का संघीय गणराज्य",
        "official_name:it": "Repubblica Federale del Brasile",
        "official_name:ja": "ブラジル連邦共和国",
        "official_name:jv": "Republik Federal Brasil",
        "official_name:ko": "브라질 연방 공화국",
        "official_name:ms": "Republik Persekutuan Brazil",
        "official_name:nl": "Federale Republiek Brazilië",
        "official_name:pa": "ਬ੍ਰਾਜ਼ੀਲ ਦਾ ਸੰਘੀ ਗਣਰਾਜ",
        "official_name:pl": "Federacyjna Republika Brazylii",
        "official_name:ru": "Федеративная Республика Бразилия",
        "official_name:ta": "பிரேசில் கூட்டாட்சிக் குடியரசு",
        "official_name:te": "ఫెడరేటివ్ రిపబ్లిక్ ఆఫ్ బ్రెజిల్",
        "official_name:tr": "Brezilya Federal Cumhuriyeti",
        "official_name:ur": "وفاقی جمہوریہ برازیل",
        "official_name:vi": "Cộng hoà Liên bang Brasil",
        "official_name:zh": "巴西联邦共和国",
        "old_name:vi": "Ba Tây",
        "type": "boundary",
        "wikidata": "Q155",
        "wikipedia": "pt:Brasil",
        "@geometry": "center"
      },
      "geometry": {
        "type": "Point",
        "coordinates": [
          -51.3085894,
          -14.2923091
        ]
      },
      "id": "relation/59470"
    },
    {
      "type": "Feature",
      "properties": {
        "@id": "relation/184629",
        "ISO3166-1": "BT",
        "ISO3166-1:alpha2": "BT",
        "ISO3166-1:alpha3": "BTN",
        "ISO3166-1:numeric": "064",
        "admin_level": "2",
        "boundary": "administrative",
        "flag": "http://upload.wikimedia.org/wikipedia/commons/9/91/Flag_of_Bhutan.svg",
        "is_in:continent": "Asia",
        "name": "འབྲུག་ཡུལ་",
        "name:ace": "Bhutan",
        "name:af": "Bhoetan",
        "name:als": "Bhutan",
        "name:am": "ቡታን",
        "name:an": "Bután",
        "name:ar": "بوتان",
        "name:arz": "بوتان",
        "name:as": "ভূটান",
        "name:ast": "Bután",
        "name:az": "Butan",
        "name:ba": "Бутан",
        "name:bar": "Bhutan",
        "name:bat-smg": "Butans",
        "name:bcl": "Butan",
        "name:be": "Бутан",
        "name:be-tarask": "Бутан",
        "name:bg": "Бутан",
        "name:bh": "भूटान",
        "name:bi": "Bhutan",
        "name:bjn": "Bhutan",
        "name:bn": "ভুটান",
        "name:bo": "འབྲུག་ཡུལ།",
        "name:bpy": "ভুটান",
        "name:br": "Bhoutan",
        "name:bs": "Butan",
        "name:bxr": "Бутан",
        "name:ca": "Bhutan",
        "name:ce": "Бутан",
        "name:ceb": "Bhutan",
        "name:ckb": "بووتان",
        "name:crh": "Butan",
        "name:cs": "Bhútán",
        "name:csb": "Bhutan",
        "name:cv": "Бутан",
        "name:cy": "Bhutan",
        "name:da": "Bhutan",
        "name:de": "Bhutan",
        "name:diq": "Butan",
        "name:dv": "ބޫޓާން",
        "name:dz": "འབྲུགཡུལ་",
        "name:el": "Μπουτάν",
        "name:en": "Bhutan",
        "name:eo": "Butano",
        "name:es": "Bután",
        "name:et": "Bhutan",
        "name:eu": "Bhutan",
        "name:ext": "Bután",
        "name:fa": "پادشاهی بوتان",
        "name:fi": "Bhutan",
        "name:fiu-vro": "Bhutan",
        "name:fo": "Butan",
        "name:fr": "Bhoutan",
        "name:frp": "Botan",
        "name:fy": "Bûtan",
        "name:ga": "An Bhútain",
        "name:gag": "Butan",
        "name:gd": "Butàn",
        "name:gl": "Bután",
        "name:gn": "Vutã",
        "name:gu": "ભૂતાન",
        "name:haw": "Butana",
        "name:he": "בהוטן",
        "name:hi": "भूटान",
        "name:hif": "Bhutan",
        "name:hr": "Butan",
        "name:hsb": "Bhutan",
        "name:ht": "Boutan",
        "name:hu": "Bhután",
        "name:hy": "Բութան",
        "name:ia": "Bhutan",
        "name:id": "Bhutan",
        "name:ie": "Bhutan",
        "name:ilo": "Butan",
        "name:io": "Bhutan",
        "name:is": "Bútan",
        "name:it": "Bhutan",
        "name:ja": "ブータン",
        "name:jbo": "butyn",
        "name:jv": "Bhutan",
        "name:ka": "ბჰუტანი",
        "name:ki": "Bhutan",
        "name:kk": "Бутан Патшалығы",
        "name:kn": "ಭೂತಾನ್",
        "name:ko": "부탄",
        "name:ku": "Bûtan",
        "name:kv": "Бутан",
        "name:kw": "Bhoutan",
        "name:ky": "Бутан",
        "name:la": "Butania",
        "name:lb": "Bhutan",
        "name:lez": "Бутан",
        "name:li": "Bhutan",
        "name:lij": "Bhutan",
        "name:lmo": "Bhutan",
        "name:ln": "Butáni",
        "name:lt": "Butanas",
        "name:lv": "Butāna",
        "name:mk": "Бутан",
        "name:ml": "ഭൂട്ടാൻ",
        "name:mn": "Бутан",
        "name:mr": "भूतान",
        "name:ms": "Bhutan",
        "name:mt": "Butan",
        "name:my": "ဘူတန်နိုင်ငံ",
        "name:na": "Butan",
        "name:nah": "Butan",
        "name:nap": "Bhutan",
        "name:nds": "Bhutan",
        "name:ne": "भूटान",
        "name:nl": "Bhutan",
        "name:nn": "Bhutan",
        "name:no": "Bhutan",
        "name:nov": "Butan",
        "name:nv": "Iiʼniʼ Tłʼiishtsoh Bikéyah",
        "name:oc": "Botan",
        "name:or": "ଭୁଟାନ",
        "name:os": "Бутан",
        "name:pa": "ਭੂਟਾਨ",
        "name:pam": "Butan",
        "name:pih": "Buuten",
        "name:pl": "Bhutan",
        "name:pms": "Bhutan",
        "name:pnb": "بھوٹان",
        "name:ps": "بوتان",
        "name:pt": "Butão",
        "name:qu": "Butan",
        "name:rm": "Bhutan",
        "name:ro": "Bhutan",
        "name:roa-rup": "Bhutan",
        "name:ru": "Бутан",
        "name:rue": "Бгутан",
        "name:rw": "Butani",
        "name:sah": "Бутан",
        "name:scn": "Bhutan",
        "name:sco": "Bhutan",
        "name:se": "Bhutan",
        "name:sh": "Butan",
        "name:sk": "Bhután",
        "name:sl": "Butan",
        "name:so": "Butaan",
        "name:sq": "Butani",
        "name:sr": "Бутан",
        "name:ss": "IBhuthani",
        "name:stq": "Bhutan",
        "name:su": "Butan",
        "name:sv": "Bhutan",
        "name:sw": "Bhutan",
        "name:szl": "Bhutan",
        "name:ta": "பூட்டான்",
        "name:te": "భూటాన్",
        "name:tg": "Подшоҳии Бутан",
        "name:th": "ประเทศภูฏาน",
        "name:tk": "Butan",
        "name:tl": "Butan",
        "name:tpi": "Bhutan",
        "name:tr": "Bhutan",
        "name:tt": "Бутан",
        "name:tw": "Butan",
        "name:tzl": "Bhutà",
        "name:udm": "Бутан",
        "name:ug": "بۇتان",
        "name:uk": "Бутан",
        "name:ur": "بھوٹان",
        "name:uz": "Butan podsholigi",
        "name:vi": "Bhutan",
        "name:vo": "Butän",
        "name:war": "Butan",
        "name:wo": "Butaan",
        "name:wuu": "不丹",
        "name:xal": "Бутанмудин Нутг",
        "name:yi": "בהוטאן",
        "name:yo": "Bhùtán",
        "name:zea": "Bhutan",
        "name:zh": "不丹",
        "name:zh-min-nan": "Bhutan",
        "name:zh-yue": "不丹",
        "official_name:cs": "Bhútánské království",
        "official_name:eo": "Reĝlando Butano",
        "official_name:pl": "Królestwo Bhutanu",
        "timezone": "Asia/Thimphu",
        "type": "boundary",
        "wikidata": "Q917",
        "wikipedia": "en:Bhutan",
        "@geometry": "center"
      },
      "geometry": {
        "type": "Point",
        "coordinates": [
          90.4358523,
          27.4745015
        ]
      },
      "id": "relation/184629"
    },
    {
      "type": "Feature",
      "properties": {
        "@id": "relation/184640",
        "ISO3166-1": "BD",
        "ISO3166-1:alpha2": "BD",
        "ISO3166-1:alpha3": "BGD",
        "ISO3166-1:numeric": "050",
        "admin_level": "2",
        "alt_name:ast": "Bangladesh",
        "alt_name:ceb": "Bangglades",
        "alt_name:es": "Bangladesh",
        "alt_name:gd": "Bangla Dais;Bangla-deis;Bangladeis",
        "alt_name:gl": "Bangladés",
        "alt_name:jv": "Banggaladésa",
        "alt_name:ku": "Bangladeş",
        "alt_name:la": "Bangladesa",
        "alt_name:ln": "Bángladɛ́sh",
        "alt_name:pt": "Bangladexe",
        "alt_name:qu": "Bangladesh",
        "alt_name:ro": "Bangladeș",
        "alt_name:so": "Bangladesh",
        "alt_name:sw": "Bangla Desh",
        "alt_name:zh": "孟加拉",
        "boundary": "administrative",
        "flag": "http://upload.wikimedia.org/wikipedia/commons/f/f9/Flag_of_Bangladesh.svg",
        "int_name": "Bangladesh",
        "is_in:continent": "Asia",
        "name": "বাংলাদেশ",
        "name:ace": "Bangladèsh",
        "name:ady": "Бангладеш",
        "name:af": "Bangladesj",
        "name:ak": "Bangladɛhye",
        "name:als": "Bangladesch",
        "name:am": "ባንግላዴሽ",
        "name:an": "Bangladesh",
        "name:ang": "Bængladesc",
        "name:ar": "بنغلاديش",
        "name:arz": "بانجلاديش",
        "name:as": "বাংলাদেশ",
        "name:ast": "Bangladex",
        "name:az": "Banqladeş",
        "name:azb": "بنقلادش",
        "name:ba": "Бангладе́ш",
        "name:bar": "Bangladesch",
        "name:bat-smg": "Bangladešos",
        "name:bcl": "Banglades",
        "name:be": "Бангладэ́ш",
        "name:be-tarask": "Банглядэ́ш",
        "name:bg": "Бангладеш",
        "name:bh": "बांग्लादेश",
        "name:bi": "Bangladesh",
        "name:bjn": "Bangladésh",
        "name:bm": "Bɛngiladɛsi",
        "name:bn": "বাংলাদেশ",
        "name:bo": "བྷང་ལ་རྡེ་ཤུ།",
        "name:bpy": "বাংলাদেশের",
        "name:br": "Bangladesh",
        "name:bs": "Bangladeš",
        "name:bxr": "Бангладеш",
        "name:ca": "Bangla Desh",
        "name:cbk-zam": "Bangladesh",
        "name:cdo": "Mâing-gă-lăk",
        "name:ce": "Бангладеш",
        "name:ceb": "Bangladesh",
        "name:chr": "ᏆᏂᎦᎵᏕᏍ",
        "name:ckb": "بەنگلادێش",
        "name:co": "Bangladesh",
        "name:crh": "Bangladeş",
        "name:cs": "Bangladéš",
        "name:csb": "Bangladesz",
        "name:cv": "Бангладеш",
        "name:cy": "Bangladesh",
        "name:da": "Bangladesh",
        "name:de": "Bangladesch",
        "name:diq": "Bengladeş",
        "name:dsb": "Bangladeš",
        "name:dty": "बंगलादेश",
        "name:dv": "ބަންގާޅު",
        "name:dz": "བངྒ་ལ་དེཤ",
        "name:el": "Μπανγκλαντές",
        "name:en": "Bangladesh",
        "name:eo": "Bangladeŝo",
        "name:es": "Bangladés",
        "name:et": "Bangladesh",
        "name:eu": "Bangladesh",
        "name:ext": "Bangladesh",
        "name:fa": "بنگلادش",
        "name:ff": "Banglaadees",
        "name:fi": "Bangladesh",
        "name:fiu-vro": "Bangladesh",
        "name:fo": "Bangladesj",
        "name:fr": "Bangladesh",
        "name:frp": "Banglladèch·e",
        "name:frr": "Bangladesch",
        "name:fur": "Bangladesh",
        "name:fy": "Bangladesj",
        "name:ga": "an Bhanglaidéis",
        "name:gag": "Bangladeş",
        "name:gan": "孟加拉",
        "name:gd": "Bangladais",
        "name:gl": "Bangladesh",
        "name:gn": "Vangyladẽ",
        "name:gom": "बांगलादेश",
        "name:gu": "બાંગ્લાદેશ",
        "name:gv": "yn Vangladesh",
        "name:ha": "Bangladash",
        "name:hak": "Men-kâ-lâ-koet",
        "name:haw": "Banagaladesa",
        "name:he": "בנגלדש",
        "name:hi": "बांग्लादेश",
        "name:hif": "Bangladesh",
        "name:hr": "Bangladeš",
        "name:hsb": "Bangladeš",
        "name:ht": "Bangladèch",
        "name:hu": "Banglades",
        "name:hy": "Բանգլադեշ",
        "name:ia": "Bangladesh",
        "name:id": "Bangladesh",
        "name:ie": "Bangladesh",
        "name:ilo": "Banglades",
        "name:io": "Bangladesh",
        "name:is": "Bangladess",
        "name:it": "Bangladesh",
        "name:ja": "バングラデシュ",
        "name:jam": "Banggladesh",
        "name:jbo": "begy'gu'e",
        "name:jv": "Bangladèsh",
        "name:ka": "ბანგლადეში",
        "name:kaa": "Bangladesh",
        "name:kab": "Bangladec",
        "name:kbp": "Paŋgɩladɛɛsɩ",
        "name:kg": "Bangladesh",
        "name:ki": "Bangladesh",
        "name:kk": "Бангладеш",
        "name:kl": "Bangladesh",
        "name:km": "បង់ក្លាដែស្ស",
        "name:kn": "ಬಾಂಗ್ಲಾದೇಶ",
        "name:ko": "방글라데시",
        "name:krc": "Бангладеш",
        "name:ks": "بَنٛگلادیش",
        "name:ksh": "Bangladesch",
        "name:ku": "Bengalistan",
        "name:kv": "Бангладеш",
        "name:kw": "Bangladesh",
        "name:ky": "Баңгладеш",
        "name:la": "Bangladesha",
        "name:lad": "Bangladesh",
        "name:lb": "Bangladesch",
        "name:lez": "Бангладеш",
        "name:lg": "Bangaladesi",
        "name:li": "Bangladesj",
        "name:lij": "Bangladesh",
        "name:lmo": "Bangladesh",
        "name:ln": "Bángaladɛ́si",
        "name:lo": "ບັງກະລາເທດ",
        "name:lrc": "بأنگئلادئش",
        "name:lt": "Bangladešas",
        "name:lv": "Bangladeša",
        "name:mai": "बंगलादेश",
        "name:mg": "Bangladesy",
        "name:mi": "Pākaratēhi",
        "name:mk": "Бангладеш",
        "name:ml": "ബംഗ്ലാദേശ്",
        "name:mn": "Бангладеш",
        "name:mr": "बांगलादेश",
        "name:ms": "Bangladesh",
        "name:mt": "Bangladexx",
        "name:my": "ဘင်္ဂလားဒေ့ရှ်နိုင်ငံ",
        "name:mzn": "بنگلادش",
        "name:na": "Bangradet",
        "name:nah": "Bangladex",
        "name:nds": "Bangladesch",
        "name:ne": "बंगलादेश",
        "name:new": "बंगलादेश",
        "name:nl": "Bangladesh",
        "name:nn": "Bangladesh",
        "name:no": "Bangladesh",
        "name:nov": "Bangladesh",
        "name:nv": "Bikéyah",
        "name:oc": "Bangladèsh",
        "name:olo": "Bangladeš",
        "name:om": "Baangilaadish",
        "name:or": "ବଙ୍ଗଳାଦେଶ",
        "name:os": "Бангладеш",
        "name:pa": "ਬੰਗਲਾਦੇਸ਼",
        "name:pam": "Banglades",
        "name:pap": "Bangladesh",
        "name:pi": "बंगलादेश",
        "name:pih": "Bangladash",
        "name:pl": "Bangladesz",
        "name:pms": "Bangladesh",
        "name:pnb": "بنگلہ دیش",
        "name:ps": "بنګله دېش",
        "name:pt": "Bangladeche",
        "name:qu": "Banladish",
        "name:rm": "Bangladesch",
        "name:rn": "Bangaladeshi",
        "name:ro": "Bangladesh",
        "name:roa-rup": "Bangladesh",
        "name:roa-tara": "Bangladesh",
        "name:ru": "Бангладе́ш",
        "name:rue": "Банґладеш",
        "name:rw": "Bangaladeshi",
        "name:sa": "बंगलादेशः",
        "name:sah": "Баҥладеш",
        "name:scn": "Bangladesci",
        "name:sco": "Bangladesh",
        "name:sd": "بنگلاديش",
        "name:se": "Bangladesh",
        "name:sg": "Bengladêshi",
        "name:sh": "Bangladeš",
        "name:si": "බංගලාදේශය",
        "name:simple": "Bangladesh",
        "name:sk": "Bangladéš",
        "name:sl": "Bangladeš",
        "name:sn": "Bangladeshi",
        "name:so": "Bangladhesh",
        "name:sq": "Bangladeshi",
        "name:sr": "Бангладеш",
        "name:ss": "iBhangladeshi",
        "name:stq": "Bangladesch",
        "name:su": "Bangladés",
        "name:sv": "Bangladesh",
        "name:sw": "Bangladesh",
        "name:szl": "Bangladesz",
        "name:ta": "வங்காளத்தேசம்",
        "name:te": "బంగ్లాదేశ్",
        "name:tet": "Bangladexe",
        "name:tg": "Бангладеш",
        "name:th": "บังกลาเทศ",
        "name:ti": "ባንግላዲሽ",
        "name:tk": "Bangladeş",
        "name:tl": "Bangglades",
        "name:to": "Pengilātesi",
        "name:tok": "ma Panla",
        "name:tpi": "Bangladesh",
        "name:tr": "Bangladeş",
        "name:tt": "Бангладеш",
        "name:tum": "Bangladesh",
        "name:tzl": "Bangladésch",
        "name:udm": "Бангладеш",
        "name:ug": "بانگلادېش",
        "name:uk": "Бангладе́ш",
        "name:ur": "بنگلہ دیش",
        "name:uz": "Bangladesh",
        "name:ve": "Bangladesh",
        "name:vec": "Bangladesh",
        "name:vep": "Bangladeš",
        "name:vi": "Băng-la-đét",
        "name:vo": "Bangladejän",
        "name:war": "Bangladesh",
        "name:wo": "Banglaades",
        "name:wuu": "孟加拉国",
        "name:xal": "Бенгалмудин",
        "name:xmf": "ბანგლადეში",
        "name:yi": "באנגלאדעש",
        "name:yo": "Bangladẹ́shì",
        "name:za": "Bangladesh",
        "name:zea": "Bangladesh",
        "name:zh": "孟加拉国",
        "name:zh-classical": "孟加拉國",
        "name:zh-min-nan": "Bangladesh",
        "name:zh-yue": "孟加拉國",
        "name:zh_pinyin": "Mèngjiālāguó",
        "name:zu": "Bangladesh",
        "official_name": "গণপ্রজাতন্ত্রী বাংলাদেশ",
        "official_name:ady": "Volksrepubliek van Bangladesj",
        "official_name:als": "Volksrepublik Bangladesch",
        "official_name:am": "ባንግላዴሽ ሕዝባዊ ሪፐብሊክ",
        "official_name:an": "Republica Popular de Bangladesh de Delwar Hasib",
        "official_name:ar": "جمهورية بنغلاديش الشعبية",
        "official_name:as": "গণপ্ৰজাতন্ত্ৰী বাংলাদেশ",
        "official_name:ast": "República Popular de Bangladex",
        "official_name:az": "Banqladeş Xalq Respublikası",
        "official_name:azb": "بنقلادش خالق جومهوریتی",
        "official_name:ba": "Бангладе́ш Халыҡ Республикаһы",
        "official_name:bar": "Volksrepublik Bangladesch",
        "official_name:be": "Наро́дная Рэспу́бліка Бангладэ́ш",
        "official_name:be-tarask": "Наро́дная Рэспу́бліка Банглядэ́ш",
        "official_name:bg": "Народна република Бангладеш",
        "official_name:bh": "पीपल्स रिपब्लिक ऑफ बांग्लादेश",
        "official_name:bjn": "Ripublik Rakyat Bangladesh",
        "official_name:bn": "গণপ্রজাতন্ত্রী বাংলাদেশ",
        "official_name:bo": "བྷང་ལ་རྡེ་ཤུ་མི་དམངས་སྤྱི་མཐུན་རྒྱལ་ཁབ",
        "official_name:bpy": "গণপ্রজাতন্ত্রী বাংলাদেশ",
        "official_name:br": "Republik pobl Bangladesh",
        "official_name:bs": "Narodna Republika Bangladeš",
        "official_name:bxr": "Бүгэдэ Найрамдаха Бангладеш Арад Улас",
        "official_name:ca": "República Popular Bangla Desh",
        "official_name:chr": "ᏴᏫ ᏍᎦᏚᎩ ᎾᎿ ᏆᏂᎦᎵᏕᏍ",
        "official_name:ckb": "کۆماری گەلی بەنگلادیش",
        "official_name:crh": "Bangladeş Halq Cumhuriyeti",
        "official_name:cs": "Bangladéšská lidová republika",
        "official_name:cv": "Бангладеш халăх республики",
        "official_name:cy": "Gweriniaeth Pobl Bangladesh",
        "official_name:da": "Folkerepublikken Bangladesh",
        "official_name:de": "Volksrepublik Bangladesch",
        "official_name:dsb": "Ludowa republika Bangladeš",
        "official_name:dty": "जनगणतान्त्रिक बंगलादेश",
        "official_name:el": "Λαϊκή Δημοκρατία του Μπανγκλαντές",
        "official_name:en": "People's Republic of Bangladesh",
        "official_name:eo": "Popolrespubliko de Bangladeŝo",
        "official_name:es": "República Popular de Bangladés",
        "official_name:et": "Bangladeshi Rahvavabariik",
        "official_name:eu": "Bangladeshko Herri Errepublika",
        "official_name:ext": "Repúbrica Populal de Bangladesh",
        "official_name:fa": "جمهوری خلق بَنْگِلادِش",
        "official_name:fi": "Bangladeshin kansantasavalta",
        "official_name:fiu-vro": "Bangladeshi Rahvavabariik",
        "official_name:fo": "Fólkalýðveldið Bangladesj",
        "official_name:fr": "République populaire du Bangladesh",
        "official_name:fur": "Republiche popolâr Bangladesh",
        "official_name:ga": "Daonphoblacht na Bangladéise",
        "official_name:gag": "Bangladeş Halk Respublikası",
        "official_name:gan": "孟加拉人民共和國",
        "official_name:gl": "República Popular de Bangladesh",
        "official_name:gn": "Vangyladẽ Tekoha Tetã",
        "official_name:gv": "Deynphobblaght ny Bangladesh",
        "official_name:ha": "Jamhuriyar jama'ar kasar Bangladash",
        "official_name:he": "הרפובליקה העממית של בנגלדש",
        "official_name:hi": "बांग्लादेश गणतन्त्र",
        "official_name:hif": "People's Republic of Bangladesh",
        "official_name:hr": "Narodna Republika Bangladeš",
        "official_name:hsb": "Ludowa republika Bangladeš",
        "official_name:hu": "Bangladesi Népi Köztársaság",
        "official_name:hy": "Բանգլադեշի Ժողովրդական Հանրապետություն",
        "official_name:id": "Republik Rakyat Bangladesh",
        "official_name:ilo": "Republika ti Tattao ti Banglades",
        "official_name:io": "Populala Republiko di Bangladesh",
        "official_name:is": "Alþýðulýðveldið Bangladess",
        "official_name:it": "Repubblica Popolare del Bangladesh",
        "official_name:ja": "バングラデシュ人民共和国",
        "official_name:jam": "Piiplz Ripoblik a Banggladesh",
        "official_name:jbo": "begygu'e.zei prenu gubyseltru",
        "official_name:ka": "ბანგლადეშის სახალხო რესპუბლიკა",
        "official_name:kaa": "Bangladesh Respublikasi",
        "official_name:kk": "Бангладеш Халық Республикасы",
        "official_name:km": "សាធារណរដ្ឋប្រជាជនបង់ក្លាដេស",
        "official_name:kn": "ಬಾಂಗ್ಲಾದೇಶದ ಜನ ಗಣತಂತ್ರ",
        "official_name:ko": "방글라데시 인민공화국",
        "official_name:krc": "Бангладеш Халкъ Республика",
        "official_name:kv": "Бангладеш Войтыр республика",
        "official_name:la": "Res Publica Popularis Bangladeshae",
        "official_name:lb": "Volleksrepublik Bangladesch",
        "official_name:lez": "Бангладеш Халкьдин Республика",
        "official_name:lo": "ສາທາລະນະລັດປະຊາຊົນບັງກະລາເທດ",
        "official_name:lrc": "کوٙمأرە ڤئلات خألک بأنگئلادئش",
        "official_name:lt": "Bangladešo Liaudies Respublika",
        "official_name:lv": "Bangladešas Tautas Republika",
        "official_name:mai": "जनगणतान्त्रिक बंगलादेश",
        "official_name:mk": "Народна Република Бангладеш",
        "official_name:ml": "പീപ്പിൾസ് റിപ്പബ്ലിക് ഓഫ് ബംഗ്ലാദേശ്",
        "official_name:mn": "Бүгд Найрамдах Бангладеш Ард Улс",
        "official_name:mr": "बांगलादेशाचे प्रजासत्ताक",
        "official_name:ms": "Republik Rakyat Bangladesh",
        "official_name:mt": "Repubblika Popolari tal-Bangladexx",
        "official_name:my": "ဘင်္ဂလားဒေရှ်ပြည်သူ့သမ္မတနိုင်ငံ",
        "official_name:nah": "Āltepēhuahcāyōtl Tlācatlahtohcāyōtl Bangladex",
        "official_name:ne": "जनगणतान्त्रिक बंगलादेश",
        "official_name:new": "जनतातेगु गणतन्त्र बंगलादेश",
        "official_name:nl": "Volksrepubliek Bangladesh",
        "official_name:no": "Folkerepublikken Bangladesh",
        "official_name:nv": "Haʼaʼaahjí Naakaii Dootłʼizhí Bikéyah",
        "official_name:oc": "Republica Populara de Bangladèsh",
        "official_name:olo": "Rahvahan Tazavaldu Bangladeš",
        "official_name:os": "Бангладешы адæмон республикæ",
        "official_name:pa": "ਬੰਗਲਾਦੇਸ਼ ਗਣਤੰਤਰ",
        "official_name:pam": "Pangmaldang Republika ning Banglades",
        "official_name:pl": "Ludowa Republika Bangladeszu",
        "official_name:ps": "خلکو جمهوري بنگله دېش",
        "official_name:pt": "República Popular do Bangladesh",
        "official_name:qu": "Banladish Runallaqta Ripuwlika",
        "official_name:ro": "Republica Populară Bangladesh",
        "official_name:roa-rup": "Republica Popularã Bangladesh",
        "official_name:roa-tara": "Repubbleche Populare d'u Bangladesh",
        "official_name:ru": "Наро́дная Респу́блика Бангладе́ш",
        "official_name:rue": "Банґладеська народна републіка",
        "official_name:sa": "जनानां बाङ्ग्लादेश-गणतन्त्रम्",
        "official_name:sah": "Баҥладеш Дьон Республиката",
        "official_name:sco": "Fowkrepublic o Bangladesh",
        "official_name:se": "Bangladesha álbmotdásseváldi",
        "official_name:sh": "Narodna Republika Bangladeš",
        "official_name:si": "බංගලාදේශ ජනතා සමූහාණ්ඩුව",
        "official_name:sk": "Bangladéšska ľudová republika",
        "official_name:sl": "Ljudska republika Bangladeš",
        "official_name:so": "Jamhuuriyadda shacabka Bangladesh",
        "official_name:sq": "Republika Popullore e Bangladeshit",
        "official_name:sr": "Народна Република Бангладеш",
        "official_name:su": "Républik Rahayat Bangladés",
        "official_name:sv": "Folkrepubliken Bangladesh",
        "official_name:sw": "Jamhuri ya Watu wa Bangladesh",
        "official_name:szl": "Ludowo Republika Bangladeszu",
        "official_name:ta": "வங்காளத்தேச மக்கள் குடியரசு",
        "official_name:te": "బంగ్లాదేశ్ ప్రజా గణతంత్రం",
        "official_name:tet": "Repúblika Populár Bangladexe niam",
        "official_name:th": "สาธารณรัฐประชาชนบังกลาเทศ",
        "official_name:tk": "Bangladeş Halk Respublikasy",
        "official_name:tl": "Republikang Bayan ng Bangladesh",
        "official_name:tr": "Bangladeş Halk Cumhuriyeti",
        "official_name:tt": "Бангладеш Халык Җөмһүрияте",
        "official_name:uk": "Наро́дна Респу́бліка Бангладе́ш",
        "official_name:ur": "عوامی جمہوریہ بنگلہ دیش",
        "official_name:uz": "Bangladesh Xalq Respublikasi",
        "official_name:vec": "Republica Popolare del Bangladesh",
        "official_name:vep": "Bangladešan Rahvahaline Tazovaldkund",
        "official_name:vi": "Cộng hoà Nhân dân Bangladesh",
        "official_name:xal": "Бенгалмудин Улс Орн",
        "official_name:xmf": "ბანგლადეშიშ ოკათე რესპუბლიკა",
        "official_name:yi": "פֿאלקס רעפובליק פֿון באנגלאדעש",
        "official_name:yo": "Olominira Araalu ile Bangladesh",
        "official_name:zh": "孟加拉人民共和国",
        "official_name:zh-classical": "孟加拉人民共和國",
        "official_name:zh-min-nan": "Bangladesh Jîn-bîn Kiōng-hô-kok",
        "old_name": "পূর্ব পাকিস্তান",
        "old_name:als": "Oschtpakistan",
        "old_name:an": "Pakistán Oriental",
        "old_name:ang": "Ēast Pacistan",
        "old_name:az": "Şərqi Pakistan",
        "old_name:bar": "Ostpakistan",
        "old_name:bn": "পূর্ব পাকিস্তান",
        "old_name:bs": "Istočni Pakistan",
        "old_name:ca": "Pakistan Oriental",
        "old_name:ceb": "East Pakistan",
        "old_name:cs": "Východní Pákistán",
        "old_name:cy": "Dwyrain Pacistan",
        "old_name:da": "Østpakistan",
        "old_name:de": "Ostpakistan",
        "old_name:dsb": "Pódzajtšny Pakistan",
        "old_name:el": "Ανατολικό Πακιστάν",
        "old_name:eo": "Orientpakistano",
        "old_name:es": "Pakistán Oriental",
        "old_name:fi": "Itä-Pakistanin",
        "old_name:fo": "Eysturpakistan",
        "old_name:fr": "Pakistan oriental",
        "old_name:ga": "Bhain Oirthear na Pacastáine",
        "old_name:gl": "Paquistán Oriental",
        "old_name:he": "מזרח פקיסטן",
        "old_name:hif": "East Pakistan",
        "old_name:hsb": "Wuchodny Pakistan",
        "old_name:hu": "Kelet-Pakisztánra",
        "old_name:ia": "Pakistan Oriental",
        "old_name:id": "Pakistan Timur",
        "old_name:io": "Estala Pakistan",
        "old_name:is": "Austur-Pakistan",
        "old_name:it": "Pakistan orientale",
        "old_name:ko": "동파키스탄",
        "old_name:li": "Oos-Pakistan",
        "old_name:lt": "Rytų Pakistanu",
        "old_name:ms": "Pakistan Timur",
        "old_name:nds": "Ostpakistan",
        "old_name:nl": "Oost-Pakistan",
        "old_name:nn": "Aust-Pakistan",
        "old_name:no": "Øst-Pakistan",
        "old_name:oc": "Paquistan Orientau",
        "old_name:pl": "Pakistan Wschodni",
        "old_name:pt": "Paquistão Oriental",
        "old_name:ro": "Pakistanul de Est",
        "old_name:sh": "Istočni Pakistan",
        "old_name:sk": "Východný Pakistan",
        "old_name:sq": "Pakistanin-Lindorë",
        "old_name:su": "Pakistan Wétan",
        "old_name:sv": "Östpakistan",
        "old_name:sw": "Pakistan ya Mashariki",
        "old_name:tr": "Doğu Pakistan",
        "old_name:vi": "Đông Pakistan",
        "timezone": "Asia/Dhaka",
        "type": "boundary",
        "wikidata": "Q902",
        "wikipedia": "bn:বাংলাদেশ",
        "@geometry": "center"
      },
      "geometry": {
        "type": "Point",
        "coordinates": [
          90.3440143,
          23.5069558
        ]
      },
      "id": "relation/184640"
    },
    {
      "type": "Feature",
      "properties": {
        "@id": "relation/186382",
        "ISO3166-1": "BG",
        "ISO3166-1:alpha2": "BG",
        "ISO3166-1:alpha3": "BGR",
        "ISO3166-1:numeric": "100",
        "admin_level": "2",
        "alt_name:eo": "Bulgario",
        "boundary": "administrative",
        "flag": "http://upload.wikimedia.org/wikipedia/commons/9/9a/Flag_of_Bulgaria.svg",
        "int_name": "Bulgaria",
        "is_in:continent": "Europe",
        "name": "България",
        "name:ab": "Былгариа",
        "name:ace": "Bulgaria",
        "name:af": "Bulgarye",
        "name:als": "Bulgarien",
        "name:am": "ቡልጋሪያ",
        "name:an": "Bulgaria",
        "name:ang": "Pulgaraland",
        "name:ar": "بلغاريا",
        "name:arc": "ܒܘܠܓܐܪܝܐ",
        "name:arz": "بلجاريا",
        "name:ast": "Bulgaria",
        "name:ay": "Bulkariya",
        "name:az": "Bolqarıstan",
        "name:ba": "Болгария",
        "name:bar": "Bulgarien",
        "name:bat-smg": "Bulgarėjė",
        "name:bcl": "Bulgarya",
        "name:be": "Балгарыя",
        "name:be-tarask": "Баўгарыя",
        "name:bg": "България",
        "name:bi": "Bulgaria",
        "name:bn": "বুলগেরিয়া",
        "name:bo": "པུ་ར་ག་རི་ཡ།",
        "name:bpy": "বুলগেরিয়া",
        "name:br": "Bulgaria",
        "name:bs": "Bugarska",
        "name:bxr": "Болгар",
        "name:ca": "Bulgària",
        "name:cdo": "Bō̤-gă-lê-ā",
        "name:ce": "Болгари",
        "name:ceb": "Bulgaria",
        "name:ckb": "بولگاریا",
        "name:co": "Bulgaria",
        "name:crh": "Bulğaristan",
        "name:cs": "Bulharsko",
        "name:csb": "Bùlgarskô",
        "name:cu": "Блъгарїꙗ",
        "name:cv": "Тăнайçи Пăлхарĕ",
        "name:cy": "Bwlgaria",
        "name:da": "Bulgarien",
        "name:de": "Bulgarien",
        "name:diq": "Bulğarıstan",
        "name:dsb": "Bulgarska",
        "name:dv": "ބަލްގޭރިއާ",
        "name:ee": "Bulgaria",
        "name:el": "Βουλγαρία",
        "name:eml": "Bulgarî",
        "name:en": "Bulgaria",
        "name:eo": "Bulgarujo",
        "name:es": "Bulgaria",
        "name:et": "Bulgaaria",
        "name:eu": "Bulgaria",
        "name:ext": "Bulgária",
        "name:fa": "بلغارستان",
        "name:ff": "Bulgariya",
        "name:fi": "Bulgaria",
        "name:fiu-vro": "Bulgaaria",
        "name:fo": "Bulgaria",
        "name:fr": "Bulgarie",
        "name:frp": "Bulgarie",
        "name:frr": "Bulgarien",
        "name:fur": "Bulgarie",
        "name:fy": "Bulgarije",
        "name:ga": "An Bhulgáir",
        "name:gag": "Bulgariya",
        "name:gd": "Bulgàiria",
        "name:gl": "Bulgaria - България",
        "name:gn": "Vugaria",
        "name:gu": "બલ્ગેરિયા",
        "name:gv": "Yn Vulgeyr",
        "name:hak": "Pó-kâ-li-â",
        "name:haw": "Pulukalia",
        "name:he": "בולגריה",
        "name:hi": "बुल्गारिया",
        "name:hif": "Bulgaria",
        "name:hr": "Bugarska",
        "name:hsb": "Bołharska",
        "name:ht": "Bilgari",
        "name:hu": "Bulgária",
        "name:hy": "Բուլղարիա",
        "name:ia": "Bulgaria",
        "name:id": "Bulgaria",
        "name:ie": "Bulgaria",
        "name:ilo": "Bulgaria",
        "name:io": "Bulgaria",
        "name:is": "Búlgaría",
        "name:it": "Bulgaria",
        "name:ja": "ブルガリア",
        "name:jbo": "bylgAri,as",
        "name:jv": "Bulgaria",
        "name:ka": "ბულგარეთი",
        "name:kaa": "Bolgariya",
        "name:kbd": "Болгариэ",
        "name:kg": "Balgaria",
        "name:kk": "Болгария",
        "name:kl": "Bulgaria",
        "name:kn": "ಬಲ್ಗೇರಿಯ",
        "name:ko": "불가리아",
        "name:koi": "Бӧлгария",
        "name:krc": "Болгария",
        "name:ksh": "Bulgarije",
        "name:ku": "Bulgaristan",
        "name:kv": "Болгария",
        "name:kw": "Bulgari",
        "name:ky": "Болгария",
        "name:la": "Bulgaria",
        "name:lad": "Bulgaria",
        "name:lb": "Bulgarien",
        "name:li": "Bölgarije",
        "name:lij": "Burgaja",
        "name:lmo": "Bülgaria",
        "name:ln": "Bulgaria",
        "name:lt": "Bulgarija",
        "name:ltg": "Bulgareja",
        "name:lv": "Bulgārija",
        "name:mdf": "Болгарие",
        "name:mhr": "Болгарий",
        "name:mi": "Purukāria",
        "name:mk": "Бугарија",
        "name:ml": "ബൾഗേറിയ",
        "name:mn": "Болгар",
        "name:mr": "बल्गेरिया",
        "name:mrj": "Болгари",
        "name:ms": "Bulgaria",
        "name:mt": "Bulgarija",
        "name:mwl": "Bulgária",
        "name:my": "ဘူလ်ဂေးရီးယားနိုင်ငံ",
        "name:myv": "Болгария Мастор",
        "name:na": "Borgeriya",
        "name:nah": "Bulgaria",
        "name:nap": "Bulgaria",
        "name:nds": "Bulgarien",
        "name:nds-nl": "Bulgarije",
        "name:ne": "बुल्गेरिया",
        "name:new": "बुल्गेरिया",
        "name:nl": "Bulgarije",
        "name:nn": "Bulgaria",
        "name:no": "Bulgaria",
        "name:nov": "Bulgaria",
        "name:nrm": "Bulgarie",
        "name:nv": "Bálgaa Bikéyah",
        "name:oc": "Bulgaria",
        "name:or": "ବୁଲଗାରିଆ",
        "name:os": "Болгари",
        "name:pa": "ਬੁਲਗਾਰੀਆ",
        "name:pam": "Bulgaria",
        "name:pap": "Bulgaria",
        "name:pcd": "Bulgarie",
        "name:pdc": "Bulgarien",
        "name:pfl": "Bulgarije",
        "name:pih": "Bulgeriya",
        "name:pl": "Bułgaria",
        "name:pms": "Bulgarìa",
        "name:pnb": "بلغاریہ",
        "name:pnt": "Βουλγαρία",
        "name:ps": "بلغاریا",
        "name:pt": "Bulgária",
        "name:qu": "Bulgarya",
        "name:rm": "Bulgaria",
        "name:rmy": "Bulgariya",
        "name:rn": "Bulgaria",
        "name:ro": "Bulgaria",
        "name:roa-rup": "Vurgaria",
        "name:roa-tara": "Bulgarie",
        "name:ru": "Болгария",
        "name:rue": "Булгарія",
        "name:rw": "Bulugariya",
        "name:sa": "बुल्गारिया",
        "name:sah": "Болгария",
        "name:sc": "Bulgaria",
        "name:scn": "Bulgarìa",
        "name:sco": "Bulgarie",
        "name:se": "Bulgária",
        "name:sh": "Bugarska",
        "name:sk": "Bulharsko",
        "name:sl": "Bolgarija",
        "name:sm": "Bultalia",
        "name:so": "Bulgaria",
        "name:sq": "Bullgaria",
        "name:sr": "Бугарска",
        "name:sr-Latn": "Bugarska",
        "name:srn": "Bulgarikondre",
        "name:ss": "IBhulgariya",
        "name:stq": "Bulgarien",
        "name:su": "Bulgaria",
        "name:sv": "Bulgarien",
        "name:sw": "Bulgaria",
        "name:szl": "Bułgaryjo",
        "name:ta": "பல்காரியா",
        "name:te": "బల్గేరియా",
        "name:tet": "Bulgária",
        "name:tg": "Булғористон",
        "name:th": "ประเทศบัลแกเรีย",
        "name:tk": "Bolgariýa",
        "name:tl": "Bulgarya",
        "name:tok": "ma Pokasi",
        "name:tpi": "Balgeria",
        "name:tr": "Bulgaristan",
        "name:tt": "Болгария",
        "name:tzl": "Bülgaria",
        "name:udm": "Болгария",
        "name:ug": "بۇلغارىيە",
        "name:uk": "Болгарія",
        "name:ur": "بلغاریہ",
        "name:uz": "Bolgariya",
        "name:vec": "Bulgaria",
        "name:vep": "Bolgarii",
        "name:vi": "Bulgaria",
        "name:vls": "Bulgareye",
        "name:vo": "Bulgarän",
        "name:wa": "Bulgåreye",
        "name:war": "Bulgarya",
        "name:wo": "Bulgaari",
        "name:wuu": "保加利亚",
        "name:xal": "Болгармудин Орн",
        "name:xmf": "ბულგარეთი",
        "name:yi": "בולגאריע",
        "name:yo": "Bùlgáríà",
        "name:zea": "Bulharije",
        "name:zh": "保加利亚",
        "name:zh-classical": "保加利亞",
        "name:zh-min-nan": "Bulgariya",
        "name:zh-yue": "保加利亞",
        "name:zu": "IBulgariya",
        "official_name": "Република България",
        "official_name:cs": "Bulharská republika",
        "official_name:el": "Δημοκρατία της Βουλγαρίας",
        "official_name:eo": "Bulgara Respubliko",
        "timezone": "Europe/Sofia",
        "type": "boundary",
        "wikidata": "Q219",
        "wikipedia": "en:Bulgaria",
        "@geometry": "center"
      },
      "geometry": {
        "type": "Point",
        "coordinates": [
          25.6223434,
          42.7258402
        ]
      },
      "id": "relation/186382"
    },
    {
      "type": "Feature",
      "properties": {
        "@id": "relation/192783",
        "ISO3166-1": "BF",
        "ISO3166-1:alpha2": "BF",
        "ISO3166-1:alpha3": "BFA",
        "ISO3166-1:numeric": "854",
        "admin_level": "2",
        "boundary": "administrative",
        "currency": "XOF",
        "flag": "http://upload.wikimedia.org/wikipedia/commons/3/31/Flag_of_Burkina_Faso.svg",
        "is_in": "Africa",
        "is_in:continent": "Africa",
        "name": "Burkina Faso",
        "name:ace": "Burkina Faso",
        "name:af": "Burkina Faso",
        "name:als": "Burkina Faso",
        "name:am": "ቡርኪና ፋሶ",
        "name:an": "Burkina Faso",
        "name:ang": "Burkina Faso",
        "name:ar": "بوركينا فاسو",
        "name:arz": "بوركينا فاسو",
        "name:ast": "Burkina Fasu",
        "name:az": "Burkina-Faso",
        "name:bat-smg": "Borkėna Fasos",
        "name:bcl": "Burkina Faso",
        "name:be": "Буркіна-Фасо",
        "name:be-tarask": "Буркіна-Фасо",
        "name:bg": "Буркина Фасо",
        "name:bjn": "Burkina Paso",
        "name:bm": "Burkina Faso",
        "name:bn": "বুর্কিনা ফাসো",
        "name:bo": "བུར་ཀི་ན་ཕ་སོ།",
        "name:bpy": "বুর্কিনা ফাসো",
        "name:br": "Burkina Faso",
        "name:bs": "Burkina Faso",
        "name:bxr": "Буркино-Фасо",
        "name:ca": "Burkina Faso",
        "name:ce": "Буркина Фасо",
        "name:ceb": "Burkina Faso",
        "name:ckb": "بورکینافاسۆ",
        "name:crh": "Burkina Faso",
        "name:cs": "Burkina Faso",
        "name:cv": "Буркина Фасо",
        "name:cy": "Burkina Faso",
        "name:da": "Burkina Faso",
        "name:de": "Burkina Faso",
        "name:diq": "Burkina Faso",
        "name:dsb": "Burkina Faso",
        "name:dv": "ބުރުކީނާ ފާސޯ",
        "name:ee": "Burkina Faso",
        "name:el": "Μπουρκίνα Φάσο",
        "name:en": "Burkina Faso",
        "name:eo": "Burkino",
        "name:es": "Burkina Faso",
        "name:et": "Burkina Faso",
        "name:eu": "Burkina Faso",
        "name:ext": "Burquina Fasu",
        "name:fa": "بورکینافاسو",
        "name:ff": "Burkina Faso",
        "name:fi": "Burkina Faso",
        "name:fiu-vro": "Burkina Faso",
        "name:fo": "Burkina Faso",
        "name:fr": "Burkina Faso",
        "name:frp": "Burkina Fasô",
        "name:fy": "Bûrkina Faso",
        "name:ga": "Buircíne Fasó",
        "name:gag": "Burkina Faso",
        "name:gd": "Buirciona Faso",
        "name:gl": "Burquina Faso",
        "name:gv": "Burkina Faso",
        "name:ha": "Burkina faso",
        "name:haw": "Burakina Faso",
        "name:he": "בורקינה פאסו",
        "name:hi": "बुर्किना फासो",
        "name:hif": "Burkina Faso",
        "name:hr": "Burkina Faso",
        "name:hsb": "Burkina Faso",
        "name:ht": "Boukinafaso",
        "name:hu": "Burkina Faso",
        "name:hy": "Բուրկինա Ֆասո",
        "name:ia": "Burkina Faso",
        "name:id": "Burkina Faso",
        "name:ie": "Burkina Faso",
        "name:ig": "Burkina Faso",
        "name:ilo": "Burkina Faso",
        "name:io": "Burkina Faso",
        "name:is": "Búrkína Fasó",
        "name:it": "Burkina Faso",
        "name:ja": "ブルキナファソ",
        "name:jbo": "burkinas fasos",
        "name:jv": "Burkina Faso",
        "name:ka": "ბურკინა-ფასო",
        "name:kaa": "Burkina Faso",
        "name:kg": "Burkina Faso",
        "name:kk": "Буркина-Фасо",
        "name:kn": "ಬುರ್ಕೀನ ಫಾಸೊ",
        "name:ko": "부르키나파소",
        "name:ku": "Burkîna Faso",
        "name:kw": "Burkina Faso",
        "name:ky": "Буркина Фасо",
        "name:la": "Burkina",
        "name:lb": "Burkina Faso",
        "name:li": "Burkina Faso",
        "name:lij": "Bòrkinn-a Fäso",
        "name:lmo": "Burkina Faso",
        "name:ln": "Burkina Faso",
        "name:lt": "Burkina Fasas",
        "name:lv": "Burkinafaso",
        "name:min": "Burkina Faso",
        "name:mk": "Буркина Фасо",
        "name:ml": "ബർക്കിനാ ഫാസോ",
        "name:mr": "बर्किना फासो",
        "name:mrj": "Буркина Фасо",
        "name:ms": "Burkina Faso",
        "name:mt": "Burkina Faso",
        "name:my": "ဘာကီးနားဖားဆိုနိုင်ငံ",
        "name:na": "Burkinabato",
        "name:nah": "Burquina Faso",
        "name:nds": "Burkina Faso",
        "name:ne": "बुर्किना फासो",
        "name:new": "बुर्किना फासो",
        "name:nl": "Burkina Faso",
        "name:nn": "Burkina Faso",
        "name:no": "Burkina Faso",
        "name:nov": "Burkina Faso",
        "name:nso": "Burkina Faso",
        "name:oc": "Burkina Faso",
        "name:or": "ବୁରକିନା ଫାସୋ",
        "name:os": "Буркина Фасо",
        "name:pa": "ਬੁਰਕੀਨਾ ਫ਼ਾਸੋ",
        "name:pam": "Burkina Faso",
        "name:pih": "Burkina Faso",
        "name:pl": "Burkina Faso",
        "name:pms": "Burkina Faso",
        "name:pnb": "برکینا فاسو",
        "name:ps": "بورکینا فاسو",
        "name:pt": "Burkina Faso",
        "name:qu": "Burkina Phasu",
        "name:rm": "Burkina Faso",
        "name:ro": "Burkina Faso",
        "name:ru": "Буркина Фасо",
        "name:rue": "Буркіна Фасо",
        "name:rw": "Burukina Faso",
        "name:sa": "बुर्कीना-फासो",
        "name:sah": "Буркина Фасо",
        "name:sc": "Burkina Faso",
        "name:scn": "Burchina Fasu",
        "name:sco": "Burkina Faso",
        "name:se": "Burkina Faso",
        "name:sg": "Burkina Faso",
        "name:sh": "Burkina Faso",
        "name:sk": "Burkina Faso",
        "name:sl": "Burkina Faso",
        "name:sn": "Burkina Faso",
        "name:so": "Burkina Faso",
        "name:sq": "Burkina Faso",
        "name:sr": "Буркина Фасо",
        "name:ss": "IBhukhina-Faso",
        "name:st": "Burkina Faso",
        "name:stq": "Burkina Faso",
        "name:su": "Burkina Faso",
        "name:sv": "Burkina Faso",
        "name:sw": "Burkina Faso",
        "name:szl": "Burkina Faso",
        "name:ta": "புர்க்கினா பாசோ",
        "name:te": "బర్కీనా ఫాసో",
        "name:tg": "Буркина Фасо",
        "name:th": "ประเทศบูร์กินาฟาโซ",
        "name:tk": "Burkina-Faso",
        "name:tl": "Burkina Faso",
        "name:tr": "Burkina Faso",
        "name:ts": "Burkina Faso",
        "name:tt": "Буркина Фасо",
        "name:tzl": "Burkina-Faso",
        "name:ug": "بۇركىنا فاسو",
        "name:uk": "Буркіна-Фасо",
        "name:ur": "برکینا فاسو",
        "name:uz": "Burkina Faso",
        "name:vec": "Burkina Faso",
        "name:vi": "Burkina Faso",
        "name:vo": "Burkinän",
        "name:war": "Burkina Faso",
        "name:wo": "Burkinaa Faaso",
        "name:xal": "Буркинапасин Орн",
        "name:yi": "בורקינע פאסא",
        "name:yo": "Bùrkínà Fasò",
        "name:zh": "布吉納法索",
        "name:zh-min-nan": "Burkina Faso",
        "name:zh-yue": "布基納法索",
        "name:zu": "IBukhina Faso",
        "old_name": "Haute-Volta",
        "timezone": "Africa/Ouagadougou",
        "type": "boundary",
        "wikidata": "Q965",
        "wikipedia": "fr:Burkina Faso",
        "@geometry": "center"
      },
      "geometry": {
        "type": "Point",
        "coordinates": [
          -1.5521349,
          12.2472359
        ]
      },
      "id": "relation/192783"
    },
    {
      "type": "Feature",
      "properties": {
        "@id": "relation/192784",
        "ISO3166-1": "BJ",
        "ISO3166-1:alpha2": "BJ",
        "ISO3166-1:alpha3": "BEN",
        "ISO3166-1:numeric": "204",
        "admin_level": "2",
        "boundary": "administrative",
        "currency": "XOF",
        "flag": "http://upload.wikimedia.org/wikipedia/commons/0/0a/Flag_of_Benin.svg",
        "is_in:continent": "Africa",
        "name": "Bénin",
        "name:ace": "Benin",
        "name:af": "Benin",
        "name:als": "Benin",
        "name:am": "ቤኒን",
        "name:an": "Benín",
        "name:ar": "بنين",
        "name:arz": "بينين",
        "name:ast": "Benín",
        "name:az": "Benin",
        "name:ba": "Бенин",
        "name:bat-smg": "Benins",
        "name:bcl": "Benin",
        "name:be": "Бенін",
        "name:be-tarask": "Бэнін",
        "name:bg": "Бенин",
        "name:bjn": "Benin",
        "name:bm": "Benin",
        "name:bn": "বেনিন",
        "name:bo": "བེ་ནིན།",
        "name:bpy": "বেনিন",
        "name:br": "Benin",
        "name:bs": "Benin",
        "name:bxr": "Бенин",
        "name:ca": "Benín",
        "name:ce": "Бенин",
        "name:ceb": "Benin",
        "name:ckb": "بێنین",
        "name:crh": "Benin",
        "name:cs": "Benin",
        "name:cv": "Бенин",
        "name:cy": "Benin",
        "name:da": "Benin",
        "name:de": "Benin",
        "name:diq": "Benin",
        "name:dsb": "Benin",
        "name:dv": "ބެނީން",
        "name:dz": "བཱེ་ནིན།",
        "name:ee": "Benin",
        "name:el": "Μπενίν",
        "name:en": "Benin",
        "name:eo": "Benino",
        "name:es": "Benín",
        "name:et": "Benin",
        "name:eu": "Benin",
        "name:ext": "Benín",
        "name:fa": "بنین",
        "name:fi": "Benin",
        "name:fiu-vro": "Benin",
        "name:fo": "Benin",
        "name:fr": "Bénin",
        "name:frp": "Bènin",
        "name:fy": "Benyn",
        "name:ga": "Beinin",
        "name:gag": "Benin",
        "name:gd": "Beinin",
        "name:gl": "República de Benín",
        "name:gu": "બેનિન",
        "name:gv": "Benin",
        "name:ha": "Benin",
        "name:he": "בנין",
        "name:hi": "बेनिन",
        "name:hif": "Benin",
        "name:hr": "Benin",
        "name:hsb": "Benin",
        "name:ht": "Benen",
        "name:hu": "Benin",
        "name:hy": "Բենին",
        "name:ia": "Benin",
        "name:id": "Benin",
        "name:ie": "Benin",
        "name:ig": "Benin",
        "name:ilo": "Benin",
        "name:io": "Benin",
        "name:is": "Benín",
        "name:it": "Benin",
        "name:ja": "ベナン",
        "name:jbo": "benin",
        "name:jv": "Benin",
        "name:ka": "ბენინი",
        "name:kaa": "Benin",
        "name:kg": "Benin",
        "name:kn": "ಬೆನಿನ್",
        "name:ko": "베냉",
        "name:ku": "Bênîn",
        "name:kw": "Benin",
        "name:ky": "Бенин",
        "name:la": "Beninum",
        "name:lb": "Benin",
        "name:li": "Benin",
        "name:lij": "Benin",
        "name:lmo": "Benin",
        "name:ln": "Bénin",
        "name:lt": "Beninas",
        "name:lv": "Benina",
        "name:mg": "Benina",
        "name:min": "Benin",
        "name:mk": "Бенин",
        "name:ml": "ബെനിൻ",
        "name:mn": "Бенин",
        "name:mr": "बेनिन",
        "name:mrj": "Бенин",
        "name:ms": "Benin",
        "name:mt": "Benin",
        "name:my": "ဘီနင်နိုင်ငံ",
        "name:mzn": "بنین",
        "name:na": "Benin",
        "name:nah": "Benin",
        "name:nds": "Benin",
        "name:ne": "बेनिन",
        "name:new": "बेनिन",
        "name:nl": "Benin",
        "name:nn": "Benin",
        "name:no": "Benin",
        "name:nov": "Benin",
        "name:nso": "Benin",
        "name:oc": "Benin",
        "name:or": "ବେନିନ",
        "name:os": "Бенин",
        "name:pa": "ਬੇਨਿਨ",
        "name:pam": "Benin",
        "name:pdc": "Benin",
        "name:pih": "Benin",
        "name:pl": "Benin",
        "name:pms": "Benin",
        "name:pnb": "بنین",
        "name:ps": "بېنين",
        "name:pt": "Benim",
        "name:qu": "Binin",
        "name:rm": "Benin",
        "name:ro": "Benin",
        "name:roa-rup": "Benin",
        "name:ru": "Бенин",
        "name:rue": "Бенін",
        "name:rw": "Bene",
        "name:sa": "बेनिन्",
        "name:sah": "Бенин",
        "name:sc": "Benin",
        "name:scn": "Benin",
        "name:sco": "Benin",
        "name:se": "Benin",
        "name:sg": "Benëen",
        "name:sh": "Benin",
        "name:sk": "Benin",
        "name:sl": "Benin",
        "name:sn": "Benin",
        "name:so": "Benin",
        "name:sq": "Benini",
        "name:sr": "Бенин",
        "name:ss": "IBhenini",
        "name:st": "Benin",
        "name:stq": "Benin",
        "name:su": "Bénin",
        "name:sv": "Benin",
        "name:sw": "Benin",
        "name:szl": "Byńin",
        "name:ta": "பெனின்",
        "name:te": "బెనిన్",
        "name:tg": "Бенин",
        "name:th": "ประเทศเบนิน",
        "name:ti": "ቤኒን",
        "name:tk": "Benin",
        "name:tl": "Benin",
        "name:tr": "Benin",
        "name:ts": "Benin",
        "name:tt": "Бенин",
        "name:udm": "Бенин",
        "name:ug": "بېنىن",
        "name:uk": "Бенін",
        "name:ur": "بینن",
        "name:uz": "Benin",
        "name:vec": "Benin",
        "name:vi": "Bénin",
        "name:vo": "Beninän",
        "name:war": "Benin",
        "name:wo": "Bene",
        "name:wuu": "贝宁",
        "name:xal": "Бенинмудин Орн",
        "name:yi": "בענין",
        "name:yo": "Benin",
        "name:zh": "贝宁",
        "name:zh-min-nan": "Bénin",
        "name:zh-yue": "貝寧",
        "name:zu": "IBenini",
        "official_name:cs": "Beninská republika",
        "timezone": "Africa/Porto-Novo",
        "type": "boundary",
        "wikidata": "Q962",
        "wikipedia": "fr:Bénin",
        "@geometry": "center"
      },
      "geometry": {
        "type": "Point",
        "coordinates": [
          2.310005,
          9.2245572
        ]
      },
      "id": "relation/192784"
    },
    {
      "type": "Feature",
      "properties": {
        "@id": "relation/195269",
        "ISO3166-1": "BI",
        "ISO3166-1:alpha2": "BI",
        "ISO3166-1:alpha3": "BDI",
        "ISO3166-1:numeric": "108",
        "admin_level": "2",
        "boundary": "administrative",
        "flag": "http://upload.wikimedia.org/wikipedia/commons/5/50/Flag_of_Burundi.svg",
        "is_in:continent": "Africa",
        "name": "Burundi",
        "name:cs": "Burundi",
        "name:de": "Burundi",
        "name:en": "Burundi",
        "name:eo": "Burundo",
        "name:fr": "Burundi",
        "name:fy": "Boerûndy",
        "name:hr": "Burundi",
        "name:jbo": "burundis",
        "name:nl": "Burundi",
        "name:pt": "Burundi",
        "name:ru": "Бурунди",
        "name:sk": "Burundi",
        "name:sv": "Burundi",
        "name:ta": "புருண்டி",
        "name:tzl": "Burundì",
        "name:uk": "Бурунді",
        "name:uz": "Burundi",
        "name:vo": "Rundiyän",
        "official_name:cs": "Burundská republika",
        "official_name:eo": "Respubliko Burundo",
        "timezone": "Africa/Bujumbura",
        "type": "boundary",
        "wikidata": "Q967",
        "wikipedia": "en:Burundi",
        "@geometry": "center"
      },
      "geometry": {
        "type": "Point",
        "coordinates": [
          29.9252932,
          -3.3894975
        ]
      },
      "id": "relation/195269"
    },
    {
      "type": "Feature",
      "properties": {
        "@id": "relation/378734",
        "ISO3166-1": "BH",
        "ISO3166-1:alpha2": "BH",
        "ISO3166-1:alpha3": "BHR",
        "ISO3166-1:numeric": "048",
        "admin_level": "2",
        "alt_name:as": "কিংডম অৱ বাহৰেইন",
        "alt_name:ast": "Baḥréin",
        "alt_name:bar": "Bahrein",
        "alt_name:ckb": "بەحرێن",
        "alt_name:de": "Bahrein",
        "alt_name:es": "Bahréin",
        "alt_name:gd": "Bairean;Bairèin;Bahrain",
        "alt_name:gl": "Bahrain",
        "alt_name:gn": "Tetã Varáĩ",
        "alt_name:it": "Bahrain",
        "alt_name:new": "बहराइन",
        "alt_name:pt": "Barém;Barein;Bareine",
        "alt_name:rw": "Bahrayeni",
        "alt_name:sv": "Bahrein",
        "alt_name:ta": "பஹரைன்",
        "alt_name:tl": "Bahrein",
        "alt_name:vec": "Bahrain",
        "alt_name:war": "Bahrain",
        "alt_name:yo": "Bahrain",
        "boundary": "administrative",
        "flag": "http://upload.wikimedia.org/wikipedia/commons/2/2c/Flag_of_Bahrain.svg",
        "int_name": "al-Baḥrayn",
        "is_in:continent": "Asia",
        "name": "‏البحرين‎",
        "name:ace": "Bahrain",
        "name:ady": "Бахрейн",
        "name:af": "Bahrein",
        "name:ak": "Baren",
        "name:als": "Bahrain",
        "name:am": "ባሕሬን",
        "name:an": "Bahrein",
        "name:ang": "Bahrain",
        "name:ar": "‏البحرين‎",
        "name:arc": "ܒܚܪܝܢ",
        "name:arz": "البحرين",
        "name:as": "বাহৰেইন",
        "name:ast": "Bahrain",
        "name:az": "Bəhreyn",
        "name:azb": "بحرئين",
        "name:ba": "Бахре́йн",
        "name:bar": "Bahrain",
        "name:bat-smg": "Bahreins",
        "name:bcl": "Bahrein",
        "name:be": "Бахрэ́йн",
        "name:be-tarask": "Бахрэйн",
        "name:bg": "Бахрейн",
        "name:bh": "बहरीन",
        "name:bm": "Bareyini",
        "name:bn": "বাহরাইন",
        "name:bo": "བྷཧ་རཡིན།",
        "name:bpy": "বাহরাইন",
        "name:br": "Bahrein",
        "name:bs": "Bahrein",
        "name:bug": "Bahrain",
        "name:bxr": "Баhрэйн",
        "name:ca": "Bahrain",
        "name:cbk-zam": "Bahréin",
        "name:cdo": "Bahrain",
        "name:ce": "Бахьрайн",
        "name:ceb": "Bahrayn",
        "name:chr": "ᏆᎭᎴᎢᏂ",
        "name:ckb": "بەحرەین",
        "name:crh": "Bahreyn",
        "name:cs": "Bahrajn",
        "name:csb": "Bahrajn",
        "name:cv": "Бахрейн",
        "name:cy": "Bahrein",
        "name:da": "Bahrain",
        "name:de": "Bahrain",
        "name:diq": "Behreyn",
        "name:dsb": "Bahrajn",
        "name:dty": "बहराइन",
        "name:dv": "ބަޙްރައިން",
        "name:dz": "བཧ་རེན་",
        "name:ee": "Bahrain nutome",
        "name:el": "Μπαχρέιν",
        "name:en": "Bahrain",
        "name:eo": "Barejno",
        "name:es": "Baréin",
        "name:et": "Bahrein",
        "name:eu": "Bahrain",
        "name:ext": "Bahrein",
        "name:fa": "بحرین",
        "name:ff": "Bahreyn",
        "name:fi": "Bahrain",
        "name:fiu-vro": "Bahrein",
        "name:fo": "Barein",
        "name:fr": "Bahreïn",
        "name:frp": "Bahreyin",
        "name:frr": "Bachrain",
        "name:fur": "Bahrain",
        "name:fy": "Bachrein",
        "name:ga": "Bairéin",
        "name:gag": "Bahreyn",
        "name:gd": "Bachrain",
        "name:gl": "Bahrein",
        "name:gn": "Varéĩ",
        "name:gom": "बहरैन",
        "name:gu": "બહેરીન",
        "name:gv": "Bahrain",
        "name:ha": "Baharain",
        "name:hak": "Bahrain",
        "name:haw": "Baharaina",
        "name:he": "בחריין",
        "name:hi": "बहरीन",
        "name:hif": "Bahrain",
        "name:hr": "Bahrein",
        "name:hsb": "Bahrain",
        "name:ht": "Barayn",
        "name:hu": "Bahrein",
        "name:hy": "Բահրեյն",
        "name:ia": "Bahrain",
        "name:id": "Bahrain",
        "name:ie": "Bahrain",
        "name:ilo": "Bahrain",
        "name:io": "Bahrain",
        "name:is": "Barein",
        "name:it": "Bahrein",
        "name:ja": "バーレーン",
        "name:jam": "Baarien",
        "name:jbo": "barain",
        "name:jv": "Bahrain",
        "name:ka": "ბაჰრეინი",
        "name:kaa": "Baxreyn",
        "name:kab": "Baḥrayn",
        "name:kbd": "Бахрейн",
        "name:kg": "Bahrain",
        "name:ki": "Bahrain",
        "name:kk": "Бахрейн",
        "name:kl": "Bahrain",
        "name:km": "បារ៉ែន",
        "name:kn": "ಬಹರೇನ್",
        "name:ko": "바레인",
        "name:krc": "Бахре́йн",
        "name:ks": "بحریٖن",
        "name:ksh": "Bachrain",
        "name:ku": "Behreyn",
        "name:kv": "Бахрейн",
        "name:kw": "Bahreyn",
        "name:ky": "Бахре́йн",
        "name:la": "Baharina",
        "name:lb": "Bahrain",
        "name:lez": "Багьре́йн",
        "name:lg": "Baareeni",
        "name:li": "Bahrein",
        "name:lij": "Bahrain",
        "name:lmo": "Bahrain",
        "name:ln": "Bahrein",
        "name:lo": "ບາເລນ",
        "name:lrc": "بأحرئین",
        "name:lt": "Bahreinas",
        "name:lv": "Bahreina",
        "name:mai": "बहाराइन",
        "name:mg": "Baharainy",
        "name:min": "Bahrain",
        "name:mk": "Бахреин",
        "name:ml": "ബഹ്‌റൈൻ",
        "name:mn": "Бахрейн",
        "name:mr": "बहरैन",
        "name:ms": "Bahrain",
        "name:mt": "Baħrejn",
        "name:my": "ဘာရိန်းနိုင်ငံ",
        "name:mzn": "بحرین",
        "name:na": "Bahrain",
        "name:nah": "Bahrein",
        "name:nds": "Bahrain",
        "name:nds-nl": "Bagraain",
        "name:ne": "बहराइन",
        "name:new": "बहरिन",
        "name:nl": "Bahrein",
        "name:nn": "Bahrain",
        "name:no": "Bahrain",
        "name:nov": "Barayn",
        "name:oc": "Bahrain",
        "name:olo": "Bahrein",
        "name:om": "Baahireen",
        "name:or": "ବାହାରିନ୍",
        "name:os": "Бахрейн",
        "name:pa": "ਬਹਿਰੀਨ",
        "name:pam": "Bahrain",
        "name:pap": "Bahrein",
        "name:pi": "बहरैन",
        "name:pih": "Barain",
        "name:pl": "Bahrajn",
        "name:pms": "Bahrain",
        "name:pnb": "بحرین",
        "name:ps": "بحرین",
        "name:pt": "Bahrein",
        "name:qu": "Bahrayn",
        "name:rm": "Bahrain",
        "name:rn": "Bahareyini",
        "name:ro": "Bahrain",
        "name:ru": "Бахре́йн",
        "name:rue": "Бахрейн",
        "name:rw": "Bahirayini",
        "name:sa": "बहरैन",
        "name:sah": "Баhрейн",
        "name:scn": "Bahrain",
        "name:sco": "Bahrain",
        "name:sd": "بحرين",
        "name:se": "Bahrain",
        "name:sg": "Bahrâina",
        "name:sh": "Bahrein",
        "name:si": "බහරේන්",
        "name:sk": "Bahrajn",
        "name:sl": "Bahrájn",
        "name:sm": "Bahrain",
        "name:sn": "Bahrain",
        "name:so": "Baxrayn",
        "name:sq": "Bahraini",
        "name:sr": "Бахреин",
        "name:ss": "iBhaharayi",
        "name:stq": "Bahrain",
        "name:su": "Bahrain",
        "name:sv": "Bahrain",
        "name:sw": "Bahrain",
        "name:szl": "Bahrajn",
        "name:ta": "பகுரைன்",
        "name:te": "బహ్రయిన్",
        "name:tet": "Barein",
        "name:tg": "Баҳрайн",
        "name:th": "บาห์เรน",
        "name:ti": "ባህሬን",
        "name:tk": "Bahreýn",
        "name:tl": "Bahrain",
        "name:to": "Paleini",
        "name:tok": "ma Palani",
        "name:tpi": "Bahrain",
        "name:tr": "Bahreyn",
        "name:tt": "Бәхрәйн",
        "name:tum": "Bahrain",
        "name:tzl": "Bac'hrein",
        "name:udm": "Бахрейн",
        "name:ug": "بەھرېيىن",
        "name:uk": "Бахре́йн",
        "name:ur": "بحرین",
        "name:uz": "Baxreyn",
        "name:vec": "Bahrein",
        "name:vep": "Bahrein",
        "name:vi": "Bahrain",
        "name:vls": "Bahreyn",
        "name:vo": "Bahruäns",
        "name:war": "Barein",
        "name:wo": "Bahrayni",
        "name:wuu": "巴林",
        "name:xal": "Бахрейнин",
        "name:xmf": "ბაჰრეინი",
        "name:yi": "באכריין",
        "name:yo": "Báháráìnì",
        "name:zea": "Bahrein",
        "name:zh": "巴林",
        "name:zh-classical": "巴林",
        "name:zh-min-nan": "Bahrain",
        "name:zh-yue": "巴林",
        "name:zh_pinyin": "Bālín",
        "name:zu": "i-Bahrain",
        "official_name": "مملكة البحرين",
        "official_name:ady": "Пачъыхьыгъоу Бахрейн",
        "official_name:af": "Koninkryk van Bahrein",
        "official_name:als": "Königriich Bahrain",
        "official_name:am": "ባህሬን መንግሥት",
        "official_name:ar": "مملكة البحرين",
        "official_name:arc": "ܡܠܟܘܬܐ ܕܒܚܪܝܢ",
        "official_name:arz": "مملكة البحرين",
        "official_name:as": "বাহৰেইন সাম্ৰাজ্য",
        "official_name:ast": "Reinu de Bahrain",
        "official_name:az": "Bəhreyn Krallığı",
        "official_name:azb": "مملكة البحرين",
        "official_name:ba": "Бахре́йн короллеге",
        "official_name:bar": "Kinereich Bahrain",
        "official_name:be": "Карале́ўства Бахрэ́йн",
        "official_name:be-tarask": "Каралеўства Бахрэйн",
        "official_name:bg": "Кралство Бахрейн",
        "official_name:bn": "বাহরাইনের রাজ্য",
        "official_name:bpy": "রাজতান্ত্রিক বাহরাইন",
        "official_name:br": "Rouantelezh Bahrein",
        "official_name:bs": "Kraljevina Bahrein",
        "official_name:ca": "Regne de Bahrain",
        "official_name:ce": "Бахьрайнан Паччахьалла",
        "official_name:ceb": "Gingharian sa Bahrayn",
        "official_name:chr": "ᎤᎬᏫᏳᎯ ᎨᏒ ᎾᎿ ᏆᎭᎴᎢᏂ",
        "official_name:ckb": "شانشینی بەحرەین",
        "official_name:crh": "Bahreyn Malikligi",
        "official_name:cs": "Království Bahrajn",
        "official_name:cv": "Бахрейн патшалахĕ",
        "official_name:cy": "Teyrnas Bahrein",
        "official_name:da": "Kongedømmet Bahrain",
        "official_name:de": "Königreich Bahrain",
        "official_name:dsb": "Kralojstwo Bahrajna",
        "official_name:el": "Βασίλειο του Μπαχρέιν",
        "official_name:en": "Kingdom of Bahrain",
        "official_name:eo": "Reĝlando de Barejno",
        "official_name:es": "Reino de Baréin",
        "official_name:et": "Bahreini Kuningriik",
        "official_name:eu": "Bahraingo Erresuma",
        "official_name:ext": "Réinu de Bahrein",
        "official_name:fa": "پادشاهی بحرین",
        "official_name:fi": "Bahrainin kuningaskunta",
        "official_name:fiu-vro": "Bahreini Kuningriik",
        "official_name:fo": "Kongsríkið Barein",
        "official_name:fr": "Royaume de Bahreïn",
        "official_name:frr": "Köningrik faan Bachrein",
        "official_name:ga": "Ríocht Bhairéin",
        "official_name:gd": "Rioghach Bhachrain",
        "official_name:gl": "Reino de Bahrain",
        "official_name:gn": "Tetã Varéĩ",
        "official_name:gu": "બહેરીન રાજશાહી",
        "official_name:gv": "Reeriaght Vahrain",
        "official_name:haw": "Ke Aupuni Mōʻī o Baharaina",
        "official_name:he": "ממלכת בחריין",
        "official_name:hi": "बहरीन राजशाही",
        "official_name:hif": "Kingdom of Bahrain",
        "official_name:hr": "Kraljevina Bahrein",
        "official_name:hsb": "Kralestwo Bahrajn",
        "official_name:hu": "Bahreini Királyság",
        "official_name:ia": "Regno de Bahrain",
        "official_name:id": "Kerajaan Bahrain",
        "official_name:ilo": "Pagarian ti Bahrain",
        "official_name:it": "Regno del Bahrein",
        "official_name:ja": "バーレーン王国",
        "official_name:jam": "Kingdom a Baarien",
        "official_name:jv": "Karajan Bahrain",
        "official_name:ka": "ბაჰრეინის სამეფო",
        "official_name:kbd": "Бахрейн Пэштыхьейм",
        "official_name:kk": "Бахрейн әмірлігі",
        "official_name:kl": "Kongedømmet Bahrain",
        "official_name:km": "ព្រះរាជាណាចក្របារ៉ែន",
        "official_name:kn": "ಬಹ್ರೇನ್ ರಾಜ್ಯ",
        "official_name:ko": "바레인 왕국",
        "official_name:krc": "Бахрейн Королевство",
        "official_name:kv": "Бахрейн корольув",
        "official_name:kw": "Rywvaneth Bahreyn",
        "official_name:ky": "Бахрейн Королдугу",
        "official_name:la": "status Bahreinensis",
        "official_name:lb": "Kinnekräich Bahrain",
        "official_name:lez": "Паччахвал Багьре́йн",
        "official_name:li": "keuninkriek Bahrein",
        "official_name:lrc": "پاتئشایی بأحرئین",
        "official_name:lt": "Bahreino Karalystė",
        "official_name:lv": "Bahreinas Karaliste",
        "official_name:mai": "बहरीन राजशाही",
        "official_name:min": "Karajoan Bahrain",
        "official_name:mk": "Кралството Бахреин",
        "official_name:ml": "കിംഗ്ഡം ഓഫ് ബഹ്‌റൈൻ",
        "official_name:mn": "Бахрейны Вант Улс",
        "official_name:ms": "Kerajaan Bahrain",
        "official_name:mt": "Renju tal-Baħrejn",
        "official_name:my": "ကင်းဒမ်းအော့ဖ် ဘာရိန်း",
        "official_name:mzn": "مملکة البحرینة",
        "official_name:nah": "Huēyitlācatlahtohcāyōtl Bahrein",
        "official_name:nds": "Königriek Bahrain",
        "official_name:nds-nl": "Keunenkriek Bagraain",
        "official_name:ne": "बहराइन अधिराज्य",
        "official_name:new": "बहरिनया राजतन्त्र",
        "official_name:nl": "Koninkrijk Bahrein",
        "official_name:nn": "kongedømet Bahrain",
        "official_name:no": "Kongedømmet Bahrain",
        "official_name:olo": "Bahreinan kuningaskundu",
        "official_name:pam": "Kaarian ning Bahrain",
        "official_name:pl": "Królestwo Bahrajnu",
        "official_name:ps": "د بحرین پادشاهي",
        "official_name:pt": "Reino do Bahrein",
        "official_name:ro": "Regatul Bahrain",
        "official_name:ru": "Короле́вство Бахре́йн",
        "official_name:sah": "Баhрейн Хоруоллуга",
        "official_name:scn": "Regnu di Bahrain",
        "official_name:sco": "Kinrick o Bahrain",
        "official_name:sd": "مملڪتِ بحرين",
        "official_name:se": "Bahraina gonagasriika",
        "official_name:sh": "Kraljevina Bahrein",
        "official_name:si": "බහරේන් රාජධානිය ලෙසයි",
        "official_name:sk": "Bahrajnské kráľovstvo",
        "official_name:sl": "Kraljevína Bahrájn",
        "official_name:so": "Boqortooyada Baxrayn",
        "official_name:sq": "Mbretëria e Bahreinit",
        "official_name:sr": "Краљевина Бахреин",
        "official_name:su": "Karajaan Bahrain",
        "official_name:sv": "Staten Bahrain",
        "official_name:sw": "Ufalme wa Bahrain",
        "official_name:szl": "Krůlestwo Bahrajnu",
        "official_name:ta": "பகுரைன் அரசு",
        "official_name:te": "కింగ్‌డమ్ ఆఫ్ బహ్రయిన్",
        "official_name:th": "ราชอาณาจักรบาห์เรน",
        "official_name:tl": "Kaharian ng Bahrain",
        "official_name:tr": "Bahreyn Krallığı",
        "official_name:tt": "Бәхрәйн Мәмләкәте",
        "official_name:uk": "Королі́вство Бахре́йн",
        "official_name:ur": "مملکتِ بحرین",
        "official_name:uz": "Bahrayn qirolligi",
        "official_name:vec": "Regno del Bahrain",
        "official_name:vep": "Bahreinan Kunigahuz",
        "official_name:vi": "Vương quốc Bahrain",
        "official_name:vls": "Keunienkryk Bahreyn",
        "official_name:wo": "nguur gu Bahrayni",
        "official_name:xal": "Бахрейнин Нутуг",
        "official_name:xmf": "ბაჰრეინიშ ომაფე",
        "official_name:yi": "קעניגרייך פון באכריין",
        "official_name:yo": "Ile-Oba Bahrain",
        "official_name:zh": "巴林王国",
        "official_name:zh-classical": "巴林王國",
        "official_name:zh-min-nan": "Bahrain Ông-kok",
        "official_name:zh-yue": "巴林王國",
        "old_name:el": "Τύλος",
        "timezone": "Asia/Bahrain",
        "type": "boundary",
        "wikidata": "Q398",
        "wikipedia": "ar:البحرين",
        "@geometry": "center"
      },
      "geometry": {
        "type": "Point",
        "coordinates": [
          50.5965841,
          26.1111222
        ]
      },
      "id": "relation/378734"
    },
    {
      "type": "Feature",
      "properties": {
        "@id": "relation/547469",
        "ISO3166-1": "BS",
        "ISO3166-1:alpha2": "BS",
        "ISO3166-1:alpha3": "BHS",
        "ISO3166-1:numeric": "044",
        "admin_level": "2",
        "alt_name": "Bahamas",
        "alt_name:ar": "باهاماس",
        "alt_name:arz": "باهاماس",
        "alt_name:ast": "Bahames",
        "alt_name:az": "Baham adaları",
        "alt_name:bar": "Bahamas",
        "alt_name:bat-smg": "Bahamā",
        "alt_name:bcl": "Bahamas",
        "alt_name:be": "Бага́мы",
        "alt_name:bo": "བྷ་ཧ་མ་སུ།",
        "alt_name:ckb": "باھاما",
        "alt_name:cy": "Bahamas",
        "alt_name:de": "Bahamas",
        "alt_name:en": "Bahamas",
        "alt_name:eo": "Bahama Insularo",
        "alt_name:es": "Bahamas",
        "alt_name:ext": "Baamas",
        "alt_name:fr": "Bahamas",
        "alt_name:frr": "Bahaamas",
        "alt_name:fy": "Bahama's",
        "alt_name:ga": "Bahámaí",
        "alt_name:gd": "Bahàmas",
        "alt_name:gv": "Bahamaghyn",
        "alt_name:he": "בהאמה",
        "alt_name:hif": "Bahamas",
        "alt_name:ht": "Bahamas",
        "alt_name:hy": "Բահամյան Կղզիներ",
        "alt_name:ilo": "Bahamas",
        "alt_name:it": "Bahama",
        "alt_name:lb": "Bahamas",
        "alt_name:li": "Bahama's",
        "alt_name:lmo": "Bahamas",
        "alt_name:mai": "बहामस",
        "alt_name:mk": "Бахамски Острови",
        "alt_name:mn": "Бахам",
        "alt_name:mt": "Baħamas",
        "alt_name:mwl": "Baamas",
        "alt_name:nds": "Bahamas",
        "alt_name:oc": "Bahamas",
        "alt_name:olo": "Bagamat",
        "alt_name:pms": "Bahamas",
        "alt_name:pt": "Baamas",
        "alt_name:sah": "Багама арыылара",
        "alt_name:scn": "Bahamas",
        "alt_name:sco": "Bahamas",
        "alt_name:sn": "Bahamas",
        "alt_name:sq": "Ishujt Bahamas",
        "alt_name:stq": "Bahamas",
        "alt_name:tt": "Баһамалар",
        "alt_name:uz": "Bagamalar",
        "alt_name:vec": "Bahamas",
        "alt_name:vi": "Quần đảo Bahamas",
        "alt_name:yi": "באַהאַמאַס",
        "alt_name:zea": "Bahama's",
        "boundary": "administrative",
        "flag": "http://upload.wikimedia.org/wikipedia/commons/9/93/Flag_of_the_Bahamas.svg",
        "int_name": "Bahamas",
        "is_in:continent": "North America",
        "name": "The Bahamas",
        "name:ace": "Bahama",
        "name:af": "Bahamas",
        "name:ak": "Bahama",
        "name:als": "Bahamas",
        "name:am": "ባሃማስ",
        "name:an": "Bahamas",
        "name:ar": "جزر باهاماس",
        "name:arz": "الباهاماس",
        "name:ast": "Les Bahames",
        "name:ay": "Bahamas",
        "name:az": "Bahamalar",
        "name:ba": "Багама утрауҙары",
        "name:bar": "De Bahamas",
        "name:bat-smg": "Bahamas",
        "name:bcl": "An Bahamas",
        "name:be": "Бага́мскія Астравы́",
        "name:be-tarask": "Багамы",
        "name:bg": "Бахамските острови",
        "name:bm": "Bahamasi",
        "name:bn": "বাহামা দ্বীপপুঞ্জ",
        "name:bo": "བ་ཧ་མཱ་སི།",
        "name:bpy": "বাহামা",
        "name:br": "Bahamas",
        "name:bs": "Bahami",
        "name:bxr": "Бахамын аралууд",
        "name:ca": "Bahames",
        "name:cbk-zam": "Bahamas",
        "name:cdo": "Bahamas",
        "name:ce": "Багама",
        "name:ceb": "Bahamas",
        "name:chr": "ᎾᏍᎩ ᏆᎭᎹᏍ",
        "name:ckb": "بەھاما",
        "name:crh": "Bahamalar",
        "name:cs": "Bahamy",
        "name:cv": "Пахамсем",
        "name:cy": "Y Bahamas",
        "name:da": "Bahamas",
        "name:de": "Die Bahamas",
        "name:diq": "Bahama",
        "name:dsb": "Bahamy",
        "name:dty": "बहामस",
        "name:dv": "ބަހާމަސް",
        "name:dz": "བཱ་ཧ་མས྄།",
        "name:ee": "Bahamas",
        "name:el": "Μπαχάμες",
        "name:en": "The Bahamas",
        "name:eo": "La Bahamoj",
        "name:es": "Las Bahamas",
        "name:et": "Bahama",
        "name:eu": "Bahamak",
        "name:ext": "Las Baamas",
        "name:fa": "باهاما",
        "name:ff": "Bahamaas",
        "name:fi": "Bahama",
        "name:fiu-vro": "Bahama",
        "name:fo": "Bahamaoyggjar",
        "name:fr": "Les Bahamas",
        "name:frp": "Bahamas",
        "name:frr": "A Bahaamas",
        "name:fy": "De Bahama's",
        "name:ga": "na Bahámaí",
        "name:gag": "Bahamalar",
        "name:gd": "na Bahàmas",
        "name:gl": "Bahamas",
        "name:gn": "Vaamakuéra",
        "name:gom": "बहामाज",
        "name:gu": "બહામાસ",
        "name:gv": "ny Bahamaghyn",
        "name:hak": "Bahamas",
        "name:he": "איי בהאמה",
        "name:hi": "बहामस",
        "name:hif": "The Bahamas",
        "name:hr": "Bahami",
        "name:hsb": "Bahamy",
        "name:ht": "Il Bahamas",
        "name:hu": "Bahama-szigetek",
        "name:hy": "Բահամները",
        "name:ia": "Bahamas",
        "name:id": "Bahama",
        "name:ilo": "Ti Bahamas",
        "name:io": "Bahama",
        "name:is": "Bahamaeyjar",
        "name:it": "Le Bahamas",
        "name:ja": "バハマ",
        "name:jam": "Ba'aamaz",
        "name:jbo": "ba'am",
        "name:jv": "Bahama",
        "name:ka": "ბაჰამის კუნძულები",
        "name:kab": "Bahamas",
        "name:ki": "Bahama",
        "name:kk": "Багам аралдары",
        "name:km": "បាហាម៉ា",
        "name:kn": "ಬಹಾಮಾಸ್",
        "name:ko": "바하마",
        "name:ks": "بَہامَس",
        "name:ksh": "de Bahamas",
        "name:ku": "Bahama",
        "name:kw": "Ynysow Bahama",
        "name:ky": "Багама аралдары",
        "name:la": "Bahamanae",
        "name:lad": "Bahamas",
        "name:lb": "D'Bahamas",
        "name:lg": "Bahamasi",
        "name:li": "De Bahama's",
        "name:lij": "Bahamas",
        "name:lmo": "I Bahamas",
        "name:ln": "Bahamasɛ",
        "name:lo": "ບາຮາມມາສ",
        "name:lt": "Bahamos",
        "name:lv": "Bahamas",
        "name:mai": "द बहामस",
        "name:mg": "Bahamasy",
        "name:mhr": "Багама",
        "name:mk": "Бахами",
        "name:ml": "ബഹാമാസ്",
        "name:mn": "Багамын Арлууд",
        "name:mr": "बहामास",
        "name:mrj": "Багамвлӓ",
        "name:ms": "Bahamas",
        "name:mt": "Il-Baħamas",
        "name:mwl": "Las Bahamas",
        "name:my": "ဘဟားမားနိုင်ငံ",
        "name:mzn": "باهاما",
        "name:na": "Bahamat",
        "name:nah": "Bahamas",
        "name:nds": "De Bahamas",
        "name:ne": "बहामस",
        "name:new": "बहामास",
        "name:nl": "Bahama's",
        "name:nn": "Bahamas",
        "name:no": "Bahamas",
        "name:nov": "Bahamas",
        "name:oc": "Las Bahamas",
        "name:olo": "Bagaman suaret",
        "name:om": "Bahamaas",
        "name:or": "ବାହାମା",
        "name:os": "Багамтæ",
        "name:pa": "ਬਹਾਮਾਸ",
        "name:pam": "Bahamas",
        "name:pap": "Bahamas",
        "name:pi": "बहामास",
        "name:pih": "Bahaamas",
        "name:pl": "Bahamy",
        "name:pms": "Le Bahamas",
        "name:pnb": "باہاما",
        "name:pt": "Bahamas",
        "name:qu": "Bahamakuna",
        "name:rm": "Bahamas",
        "name:rn": "Bahamasi",
        "name:ro": "Bahamas",
        "name:roa-rup": "Bahamas",
        "name:ru": "Бага́мские Острова́",
        "name:rue": "Багамы",
        "name:rw": "Bahamasi",
        "name:sa": "बहामास",
        "name:sah": "Багама Холбоһуга",
        "name:scn": "Li Bahamas",
        "name:sco": "The Bahamas",
        "name:se": "Bahama",
        "name:sg": "Bahâmasa",
        "name:sh": "Bahami",
        "name:si": "බහාමාස්",
        "name:sk": "Bahamy",
        "name:sl": "Bahami",
        "name:sn": "The Bahamas",
        "name:so": "Bahamas",
        "name:sq": "Bahamet",
        "name:sr": "Бахаме",
        "name:ss": "iBhahamasi",
        "name:stq": "Do Bahamas",
        "name:su": "Bahama",
        "name:sv": "Bahamas",
        "name:sw": "Bahamas",
        "name:szl": "Bahamy",
        "name:ta": "பாகாமாசு",
        "name:te": "బహామాస్",
        "name:tet": "Bahamas",
        "name:tg": "Баҳамас",
        "name:th": "ประเทศบาฮามาส",
        "name:ti": "ባሃማስ",
        "name:tk": "Bagama Adalary",
        "name:tl": "Bahamas",
        "name:to": "Pahama",
        "name:tok": "ma Pawama",
        "name:tr": "Bahamalar",
        "name:tt": "Багамалар",
        "name:tzl": "Bahamas",
        "name:ug": "باھاما",
        "name:uk": "Бага́мські Острови́",
        "name:ur": "بہاماس",
        "name:uz": "Bagam orollari",
        "name:vec": "Łe Bahamas",
        "name:vep": "Bagaman Sared",
        "name:vi": "Bahamas",
        "name:vo": "Bahamuäns",
        "name:war": "Bahamas",
        "name:wo": "Bahamas",
        "name:wuu": "巴哈馬",
        "name:xal": "Багамуд Арлин Ниицән",
        "name:xmf": "ბაჰამიშ კოკეფი",
        "name:yi": "די באַהאַמאַס",
        "name:yo": "Àwọn Bàhámà",
        "name:za": "Bahamas",
        "name:zea": "De Bahama's",
        "name:zh": "巴哈马",
        "name:zh-min-nan": "Bahamas",
        "name:zh-yue": "巴哈馬",
        "name:zu": "i-Bahamas",
        "official_name": "Commonwealth of The Bahamas",
        "official_name:ace": "Peusema'muran Bahama",
        "official_name:af": "Gemenebes van die Bahamas",
        "official_name:als": "Commonwealth der Bahamas",
        "official_name:am": "የባሃማስ የጋራ ሀገር",
        "official_name:an": "Mancomunidat d'as Bahamas",
        "official_name:ar": "كومنولث جزر البهاما",
        "official_name:arz": "كومونويلث الباهاماس",
        "official_name:ast": "Mancomunidá de Les Bahames",
        "official_name:az": "Baham Adaları Birliyi",
        "official_name:ba": "Багама Утрауҙар Берлеге",
        "official_name:bar": "Commonwealth der Bahamas",
        "official_name:bat-smg": "Bahamu Sondrauga",
        "official_name:be": "Садру́жнасць Бага́мскіх Астраво́ў",
        "official_name:be-tarask": "Садружнасьць Багамаў",
        "official_name:bg": "Дружество Бахамски острови",
        "official_name:bm": "Forobanafolo Bahamasi",
        "official_name:bn": "বাহামা দ্বীপপুঞ্জের কমনওয়েলথ",
        "official_name:bpy": "কমনৱেলথ বাহামা",
        "official_name:br": "Kenglad ar Bahamas",
        "official_name:bxr": "Бахамын Нүхэрлэл",
        "official_name:ce": "Багаман гlайренаш",
        "official_name:ckb": "ھاوقازانجیی بەھاما",
        "official_name:cs": "Bahamské společenství",
        "official_name:cv": "Пахам Утравĕсен Пĕрлешӳлĕхĕ",
        "official_name:cy": "Cymanwlad y Bahamas",
        "official_name:de": "Commonwealth der Bahamas",
        "official_name:dsb": "Zjadnośeństwo Bahamow",
        "official_name:el": "Κοινοπολιτεία των Μπαχαμών",
        "official_name:en": "Commonwealth of The Bahamas",
        "official_name:eo": "Komunumo de Bahamaj Insuloj",
        "official_name:es": "Mancomunidad de las Bahamas",
        "official_name:et": "Bahama Ühendus",
        "official_name:ext": "Mancomuniá de las Baamas",
        "official_name:fa": "قلمرو همسود باهاما",
        "official_name:fi": "Bahaman liittovaltio",
        "official_name:fiu-vro": "Bahama Ütisüs",
        "official_name:fo": "Samveldið Bahamaoyggjar",
        "official_name:fr": "Commonwealth des Bahamas",
        "official_name:frr": "Commonwealth faan a Bahaamas",
        "official_name:fy": "Mienebêst fan de Bahama's",
        "official_name:ga": "Comhlathas na mBahámaí",
        "official_name:gd": "na h-Eileanan Bhathama",
        "official_name:gl": "Mancomunidade das Bahamas",
        "official_name:gn": "Tetã Va'ama",
        "official_name:gv": "Co-unnaneys ny Bahamaghyn",
        "official_name:he": "קהיליית איי בהאמה",
        "official_name:hi": "बहामस राष्ट्रमण्डल",
        "official_name:hif": "Commonwealth of The Bahamas",
        "official_name:hr": "Zajednica Bahamâ",
        "official_name:hsb": "Commonwealth Bahamow",
        "official_name:hu": "Bahamai Közösség",
        "official_name:hy": "Բահամյան Կղզիների Ընկերակցությունը",
        "official_name:ia": "Commonwealth del Bahamas",
        "official_name:id": "Persemakmuran Bahama",
        "official_name:ilo": "Mankomunidad ti Bahamas",
        "official_name:is": "Samveldi Bahamaeyja",
        "official_name:it": "Commonwealth delle Bahamas",
        "official_name:ja": "バハマ国",
        "official_name:jam": "Kamanwelt a di Ba'aamaz",
        "official_name:ka": "ბაჰამის კუნძულების თანამეგობრობა",
        "official_name:kk": "Багам аралдары достастығы",
        "official_name:kn": "ಬಹಾಮಾಸ್ ಕಾಮನ್ವೆಲ್ತ್",
        "official_name:ko": "바하마 연방",
        "official_name:ku": "Federasyona Bahamayan",
        "official_name:ky": "Багама Аралдары Ынтымактыгы",
        "official_name:la": "Insulae Bahamenses",
        "official_name:li": "Gemaenebes van de Bahama's",
        "official_name:lt": "Bahamų Sandrauga",
        "official_name:lv": "Bahamu Sadraudzība",
        "official_name:mai": "बहामस राष्ट्रमण्डल",
        "official_name:mg": "Commonwealth an'i Bahamasy",
        "official_name:mhr": "Багамысе отро-влак",
        "official_name:mk": "Државна Заедница Бахами",
        "official_name:ml": "കോമൺവെൽത്ത് ഓഫ് ബഹാമാസ്",
        "official_name:mr": "बहामासचे राष्ट्रकुल",
        "official_name:ms": "Komanwel Bahamas",
        "official_name:mt": "Commonwealth tal-Baħamas",
        "official_name:my": "ဘဟားမားစ် ဓနသဟာယ နိုင်ငံ",
        "official_name:mzn": "باهامای مشترک‌المنافع سامون",
        "official_name:nl": "Gemenebest van de Bahama's",
        "official_name:nn": "Bahamassambandet",
        "official_name:no": "Bahamassambandet",
        "official_name:olo": "Bagaman suarin yhtymy",
        "official_name:os": "Багамы Сакъадæхты Æмбалад",
        "official_name:pa": "ਬਹਾਮਾਸ ਦਾ ਰਾਸ਼ਟਰਮੰਡਲ",
        "official_name:pap": "Commonwealth di Bahamas",
        "official_name:pl": "Wspólnota Bahamów",
        "official_name:pt": "Comunidade das Bahamas",
        "official_name:qu": "Bahamakunap Llaqta Tanta",
        "official_name:ro": "Comunitatea Bahamas",
        "official_name:roa-rup": "Commonwealth ali Bahamile",
        "official_name:ru": "Содру́жество Бага́мских Острово́в",
        "official_name:rue": "Багамскы островы",
        "official_name:sco": "Commonweel o the Bahamas",
        "official_name:se": "Bahama riikkaidlihttu",
        "official_name:sh": "Commonwealth Bahama",
        "official_name:si": "බහාමාස් පොදු රාජ්‍යය",
        "official_name:sk": "Bahamské spoločenstvo",
        "official_name:sl": "Zveza Bahami",
        "official_name:so": "Dalka Bahamas",
        "official_name:sr": "Комновелт Бахама",
        "official_name:su": "Pasamakmuran Bahama",
        "official_name:sv": "Samväldet Bahamas",
        "official_name:sw": "Jumuiya ya Bahamas",
        "official_name:szl": "Spůlnota Bahamůw",
        "official_name:ta": "பகமாசு பொதுநலவாயம்",
        "official_name:te": "కామన్వెల్త్ ఆఫ్ ది బహామాస్",
        "official_name:tg": "Ҷазираҳои Багам",
        "official_name:th": "เครือรัฐบาฮามาส",
        "official_name:tl": "Komonwelt ng Bahamas",
        "official_name:tr": "Bahama Milletler Topluluğu",
        "official_name:uk": "Співдру́жність Бага́мських Острові́в",
        "official_name:ur": "دولتِ مشترکہ بہاماس",
        "official_name:uz": "Bagama Orollari Hamdo‘stligi",
        "official_name:vec": "Commonwealth dełe Bahamas",
        "official_name:vep": "Bagaman Sariden Ühtnend",
        "official_name:vi": "Thịnh vượng chung Bahamas",
        "official_name:wo": "Commonwealth bu Bahamas",
        "official_name:wuu": "巴哈馬國",
        "official_name:xal": "Багамуд Арлин Ниицән",
        "official_name:xmf": "ბაჰამიშ კოკეფიშ წორომაჸალობა",
        "official_name:yo": "Orílẹ̀-èdè Àjọni ilẹ̀ awọn Bàhámà",
        "official_name:zh": "巴哈馬聯邦",
        "official_name:zh-min-nan": "Bahamas Kok",
        "official_name:zh-yue": "巴哈馬係",
        "timezone": "America/Nassau",
        "type": "boundary",
        "wikidata": "Q778",
        "wikipedia": "en:The Bahamas",
        "@geometry": "center"
      },
      "geometry": {
        "type": "Point",
        "coordinates": [
          -76.5739731,
          24.0897198
        ]
      },
      "id": "relation/547469"
    },
    {
      "type": "Feature",
      "properties": {
        "@id": "relation/547511",
        "ISO3166-1": "BB",
        "ISO3166-1:alpha2": "BB",
        "ISO3166-1:alpha3": "BRB",
        "ISO3166-1:numeric": "052",
        "admin_level": "2",
        "boundary": "administrative",
        "flag": "http://upload.wikimedia.org/wikipedia/commons/e/ef/Flag_of_Barbados.svg",
        "is_in:continent": "North America",
        "name": "Barbados",
        "name:botanical": "Barbados",
        "name:cs": "Barbados",
        "name:de": "Barbados",
        "name:en": "Barbados",
        "name:eo": "Barbado",
        "name:fr": "Barbade",
        "name:fy": "Barbados",
        "name:hr": "Barbados",
        "name:jbo": "barbados",
        "name:nl": "Barbados",
        "name:ru": "Барбадос",
        "name:sl": "Barbados",
        "name:sv": "Barbados",
        "name:tzl": "Barviada",
        "name:uk": "Барбадос",
        "name:vo": "Barbadeän",
        "timezone": "America/Barbados",
        "type": "boundary",
        "wikidata": "Q244",
        "wikipedia": "en:Barbados",
        "@geometry": "center"
      },
      "geometry": {
        "type": "Point",
        "coordinates": [
          -59.5354645,
          13.19
        ]
      },
      "id": "relation/547511"
    },
    {
      "type": "Feature",
      "properties": {
        "@id": "relation/1889339",
        "ISO3166-1": "BW",
        "ISO3166-1:alpha2": "BW",
        "ISO3166-1:alpha3": "BWA",
        "ISO3166-1:numeric": "072",
        "admin_level": "2",
        "boundary": "administrative",
        "flag": "http://upload.wikimedia.org/wikipedia/commons/f/fa/Flag_of_Botswana.svg",
        "is_in:continent": "Africa",
        "name": "Botswana",
        "name:ace": "Botswana",
        "name:af": "Botswana",
        "name:als": "Botsuana",
        "name:am": "ቦትስዋና",
        "name:an": "Botswana",
        "name:ang": "Botswana",
        "name:ar": "بوتسوانا",
        "name:arz": "بوتسوانا",
        "name:ast": "Botsuana",
        "name:az": "Botsvana",
        "name:ba": "Ботсвана",
        "name:bat-smg": "Botsvana",
        "name:bcl": "Botswana",
        "name:be": "Батсвана",
        "name:be-tarask": "Батсвана",
        "name:bg": "Ботсвана",
        "name:bjn": "Botswana",
        "name:bm": "Botswana",
        "name:bn": "বতসোয়ানা",
        "name:bo": "བྷོ་ཙི་ཝ་ན།",
        "name:bpy": "বোৎসোয়ানা",
        "name:br": "Botswana",
        "name:bs": "Bocvana",
        "name:bxr": "Ботсвана",
        "name:ca": "Botswana",
        "name:ce": "Ботсвана",
        "name:ceb": "Botswana",
        "name:ckb": "بۆتسوانا",
        "name:crh": "Botsvana",
        "name:cs": "Botswana",
        "name:cv": "Ботсвана",
        "name:cy": "Botswana",
        "name:da": "Botswana",
        "name:de": "Botsuana",
        "name:diq": "Botswana",
        "name:dv": "ބޮޓުސްވާނާ",
        "name:ee": "Botswana",
        "name:el": "Μποτσουάνα",
        "name:en": "Botswana",
        "name:eo": "Bocvano",
        "name:es": "Botsuana",
        "name:et": "Botswana",
        "name:eu": "Botswana",
        "name:ext": "Botsuana",
        "name:fa": "بوتسوانا",
        "name:ff": "Botswana",
        "name:fi": "Botswana",
        "name:fiu-vro": "Botswana",
        "name:fo": "Botsvana",
        "name:fr": "Botswana",
        "name:frp": "Botsouana",
        "name:fy": "Botswana",
        "name:ga": "An Bhotsuáin",
        "name:gag": "Botsvana",
        "name:gd": "Botsuana",
        "name:gl": "República de Botsuana",
        "name:gv": "Yn Votswaan",
        "name:ha": "Botswana",
        "name:hak": "Pok-tshṳ-ngá-na̍p",
        "name:he": "בוטסואנה",
        "name:hi": "बोत्सवाना",
        "name:hif": "Botswana",
        "name:hr": "Bocvana",
        "name:hsb": "Botswana",
        "name:ht": "Botswana",
        "name:hu": "Botswana",
        "name:hy": "Բոտսվանա",
        "name:ia": "Botswana",
        "name:id": "Botswana",
        "name:ie": "Botswana",
        "name:ig": "Botswana",
        "name:ilo": "Botswana",
        "name:io": "Botswana",
        "name:is": "Botsvana",
        "name:it": "Botswana",
        "name:ja": "ボツワナ",
        "name:jbo": "botsuanas",
        "name:jv": "Botswana",
        "name:ka": "ბოტსვანა",
        "name:kaa": "Botsvana",
        "name:kg": "Botswana",
        "name:ki": "Botswana",
        "name:kk": "Ботсвана",
        "name:kn": "ಬೋಟ್ಸ್ವಾನ",
        "name:ko": "보츠와나",
        "name:ksh": "Botswana",
        "name:ku": "Botswana",
        "name:kw": "Botswana",
        "name:ky": "Ботсвана",
        "name:la": "Botswana",
        "name:lb": "Botswana",
        "name:li": "Botswana",
        "name:lij": "Bòtswana",
        "name:lmo": "Botswana",
        "name:ln": "Botswana",
        "name:lt": "Botsvana",
        "name:ltg": "Botsvana",
        "name:lv": "Botsvana",
        "name:min": "Botswana",
        "name:mk": "Боцвана",
        "name:ml": "ബോട്സ്വാന",
        "name:mn": "Ботсвана",
        "name:mr": "बोत्स्वाना",
        "name:ms": "Botswana",
        "name:mt": "Botswana",
        "name:mzn": "بوتسوانا",
        "name:na": "Botwana",
        "name:nah": "Botzhuana",
        "name:nds": "Botswana",
        "name:ne": "बोत्स्वाना",
        "name:nl": "Botswana",
        "name:nn": "Botswana",
        "name:no": "Botswana",
        "name:nov": "Botswana",
        "name:nso": "Botswana",
        "name:nv": "Tswana Dineʼé Bikéyah",
        "name:oc": "Botswana",
        "name:or": "ବୋସଚୱାନା",
        "name:os": "Ботсванæ",
        "name:pa": "ਬੋਤਸਵਾਨਾ",
        "name:pam": "Botswana",
        "name:pap": "Botswana",
        "name:pdc": "Botswana",
        "name:pih": "Botswana",
        "name:pl": "Botswana",
        "name:pms": "Botswana",
        "name:pnb": "بوٹسوانا",
        "name:ps": "بوتسوانا",
        "name:pt": "Botsuana",
        "name:qu": "Butswana",
        "name:rm": "Botswana",
        "name:ro": "Botswana",
        "name:roa-rup": "Botswana",
        "name:ru": "Ботсвана",
        "name:rue": "Ботсвана",
        "name:rw": "Botswana",
        "name:sa": "बोत्सवाना",
        "name:sah": "Ботсуана",
        "name:sc": "Botzuana",
        "name:scn": "Botsuana",
        "name:sco": "Botswana",
        "name:se": "Botswana",
        "name:sg": "Botswana",
        "name:sh": "Bocvana",
        "name:simple": "Botswana",
        "name:sk": "Botswana",
        "name:sl": "Bocvana",
        "name:sn": "Botswana",
        "name:so": "Botswana",
        "name:sq": "Bocvana",
        "name:sr": "Боцвана",
        "name:ss": "ÉButjwána",
        "name:stq": "Botsuana",
        "name:su": "Botswana",
        "name:sv": "Botswana",
        "name:sw": "Botswana",
        "name:szl": "Botswana",
        "name:ta": "போட்சுவானா",
        "name:te": "బోత్సువానా",
        "name:tg": "Ботсвана",
        "name:th": "ประเทศบอตสวานา",
        "name:ti": "ቦትስዋና",
        "name:tk": "Botswana",
        "name:tl": "Botswana",
        "name:tn": "Botswana",
        "name:tr": "Botsvana",
        "name:ts": "Botswana",
        "name:tt": "Ботсвана",
        "name:tzl": "Botswana",
        "name:udm": "Ботсвана",
        "name:ug": "بوتسۋانا",
        "name:uk": "Ботсвана",
        "name:ur": "بوٹسوانا",
        "name:uz": "Botsvana",
        "name:ve": "Vhu-Tswana",
        "name:vec": "Botswana",
        "name:vi": "Botswana",
        "name:vo": "Zvanän",
        "name:wa": "Boswana",
        "name:war": "Botswana",
        "name:wo": "Botswana",
        "name:wuu": "博茨瓦纳",
        "name:xal": "Ботсвамудин Орн",
        "name:yi": "באצוואנע",
        "name:yo": "Bòtswánà",
        "name:zea": "Botswana",
        "name:zh": "波札那",
        "name:zh-classical": "波札那",
        "name:zh-min-nan": "Botswana",
        "name:zh-yue": "波茨華拿",
        "name:zu": "IButswana",
        "official_name:cs": "Botswanská republika",
        "timezone": "Africa/Gaborone",
        "type": "boundary",
        "wikidata": "Q963",
        "wikipedia": "en:Botswana",
        "@geometry": "center"
      },
      "geometry": {
        "type": "Point",
        "coordinates": [
          24.6869757,
          -22.3420519
        ]
      },
      "id": "relation/1889339"
    },
    {
      "type": "Feature",
      "properties": {
        "@id": "relation/1993208",
        "ISO3166-1": "BM",
        "ISO3166-1:alpha2": "BM",
        "ISO3166-1:alpha3": "BMU",
        "ISO3166-1:numeric": "060",
        "admin_level": "2",
        "boundary": "administrative",
        "flag": "http://upload.wikimedia.org/wikipedia/commons/b/bf/Flag_of_Bermuda.svg",
        "is_in:archipelago": "Bermuda Islands",
        "is_in:continent": "North America",
        "name": "Bermuda",
        "name:cs": "Bermudy",
        "name:de": "Bermuda",
        "name:en": "Bermuda",
        "name:eo": "Bermudoj",
        "name:fr": "Bermudes",
        "name:hr": "Bermudski Otoci",
        "name:lt": "Bermuda",
        "name:pl": "Bermudy",
        "name:ru": "Бермудские острова",
        "name:sr": "Бермуди",
        "name:uk": "Бермудські острови",
        "official_name": "The Islands of Bermuda",
        "surface": "unpaved",
        "timezone": "Atlantic/Bermuda",
        "type": "boundary",
        "wikidata": "Q23635",
        "wikipedia": "en:Bermuda",
        "@geometry": "center"
      },
      "geometry": {
        "type": "Point",
        "coordinates": [
          -64.7671032,
          32.3191672
        ]
      },
      "id": "relation/1993208"
    },
    {
      "type": "Feature",
      "properties": {
        "@id": "relation/2103120",
        "ISO3166-1": "BN",
        "ISO3166-1:alpha2": "BN",
        "ISO3166-1:alpha3": "BRN",
        "ISO3166-1:numeric": "096",
        "admin_level": "2",
        "alt_name:cs": "Brunej Darussalam",
        "border_type": "nation",
        "boundary": "administrative",
        "currency": "BND",
        "driving_side": "left",
        "flag": "http://upload.wikimedia.org/wikipedia/commons/9/9c/Flag_of_Brunei.svg",
        "int_name": "Brunei",
        "is_in:continent": "Asia",
        "name": "Brunei Darussalam",
        "name:ar": "بروناي",
        "name:cs": "Brunej",
        "name:de": "Brunei",
        "name:en": "Brunei",
        "name:eo": "Brunejo",
        "name:es": "Brunéi",
        "name:fr": "Brunei",
        "name:hr": "Brunej",
        "name:ia": "Brunei",
        "name:io": "Brunei",
        "name:ja": "ブルネイ",
        "name:ms": "Brunei Darussalam",
        "name:ms-jawi": "بروني دارالسلام",
        "name:ru": "Бруней",
        "name:sk": "Brunej",
        "name:sv": "Brunei",
        "name:ta": "புரூணை",
        "name:uz": "Bruney",
        "name:vo": "Brunän",
        "name:zh": "汶莱",
        "official_name": "Negara Brunei Darussalam",
        "official_name:cs": "Stát Brunej Darussalam",
        "official_name:en": "Nation of Brunei Darussalam",
        "official_name:eo": "Sultanlando de Brunejo",
        "timezone": "Asia/Brunei",
        "type": "boundary",
        "wikidata": "Q921",
        "wikipedia": "en:Brunei",
        "@geometry": "center"
      },
      "geometry": {
        "type": "Point",
        "coordinates": [
          114.7198427,
          4.5518469
        ]
      },
      "id": "relation/2103120"
    }
  ]
}