{
  "type": "FeatureCollection",
  "generator": "overpass-ide",
  "copyright": "The data included in this document is from www.openstreetmap.org. The data is made available under ODbL.",
  "timestamp": "2017-12-10T20:15:01Z",
  "features": [
    {
      "type": "Feature",
      "properties": {
        "@id": "relation/51701",
        "ISO3166-1": "CH",
        "ISO3166-1:alpha2": "CH",
        "ISO3166-1:alpha3": "CHE",
        "ISO3166-1:numeric": "756",
        "TMC:cid_58:tabcd_1:Class": "Area",
        "TMC:cid_58:tabcd_1:LCLversion": "8.00",
        "TMC:cid_58:tabcd_1:LocationCode": "6",
        "admin_level": "2",
        "alt_name:eo": "Svislando;Svisio",
        "boundary": "administrative",
        "capital_city": "Bern",
        "country_code_fips": "SZ",
        "flag": "http://upload.wikimedia.org/wikipedia/commons/f/f3/Flag_of_Switzerland.svg",
        "int_name": "Schweiz",
        "is_in:continent": "Europe",
        "name": "Schweiz/Suisse/Svizzera/Svizra",
        "name:ace": "Swiss",
        "name:af": "Switserland",
        "name:als": "Schweiz",
        "name:am": "ስዊዘርላንድ",
        "name:an": "Suiza",
        "name:ang": "Sƿissland",
        "name:ar": "سويسرا",
        "name:arc": "ܣܘܝܣܪܐ",
        "name:arz": "سويسرا",
        "name:ast": "Suiza",
        "name:az": "İsveçrə",
        "name:ba": "Швейцария",
        "name:bar": "Schweiz",
        "name:bat-smg": "Šveicarėjė",
        "name:bcl": "Suisa",
        "name:be": "Швейцарыя",
        "name:be-tarask": "Швейцарыя",
        "name:bg": "Швейцария",
        "name:bi": "Switzerland",
        "name:bn": "Switzerland",
        "name:bo": "སུད་སི།",
        "name:bpy": "সুইজারল্যান্ড",
        "name:br": "Suis",
        "name:bs": "Švicarska",
        "name:bug": "Swiss",
        "name:bxr": "Швейцари",
        "name:ca": "Suïssa",
        "name:cdo": "Sô̤i-sê̤ṳ",
        "name:ce": "Швейцари",
        "name:ceb": "Swisa",
        "name:chr": "ᏍᏫᏣᎳᏂ",
        "name:chy": "Switzerland",
        "name:ckb": "سویس",
        "name:co": "Svizzera",
        "name:crh": "İsviçre",
        "name:cs": "Švýcarsko",
        "name:csb": "Szwajcarskô",
        "name:cu": "Свицєра",
        "name:cv": "Швейцари",
        "name:cy": "Y Swistir",
        "name:da": "Schweiz",
        "name:de": "Schweiz",
        "name:diq": "İswiçre",
        "name:dsb": "Šwicarska",
        "name:dv": "ސުވިޒަލޭންޑު",
        "name:dz": "སུའིཊ་ཛར་ལེན་",
        "name:ee": "Switzerland",
        "name:el": "Ελβετία",
        "name:eml": "Svézzra",
        "name:en": "Switzerland",
        "name:eo": "Svisujo",
        "name:es": "Suiza",
        "name:et": "Šveits",
        "name:eu": "Suitza",
        "name:ext": "Suiça",
        "name:fa": "سوئیس",
        "name:fi": "Sveitsi",
        "name:fiu-vro": "Sveits",
        "name:fo": "Sveis",
        "name:fr": "Suisse",
        "name:frp": "Suisse",
        "name:frr": "Swaits",
        "name:fur": "Svuizare",
        "name:fy": "Switserlân",
        "name:ga": "An Eilbhéis",
        "name:gag": "Şveyțariya",
        "name:gd": "An Eilbheis",
        "name:gl": "Suíza",
        "name:gn": "Suisa",
        "name:gsw": "Schwiiz",
        "name:gu": "સ્વિત્ઝરલેન્ડ",
        "name:gv": "Yn Elveeish",
        "name:hak": "Shuì-sṳ",
        "name:haw": "Kuikilani",
        "name:he": "שוויץ",
        "name:hi": "स्विट्ज़रलैंड",
        "name:hif": "Switzerland",
        "name:hr": "Švicarska",
        "name:hsb": "Šwicarska",
        "name:ht": "Swis",
        "name:hu": "Svájc",
        "name:hy": "Շվեյցարիա",
        "name:ia": "Suissa",
        "name:id": "Swiss",
        "name:ie": "Svissia",
        "name:ilo": "Switzerland",
        "name:io": "Suisia",
        "name:is": "Sviss",
        "name:it": "Svizzera",
        "name:ja": "スイス",
        "name:jbo": "elvetias",
        "name:jv": "Swiss",
        "name:ka": "შვეიცარია",
        "name:kaa": "Shveytsariya",
        "name:kbd": "Шуэцарэ",
        "name:kg": "Suisi",
        "name:kk": "Швейцария",
        "name:kl": "Schweizi",
        "name:kn": "ಸ್ವಿಟ್ಜರ್ಲ್ಯಾಂಡ್",
        "name:ko": "스위스",
        "name:koi": "Швейцарму",
        "name:krc": "Швейцария",
        "name:ksh": "Shwäĳz",
        "name:ku": "Swîsre",
        "name:kv": "Швейцария",
        "name:kw": "Swistir",
        "name:ky": "Швейцария",
        "name:la": "Helvetia",
        "name:lad": "Suisa",
        "name:lb": "Schwäiz",
        "name:lez": "Швейцария",
        "name:li": "Zweitserland",
        "name:lij": "Svissëa",
        "name:lmo": "Svìzzera",
        "name:ln": "Swisi",
        "name:lt": "Šveicarija",
        "name:ltg": "Šveicareja",
        "name:lv": "Šveice",
        "name:mdf": "Швейцария",
        "name:mg": "Soisa",
        "name:mhr": "Швейцарий",
        "name:mk": "Швајцарија",
        "name:ml": "സ്വിറ്റ്സര്‍ലാന്റ്",
        "name:mn": "Швейцари",
        "name:mr": "स्वित्झर्लंड",
        "name:ms": "Switzerland",
        "name:mt": "Żvizzera",
        "name:my": "ဆွစ်ဇာလန်နိုင်ငံ",
        "name:na": "Switzerland",
        "name:nah": "Suiza",
        "name:nap": "Sguizzera",
        "name:nds": "Swiez",
        "name:nds-nl": "Zwitserlaand",
        "name:ne": "स्विजरल्याण्ड",
        "name:new": "स्विट्जरल्याण्ड",
        "name:nl": "Zwitserland",
        "name:nn": "Sveits",
        "name:no": "Sveits",
        "name:nov": "Suisia",
        "name:nrm": "Suisse",
        "name:nv": "Swis Bikéyah",
        "name:oc": "Soïssa",
        "name:or": "ସୁଇଜରଲ୍ୟାଣ୍ଡ",
        "name:os": "Швейцари",
        "name:pa": "ਸਵਿਟਜ਼ਰਲੈਂਡ",
        "name:pag": "Switzerland",
        "name:pam": "Suiza",
        "name:pap": "Suisa",
        "name:pcd": "Suisse",
        "name:pdc": "Schweiz",
        "name:pfl": "Schwaiz",
        "name:pih": "Switsaland",
        "name:pl": "Szwajcaria",
        "name:pms": "Svìssera",
        "name:pnb": "سویٹزرلینڈ",
        "name:pnt": "Ελβετία",
        "name:ps": "سويس",
        "name:pt": "Suíça",
        "name:qu": "Suwisa",
        "name:rm": "Svizra",
        "name:rmy": "Elveciya",
        "name:ro": "Elveţia",
        "name:roa-rup": "Shwaitsã",
        "name:roa-tara": "Svizzere",
        "name:ru": "Швейцария",
        "name:rue": "Швайц",
        "name:rw": "Ubusuwisi",
        "name:sa": "स्विटजरलैंड",
        "name:sah": "Швейцария",
        "name:sc": "Isvìtzera",
        "name:scn": "Svìzzira",
        "name:sco": "Swisserland",
        "name:se": "Šveica",
        "name:sh": "Švajcarska",
        "name:si": "ස්විට්සර්ලන්තය",
        "name:sk": "Švajčiarsko",
        "name:sl": "Švica",
        "name:so": "Iswiizerlaan",
        "name:sq": "Zvicra",
        "name:sr": "Швајцарска",
        "name:ss": "ISwizalandi",
        "name:stq": "Swaits",
        "name:su": "Suis",
        "name:sv": "Schweiz",
        "name:sw": "Uswisi",
        "name:szl": "Szwajcaryjo",
        "name:ta": "சுவிட்சர்லாந்து",
        "name:te": "స్విట్జర్లాండ్",
        "name:tet": "Suisa",
        "name:tg": "Швейтсария",
        "name:th": "ประเทศสวิตเซอร์แลนด์",
        "name:tk": "Şweýsariýa",
        "name:tl": "Suwisa",
        "name:tok": "ma Suwasi",
        "name:tpi": "Suwisalan",
        "name:tr": "İsviçre",
        "name:tt": "Швейцария",
        "name:tzl": "Suiça",
        "name:udm": "Швейцария",
        "name:ug": "Shwétsariye",
        "name:uk": "Швейцарія",
        "name:ur": "سویٹزر لینڈ",
        "name:uz": "Shveysariya",
        "name:vec": "Svìzera",
        "name:vep": "Šveicarii",
        "name:vi": "Thụy Sĩ",
        "name:vls": "Zwitserland",
        "name:vo": "Jveizän",
        "name:war": "Swiza",
        "name:wo": "Suwis",
        "name:wuu": "瑞士",
        "name:xal": "Свисн Һазр",
        "name:xmf": "შვეიცარია",
        "name:yi": "שווייץ",
        "name:yo": "Swítsàlandì",
        "name:za": "Nyeiqswq",
        "name:zea": "Zwitserland",
        "name:zh": "瑞士",
        "name:zh-classical": "瑞士",
        "name:zh-min-nan": "Sūi-se",
        "name:zh-yue": "瑞士",
        "name:zh_pinyin": "Ruìshì",
        "official_name:ca": "Confederació Helvètica",
        "official_name:cs": "Švýcarská konfederace",
        "official_name:de": "Schweizerische Eidgenossenschaft",
        "official_name:el": "Ελβετική Συνομοσπονδία",
        "official_name:en": "Swiss Confederation",
        "official_name:eo": "Svisa Konfederacio",
        "official_name:fi": "Sveitsin valaliitto",
        "official_name:fr": "Confédération suisse",
        "official_name:id": "Konfederasi Swiss",
        "official_name:it": "Confederazione Svizzera",
        "official_name:ja": "スイス連邦",
        "official_name:la": "Confoederatio Helvetica",
        "official_name:lb": "Schwäizeresch Eidgenossenschaft",
        "official_name:lt": "Šveicarijos Konfederacija",
        "official_name:rm": "Confederaziun svizra",
        "official_name:sk": "Švajčiarska konfederácia",
        "official_name:sv": "Schweiziska edsförbundet",
        "official_name:vi": "Liên bang Thụy Sĩ",
        "old_name:eo": "Helvetio;Helvetujo",
        "timezone": "Europe/Zurich",
        "type": "boundary",
        "website": "http://www.ch.ch/",
        "wikidata": "Q39",
        "wikipedia": "de:Schweiz",
        "@geometry": "center"
      },
      "geometry": {
        "type": "Point",
        "coordinates": [
          8.2241027,
          46.8132299
        ]
      },
      "id": "relation/51701"
    },
    {
      "type": "Feature",
      "properties": {
        "@id": "relation/59065",
        "ISO3166-1": "BY",
        "ISO3166-1:alpha2": "BY",
        "ISO3166-1:alpha3": "BLR",
        "ISO3166-1:numeric": "112",
        "addr:country": "BY",
        "admin_level": "2",
        "alt_name:eo": "Belorusio",
        "alt_name:fr": "Biélorussie",
        "alt_name:vi": "Bạch Nga",
        "boundary": "administrative",
        "flag": "http://upload.wikimedia.org/wikipedia/commons/8/85/Flag_of_Belarus.svg",
        "int_name": "Belarus",
        "int_ref": "BY",
        "is_in:continent": "Europe",
        "name": "Беларусь",
        "name:ace": "Bèlarusia",
        "name:af": "Wit-Rusland",
        "name:ar": "روسيا البيضاء",
        "name:ast": "Bielorrusia",
        "name:az": "Belarus",
        "name:bar": "Weißrussland",
        "name:bat-smg": "Baltarosėjė",
        "name:bcl": "Belarus",
        "name:be": "Беларусь",
        "name:be-tarask": "Беларусь",
        "name:bg": "Беларус",
        "name:bi": "Belarus",
        "name:bjn": "Bilarusia",
        "name:bn": "বেলারুশ",
        "name:bo": "བྷེ་ལ་རསུ།",
        "name:bpy": "বেলারুস",
        "name:br": "Belarus",
        "name:bs": "Bjelorusija",
        "name:bxr": "Беларусь",
        "name:ca": "Bielorússia",
        "name:ce": "Белорусси",
        "name:ceb": "Biyelorusya",
        "name:chr": "ᏇᎳᎷᏍ",
        "name:ckb": "بیلاڕووس",
        "name:co": "Bielorussia",
        "name:crh": "Belarus",
        "name:cs": "Bělorusko",
        "name:csb": "Biôłorëskô",
        "name:cu": "Бѣла Роусь",
        "name:cv": "Беларуç",
        "name:cy": "Belarws",
        "name:da": "Hviderusland",
        "name:de": "Weißrussland",
        "name:diq": "Belarus",
        "name:dsb": "Běłoruska",
        "name:dv": "ބެލަރޫސް",
        "name:dz": "བེ་ལ་རུ་སུ།",
        "name:ee": "Belarus",
        "name:el": "Λευκορωσία",
        "name:en": "Belarus",
        "name:eo": "Belorusujo",
        "name:es": "Bielorrusia",
        "name:et": "Valgevene",
        "name:eu": "Bielorrusia",
        "name:ext": "Bielorrússia",
        "name:fa": "بلاروس",
        "name:ff": "Belaruusiya",
        "name:fi": "Valko-Venäjä",
        "name:fiu-vro": "Valgõvinne",
        "name:fo": "Hvítarussland",
        "name:fr": "Bélarus",
        "name:frp": "Bièlorussie",
        "name:frr": "Witjruslun",
        "name:fy": "Wyt-Ruslân",
        "name:ga": "An Bhealarúis",
        "name:gag": "Biyaz Rusiya",
        "name:gd": "A' Bhealaruis",
        "name:gl": "Bielorrusia",
        "name:gn": "Vielorrusia",
        "name:gu": "બેલારુસ",
        "name:gv": "Yn Velaroosh",
        "name:hak": "Pha̍k-ngò-lò-sṳ̂",
        "name:haw": "Belarusa",
        "name:he": "בלארוס",
        "name:hi": "बेलारूस",
        "name:hif": "Belarus",
        "name:hr": "Bjelorusija",
        "name:hsb": "Běłoruska",
        "name:ht": "Byelorisi",
        "name:hu": "Fehéroroszország",
        "name:hy": "Բելառուս",
        "name:ia": "Bielorussia",
        "name:id": "Belarus",
        "name:ie": "Bielorussia",
        "name:ilo": "Belarus",
        "name:io": "Bielorusia",
        "name:is": "Hvíta-Rússland",
        "name:it": "Bielorussia",
        "name:ja": "ベラルーシ",
        "name:jbo": "belrus",
        "name:jv": "Bélarus",
        "name:ka": "ბელარუსი",
        "name:kaa": "Belorussiya",
        "name:kbd": "Урысыху",
        "name:kg": "Belarusia",
        "name:kk": "Беларусь",
        "name:kl": "Hvideruslandi",
        "name:kn": "ಬೆಲಾರುಸ್",
        "name:ko": "벨라루스",
        "name:koi": "Беларусь",
        "name:krc": "Белоруссия",
        "name:ku": "Belarûs",
        "name:kv": "Беларусь",
        "name:kw": "Belarussi",
        "name:ky": "Беларусия",
        "name:la": "Ruthenia Alba",
        "name:lad": "Bielorusia",
        "name:lb": "Wäissrussland",
        "name:lez": "Беларусия",
        "name:li": "Wit-Rusland",
        "name:lij": "Bieloruscia",
        "name:lmo": "Bielurüssia",
        "name:ln": "Bielorusia",
        "name:lt": "Baltarusija",
        "name:ltg": "Boltkrīveja",
        "name:lv": "Baltkrievija",
        "name:mdf": "Беларузмастор",
        "name:mhr": "Белоруссий",
        "name:mi": "Pērara",
        "name:mk": "Белорусија",
        "name:ml": "ബെലാറുസ്",
        "name:mn": "Беларусь",
        "name:mr": "बेलारूस",
        "name:ms": "Belarus",
        "name:mt": "Belarus",
        "name:my": "ဘီလာရုဇ်နိုင်ငံ",
        "name:na": "Berarut",
        "name:nah": "Belarus",
        "name:nap": "Bielorussia",
        "name:nds": "Wittrussland",
        "name:nds-nl": "Wit-Ruslaand",
        "name:ne": "बेलारुस",
        "name:new": "बेलारुस",
        "name:nl": "Wit-Rusland",
        "name:nn": "Kviterussland",
        "name:no": "Hviterussland",
        "name:nov": "Belarus",
        "name:oc": "Bielorussia",
        "name:or": "ବେଲାଋଷ",
        "name:os": "Белорусси",
        "name:pam": "Bielorusya",
        "name:pap": "Belarus",
        "name:pcd": "Biélorussie",
        "name:pih": "Belerus",
        "name:pl": "Białoruś",
        "name:pms": "Bielorussia",
        "name:pnb": "بیلارس",
        "name:pnt": "Λευκορουσία",
        "name:ps": "بېلاروس",
        "name:pt": "Bielorrússia",
        "name:qu": "Bilarus",
        "name:rm": "Bielorussia",
        "name:ro": "Belarus",
        "name:roa-rup": "Arusia albã",
        "name:roa-tara": "Russie Vianghe",
        "name:ru": "Беларусь",
        "name:rue": "Білорусія",
        "name:rw": "Belarusi",
        "name:sa": "बेलारूस",
        "name:sah": "Беларусь",
        "name:scn": "Bielurussia",
        "name:sco": "Belaroushie",
        "name:se": "Vilges-Ruošša",
        "name:sh": "Belorusija",
        "name:si": "බෙලාරස්",
        "name:sk": "Bielorusko",
        "name:sl": "Belorusija",
        "name:so": "Belarus",
        "name:sq": "Bjellorusia",
        "name:sr": "Белорусија",
        "name:srn": "Belarusikondre",
        "name:ss": "IBhelalasi",
        "name:stq": "Wietruslound",
        "name:su": "Bélarus",
        "name:sv": "Vitryssland",
        "name:sw": "Belarus",
        "name:szl": "Bjołoruś",
        "name:ta": "பெலருஸ்",
        "name:te": "బెలారస్",
        "name:tg": "Беларус",
        "name:th": "ประเทศเบลารุส",
        "name:tk": "Belorussiýa",
        "name:tl": "Biyelorusya",
        "name:tpi": "Belaras",
        "name:tr": "Beyaz Rusya",
        "name:ts": "Belarus",
        "name:tt": "Беларусия",
        "name:ty": "Belarus",
        "name:udm": "Белоруссия",
        "name:ug": "بېلورۇسسىيە",
        "name:uk": "Білорусь",
        "name:ur": "بیلاروس",
        "name:uz": "Belarus",
        "name:vec": "Biełorusia",
        "name:vep": "Vaugedvenäma",
        "name:vi": "Belarus",
        "name:vo": "Belarusän",
        "name:war": "Belarus",
        "name:wo": "Belaarus",
        "name:xal": "Цаһанорсин Орн",
        "name:xmf": "ბელარუსი",
        "name:yi": "בעלארוס",
        "name:yo": "Bẹ̀lárùs",
        "name:zea": "Wit-Rusland",
        "name:zh": "白俄罗斯",
        "name:zh-classical": "白俄羅斯",
        "name:zh-min-nan": "Belarus",
        "name:zh-yue": "白俄羅斯",
        "name:zu": "IBelarusi",
        "official_name": "Рэспубліка Беларусь",
        "official_name:ar": "جمهورية روسيا البيضاء",
        "official_name:be": "Рэспублiка Беларусь",
        "official_name:be-tarask": "Рэспубліка Беларусь",
        "official_name:cs": "Běloruská republika",
        "official_name:en": "Republic of Belarus",
        "official_name:eo": "Respubliko Belorusujo",
        "official_name:lt": "Baltarusijos respublika",
        "official_name:pt": "República da Bielorrússia",
        "official_name:ru": "Республика Беларусь",
        "official_name:sl": "Republika Belorusija",
        "official_name:uk": "Республіка Білорусь",
        "old_name:eo": "Bjelorusio;Bjelorusujo",
        "population": "9465150",
        "population:date": "2012",
        "timezone": "Europe/Minsk",
        "type": "boundary",
        "wikidata": "Q184",
        "wikipedia": "be:Беларусь",
        "@geometry": "center"
      },
      "geometry": {
        "type": "Point",
        "coordinates": [
          27.9705577,
          53.7148891
        ]
      },
      "id": "relation/59065"
    },
    {
      "type": "Feature",
      "properties": {
        "@id": "relation/82636",
        "ISO3166-1": "CC",
        "ISO3166-1:alpha2": "CC",
        "admin_level": "4",
        "alt_name:cs": "Keelingovy ostrovy",
        "boundary": "administrative",
        "name": "Cocos (Keeling) Islands",
        "name:cs": "Kokosové ostrovy",
        "name:eo": "Kokosinsuloj",
        "name:hr": "Kokosovi Otoci",
        "name:nl": "Cocoseilanden",
        "official_name:cs": "Území Kokosové ostrovy",
        "place": "state",
        "short_name:cs": "Území Keelingovy ostrovy",
        "timezone": "Indian/Cocos",
        "type": "boundary",
        "wikidata": "Q36004",
        "wikipedia": "en:Cocos (Keeling) Islands",
        "@geometry": "center"
      },
      "geometry": {
        "type": "Point",
        "coordinates": [
          96.8741291,
          -12.0134557
        ]
      },
      "id": "relation/82636"
    },
    {
      "type": "Feature",
      "properties": {
        "@id": "relation/120027",
        "ISO3166-1": "CO",
        "ISO3166-1:alpha2": "CO",
        "ISO3166-1:alpha3": "COL",
        "ISO3166-1:numeric": "170",
        "admin_level": "2",
        "boundary": "administrative",
        "flag": "http://upload.wikimedia.org/wikipedia/commons/2/21/Flag_of_Colombia.svg",
        "int_name": "Colombia",
        "is_in:continent": "South America",
        "name": "Colombia",
        "name:ace": "Kolombia",
        "name:af": "Colombia",
        "name:als": "Kolumbien",
        "name:am": "ኮሎምቢያ",
        "name:an": "Colombia",
        "name:ang": "Colombia",
        "name:ar": "كولومبيا",
        "name:arc": "ܩܘܠܘܡܒܝܐ",
        "name:arz": "كولومبيا",
        "name:ast": "Colombia",
        "name:ay": "Kuluwya",
        "name:az": "Kolumbiya",
        "name:ba": "Колумбия",
        "name:bar": "Kolumbien",
        "name:bat-smg": "Kuolombėjė",
        "name:bcl": "Kolombya",
        "name:be": "Калумбія",
        "name:be-tarask": "Калюмбія",
        "name:bg": "Колумбия",
        "name:bi": "Colombia",
        "name:bn": "কলম্বিয়া",
        "name:bo": "ཁོ་ལོམ་བི་ཡ།",
        "name:bpy": "কলম্বিয়া",
        "name:br": "Kolombia",
        "name:bs": "Kolumbija",
        "name:bxr": "Колумби",
        "name:ca": "Colòmbia",
        "name:cbk-zam": "Colombia",
        "name:ce": "Колумби",
        "name:ceb": "Colombia",
        "name:ckb": "کۆلۆمبیا",
        "name:co": "Colombia",
        "name:crh": "Kolombiya",
        "name:cs": "Kolumbie",
        "name:cv": "Колумби",
        "name:cy": "Colombia",
        "name:da": "Colombia",
        "name:de": "Kolumbien",
        "name:diq": "Kolombiya",
        "name:dsb": "Kolumbiska",
        "name:dv": "ކޮލަންބިއާ",
        "name:dz": "ཀོ་ལོམ་བི་ཡ",
        "name:ee": "Colombia",
        "name:el": "Κολομβία",
        "name:en": "Colombia",
        "name:eo": "Kolombio",
        "name:es": "Colombia",
        "name:et": "Colombia",
        "name:eu": "Kolonbia",
        "name:ext": "Colómbia",
        "name:fa": "کلمبیا",
        "name:fi": "Kolumbia",
        "name:fiu-vro": "Colombia",
        "name:fo": "Kolumbia",
        "name:fr": "Colombie",
        "name:frp": "Colombie",
        "name:frr": "Kolumbien",
        "name:fy": "Kolombia",
        "name:ga": "An Cholóim",
        "name:gag": "Kolumbiya",
        "name:gan": "哥倫比亞",
        "name:gd": "Coloimbia",
        "name:gl": "Colombia",
        "name:gn": "Kolómbia",
        "name:gu": "કોલમ્બિયા",
        "name:gv": "Yn Cholombey",
        "name:hak": "Kô-lùn-pí-â",
        "name:he": "קולומביה",
        "name:hi": "कोलम्बिया",
        "name:hif": "Colombia",
        "name:hr": "Kolumbija",
        "name:hsb": "Kolumbiska",
        "name:ht": "Kolonbi",
        "name:hu": "Kolumbia",
        "name:hy": "Կոլումբիա",
        "name:ia": "Colombia",
        "name:id": "Kolombia",
        "name:ie": "Columbia",
        "name:ilo": "Colombia",
        "name:io": "Kolumbia",
        "name:is": "Kólumbía",
        "name:it": "Colombia",
        "name:ja": "コロンビア",
        "name:jbo": "kolombias",
        "name:jv": "Kolombia",
        "name:ka": "კოლუმბია",
        "name:kk": "Колумбия Республикасы",
        "name:kl": "Colombia",
        "name:km": "កូឡុំប៊ី",
        "name:kn": "ಕೊಲೊಂಬಿಯ",
        "name:ko": "콜롬비아",
        "name:ku": "Kolombiya",
        "name:kw": "Kolombi",
        "name:la": "Columbia",
        "name:lad": "Kolombia",
        "name:lb": "Kolumbien",
        "name:li": "Colombia",
        "name:lij": "Colombia",
        "name:lmo": "Culumbia",
        "name:ln": "Kolombi",
        "name:lt": "Kolumbija",
        "name:ltg": "Kolumbeja",
        "name:lv": "Kolumbija",
        "name:mg": "Kolombia",
        "name:mhr": "Колумбий",
        "name:mk": "Колумбија",
        "name:ml": "കൊളംബിയ",
        "name:mn": "Колумб",
        "name:mr": "कोलंबिया",
        "name:mrj": "Колумби",
        "name:ms": "Colombia",
        "name:mt": "Kolombja",
        "name:my": "ကိုလံဘီယာနိုင်ငံ",
        "name:na": "Korombiya",
        "name:nah": "Colombia",
        "name:nds": "Kolumbien",
        "name:ne": "कोलम्बिया",
        "name:new": "कोलम्बिया",
        "name:nl": "Colombia",
        "name:nn": "Colombia",
        "name:no": "Colombia",
        "name:nov": "Kolombia",
        "name:nso": "Kolombia",
        "name:nv": "Kolámbiya",
        "name:oc": "Colómbia",
        "name:om": "Colombia",
        "name:or": "କଲୋମ୍ବିଆ",
        "name:os": "Колумби",
        "name:pa": "ਕੋਲੰਬੀਆ",
        "name:pag": "Colombia",
        "name:pam": "Colombia",
        "name:pap": "Colombia",
        "name:pl": "Kolumbia",
        "name:pms": "Colombia",
        "name:pnb": "کولمبیا",
        "name:pt": "Colômbia",
        "name:qu": "Kulumbya",
        "name:rm": "Columbia",
        "name:rmy": "Kolombiya",
        "name:ro": "Columbia",
        "name:ru": "Колумбия",
        "name:rw": "Kolombiya",
        "name:sa": "कोलोम्बिया",
        "name:sah": "Колумбия",
        "name:scn": "Colombia",
        "name:sco": "Colombie",
        "name:se": "Kolombia",
        "name:sh": "Kolumbija",
        "name:sk": "Kolumbia",
        "name:sl": "Kolumbija",
        "name:so": "Kolombiya",
        "name:sq": "Kolumbia",
        "name:sr": "Колумбија",
        "name:srn": "Kolombikondre",
        "name:stq": "Kolumbien",
        "name:su": "Kolombia",
        "name:sv": "Colombia",
        "name:sw": "Kolombia",
        "name:szl": "Kolůmbijo",
        "name:ta": "கொலொம்பியா",
        "name:te": "కొలంబియా",
        "name:tet": "Kolómbia",
        "name:tg": "Кулумбия",
        "name:th": "ประเทศโคลอมเบีย",
        "name:tl": "Colombia",
        "name:tr": "Kolombiya",
        "name:ts": "Colombia",
        "name:tt": "Колумбия",
        "name:tzl": "Colombia",
        "name:udm": "Колумбия",
        "name:ug": "كولومبىيە",
        "name:uk": "Колумбія",
        "name:ur": "کولمبیا",
        "name:uz": "Kolumbiya",
        "name:vec": "Cołonbia",
        "name:vi": "Colombia",
        "name:vo": "Kolumbän",
        "name:war": "Colombia",
        "name:wo": "Koloombi",
        "name:wuu": "哥伦比亚",
        "name:xal": "Коламбудин Орн",
        "name:xh": "IsiColombia",
        "name:xmf": "კოლუმბია",
        "name:yi": "קאלאמביע",
        "name:yo": "Kòlómbìà",
        "name:zea": "Colombia",
        "name:zh": "哥伦比亚",
        "name:zh-classical": "哥倫比亞",
        "name:zh-min-nan": "Colombia",
        "name:zh-yue": "哥倫比亞",
        "name:zu": "IKolombiya",
        "official_name": "República de Colombia",
        "official_name:cs": "Kolumbijská republika",
        "official_name:eo": "Kolombia Respubliko",
        "official_name:fr": "République de Colombie",
        "timezone": "America/Bogota",
        "type": "boundary",
        "wikidata": "Q739",
        "wikipedia": "es:Colombia",
        "@geometry": "center"
      },
      "geometry": {
        "type": "Point",
        "coordinates": [
          -74.4877786,
          5.9127199
        ]
      },
      "id": "relation/120027"
    },
    {
      "type": "Feature",
      "properties": {
        "@id": "relation/167454",
        "ISO3166-1": "CL",
        "ISO3166-1:alpha2": "CL",
        "ISO3166-1:alpha3": "CHL",
        "ISO3166-1:numeric": "152",
        "admin_level": "2",
        "boundary": "administrative",
        "flag": "http://upload.wikimedia.org/wikipedia/commons/7/78/Flag_of_Chile.svg",
        "is_in:continent": "South America",
        "name": "Chile",
        "name:ab": "Чили",
        "name:ace": "Chili",
        "name:af": "Chili",
        "name:ak": "Chile",
        "name:als": "Chile",
        "name:am": "ቺሌ",
        "name:an": "Chile",
        "name:ang": "Cile",
        "name:ar": "تشيلي",
        "name:arc": "ܬܫܝܠܝ",
        "name:arz": "تشيلى",
        "name:ast": "Chile",
        "name:ay": "Chili",
        "name:az": "Çili",
        "name:ba": "Чили",
        "name:bar": "Chile",
        "name:bat-smg": "Čilė",
        "name:bcl": "Tsile",
        "name:be": "Чылі",
        "name:be-tarask": "Чылі",
        "name:bg": "Чили",
        "name:bi": "Chile",
        "name:bn": "চিলি",
        "name:bo": "ཅི་ལི།",
        "name:bpy": "চিলি",
        "name:br": "Chile",
        "name:bs": "Čile",
        "name:ca": "Xile",
        "name:cbk-zam": "Chile",
        "name:ce": "Чили",
        "name:ceb": "Chile",
        "name:ch": "Chile",
        "name:chy": "Chile",
        "name:ckb": "چیلی",
        "name:co": "Cile",
        "name:crh": "Çile",
        "name:cs": "Chile",
        "name:csb": "Chile",
        "name:cv": "Чили",
        "name:cy": "Chile",
        "name:da": "Chile",
        "name:de": "Chile",
        "name:diq": "Şili",
        "name:dsb": "Chilska",
        "name:dv": "ޗިލީ",
        "name:ee": "Chile",
        "name:el": "Χιλή",
        "name:eml": "Cîl",
        "name:en": "Chile",
        "name:eo": "Ĉilio",
        "name:es": "Chile",
        "name:et": "Tšiili",
        "name:eu": "Txile",
        "name:ext": "Chili",
        "name:fa": "شیلی",
        "name:fi": "Chile",
        "name:fiu-vro": "Tsiili",
        "name:fo": "Kili",
        "name:fr": "Chili",
        "name:frp": "Ch·ili",
        "name:frr": "Chiile",
        "name:fur": "Cile",
        "name:fy": "Sily",
        "name:ga": "An tSile",
        "name:gag": "Çili",
        "name:gd": "An t-Sile",
        "name:gl": "Chile",
        "name:gn": "Chile",
        "name:gu": "ચીલી",
        "name:gv": "Yn Çhillee",
        "name:ha": "Chile",
        "name:hak": "Chṳ-li",
        "name:he": "צ'ילה",
        "name:hi": "चिली",
        "name:hif": "Chile",
        "name:hr": "Čile",
        "name:hsb": "Chilska",
        "name:ht": "Chili",
        "name:hu": "Chile",
        "name:hy": "Չիլի",
        "name:ia": "Chile",
        "name:id": "Chili",
        "name:ie": "Chile",
        "name:ilo": "Chile",
        "name:io": "Chili",
        "name:is": "Síle",
        "name:it": "Cile",
        "name:ja": "チリ",
        "name:jbo": "tciles",
        "name:jv": "Chili",
        "name:ka": "ჩილე",
        "name:kaa": "Chili",
        "name:kab": "Cili",
        "name:kg": "Chile",
        "name:kk": "Чили",
        "name:kl": "Chile",
        "name:kn": "ಚಿಲಿ",
        "name:ko": "칠레",
        "name:ku": "Şîle",
        "name:kv": "Чили",
        "name:kw": "Chile",
        "name:ky": "Чили",
        "name:la": "Chilia",
        "name:lad": "Chile",
        "name:lb": "Chile",
        "name:lez": "Чили",
        "name:li": "Chili",
        "name:lij": "Cile",
        "name:lmo": "Cile",
        "name:ln": "Shili",
        "name:lt": "Čilė",
        "name:ltg": "Čile",
        "name:lv": "Čīle",
        "name:mhr": "Чили",
        "name:mi": "Hiri",
        "name:mk": "Чиле",
        "name:ml": "ചിലി",
        "name:mn": "Чили",
        "name:mr": "चिली",
        "name:mrj": "Чили",
        "name:ms": "Chile",
        "name:mt": "Ċili",
        "name:mwl": "Chile",
        "name:my": "ချီလီပြည်သူ့သမ္မတနိုင်ငံ",
        "name:mzn": "شیلی",
        "name:na": "Tsire",
        "name:nah": "Chile",
        "name:nap": "Cile",
        "name:nds": "Chile",
        "name:nds-nl": "Chili",
        "name:ne": "चिली",
        "name:nl": "Chili",
        "name:nn": "Chile",
        "name:no": "Chile",
        "name:nov": "Chile",
        "name:nrm": "Chili",
        "name:nso": "Chile",
        "name:nv": "Chíilii",
        "name:oc": "Chile",
        "name:or": "ଚିଲି",
        "name:os": "Чили",
        "name:pa": "ਚਿਲੇ",
        "name:pag": "Chile",
        "name:pam": "Chile",
        "name:pap": "Chile",
        "name:pdc": "Chile",
        "name:pih": "Chili",
        "name:pl": "Chile",
        "name:pms": "Cile",
        "name:pnb": "چلی",
        "name:ps": "چېلي",
        "name:pt": "Chile",
        "name:qu": "Chili",
        "name:rm": "Chile",
        "name:rmy": "Chile",
        "name:rn": "Chile",
        "name:ro": "Chile",
        "name:roa-rup": "Cile",
        "name:roa-tara": "Cile",
        "name:ru": "Чили",
        "name:rue": "Чіле",
        "name:rw": "Shili",
        "name:sa": "चिले",
        "name:sah": "Чили",
        "name:sc": "Cile",
        "name:scn": "Cili",
        "name:sco": "Chile",
        "name:se": "Chile",
        "name:sh": "Čile",
        "name:si": "චිලි ජනරජය",
        "name:simple": "Chile",
        "name:sk": "Čile",
        "name:sl": "Čile",
        "name:so": "Jili",
        "name:sq": "Kilia",
        "name:sr": "Чиле",
        "name:ss": "IShile",
        "name:st": "Chile",
        "name:stq": "Chile",
        "name:su": "Chili",
        "name:sv": "Chile",
        "name:sw": "Chile",
        "name:szl": "Czile",
        "name:ta": "சிலி",
        "name:te": "చిలీ",
        "name:tet": "Xile",
        "name:tg": "Чиле",
        "name:th": "ประเทศชิลี",
        "name:tk": "Çili",
        "name:tl": "Chile",
        "name:tok": "ma Sile",
        "name:tr": "Şili",
        "name:ts": "Chile",
        "name:tt": "Чили",
        "name:tzl": "Cile",
        "name:ug": "چىلى",
        "name:uk": "Чилі",
        "name:ur": "چلی",
        "name:uz": "Chili",
        "name:vec": "Ciłe",
        "name:vep": "Čili",
        "name:vi": "Chile",
        "name:vls": "Chili",
        "name:vo": "Cilän",
        "name:wa": "Tchili",
        "name:war": "Chile",
        "name:wo": "Sili",
        "name:wuu": "智利",
        "name:xal": "Чилмудин Орн",
        "name:xmf": "ჩილე",
        "name:yi": "טשילע",
        "name:yo": "Tsílè",
        "name:za": "Chile",
        "name:zea": "Chili",
        "name:zh": "智利",
        "name:zh-classical": "智利",
        "name:zh-min-nan": "Chile",
        "name:zh-yue": "智利",
        "official_name:cs": "Chilská republika",
        "timezone": "America/Santiago",
        "type": "boundary",
        "wikidata": "Q298",
        "wikipedia": "es:Chile",
        "@geometry": "center"
      },
      "geometry": {
        "type": "Point",
        "coordinates": [
          -87.8774631,
          -37.1116999
        ]
      },
      "id": "relation/167454"
    },
    {
      "type": "Feature",
      "properties": {
        "@id": "relation/192779",
        "ISO3166-1": "CI",
        "ISO3166-1:alpha2": "CI",
        "ISO3166-1:alpha3": "CIV",
        "ISO3166-1:numeric": "384",
        "admin_level": "2",
        "alt_name": "Côte d'Ivoire",
        "alt_name:eo": "Ebura Bordo",
        "boundary": "administrative",
        "currency": "XOF",
        "flag": "http://upload.wikimedia.org/wikipedia/commons/f/fe/Flag_of_C%C3%B4te_d%27Ivoire.svg",
        "is_in:continent": "Africa",
        "name": "Côte d’Ivoire",
        "name:UN:ar": "كوت ديفوار",
        "name:UN:en": "Côte d'Ivoire",
        "name:UN:es": "Côte d'Ivoire",
        "name:UN:fr": "Côte d’Ivoire (la)",
        "name:UN:ru": "Кот-д'Ивуар",
        "name:UN:zh": "科特迪瓦",
        "name:ace": "Panté Gadéng",
        "name:af": "Ivoorkus",
        "name:als": "Elfenbeinküste",
        "name:am": "ኮት ዲቯር",
        "name:an": "Costa de Vori",
        "name:ang": "Elpendbānrima",
        "name:ar": "كوت ديفوار",
        "name:arz": "كوت ديفوار",
        "name:ast": "Costa de Marfil",
        "name:az": "Fil Dişi Sahili",
        "name:bat-smg": "Dramblė Kaula Kronts",
        "name:be": "Кот-д'Івуар",
        "name:be-tarask": "Кот д’Івуар",
        "name:bg": "Кот д'Ивоар",
        "name:bjn": "Pantai Gading",
        "name:bm": "Côte d'Ivoire",
        "name:bn": "কোত দিভোয়ার",
        "name:bo": "ཀོ་ཊི་ཌི་ཨའི་བོ་རི།",
        "name:bpy": "কটে ডি'আইভরি",
        "name:br": "Aod an Olifant",
        "name:bs": "Obala Slonovače",
        "name:bxr": "Кот д'Ивуар",
        "name:ca": "Costa d'Ivori",
        "name:ce": "Кот-д’Ивуар",
        "name:ceb": "Baybayon sa Marpil",
        "name:ckb": "کۆتدیڤوار",
        "name:crh": "Filtiş Yalısı",
        "name:cs": "Pobřeží slonoviny",
        "name:cv": "Кот-д'Ивуар",
        "name:cy": "Côte d'Ivoire",
        "name:da": "Elfenbenskysten",
        "name:de": "Elfenbeinküste",
        "name:diq": "Sahilê Dındanê Fili",
        "name:dv": "އައިވަރީ ކޯސްޓު",
        "name:ee": "Côte d'Ivoire",
        "name:el": "Ακτή Ελεφαντοστού",
        "name:en": "Côte d'Ivoire",
        "name:eo": "Ebur-Bordo",
        "name:es": "Costa de Marfil",
        "name:et": "Elevandiluurannik",
        "name:eu": "Boli Kosta",
        "name:ext": "Costa de Marfil",
        "name:fa": "ساحل عاج",
        "name:ff": "Kodduwaar",
        "name:fi": "Norsunluurannikko",
        "name:fiu-vro": "Elevandiluurand",
        "name:fo": "Fílabeinsstrondin",
        "name:fr": "Côte d’Ivoire",
        "name:frp": "Couta d’Ivouèro",
        "name:fy": "Ivoarkust",
        "name:ga": "An Cósta Eabhair",
        "name:gag": "Fildişi Kıyısı",
        "name:gd": "Costa Ìbhri",
        "name:gl": "Costa do Marfil",
        "name:gv": "Yn Clyst Iuaagagh",
        "name:he": "חוף השנהב",
        "name:hi": "कोत द'ईवोआर",
        "name:hif": "Côte d'Ivoire",
        "name:hr": "Obala Bjelokosti",
        "name:hsb": "Słonowinowy pobrjóh",
        "name:ht": "Kòt divwa",
        "name:hu": "Elefántcsontpart",
        "name:hy": "Կոտ դ'Իվուար",
        "name:ia": "Costa de Ebore",
        "name:id": "Pantai Gading",
        "name:ie": "Costa de Ivor",
        "name:ilo": "Costa Ivoria",
        "name:io": "Ivora Rivo",
        "name:is": "Fílabeinsströndin",
        "name:it": "Costa d'Avorio",
        "name:ja": "コートジボワール",
        "name:jv": "Panté Gadhing",
        "name:ka": "კოტ-დ’ივუარი",
        "name:kg": "Côte d'Ivoire",
        "name:ki": "Côte d'Ivoire",
        "name:kk": "Кот-д-Ивуар",
        "name:kn": "ಕೋತ್ ದ್'ಇವಾರ್",
        "name:ko": "코트디부아르",
        "name:ku": "Peravê Diranfîl",
        "name:kw": "Côte d'Ivoire",
        "name:la": "Litus Eburneum",
        "name:lad": "Kosta de Marfil",
        "name:lb": "Elfebeeküst",
        "name:li": "Ivoorkös",
        "name:lij": "Còsta d'Avòïo",
        "name:lmo": "Costa d'Avori",
        "name:ln": "Kotdivuar",
        "name:lt": "Dramblio Kaulo Krantas",
        "name:lv": "Kotdivuāra",
        "name:mg": "Côte d'Ivoire",
        "name:mk": "Брег на Слоновата Коска",
        "name:ml": "ഐവറി കോസ്റ്റ്",
        "name:mn": "Кот д'Ивуар",
        "name:mr": "कोत द'ईवोआर",
        "name:mrj": "Кот-д’Ивуар",
        "name:ms": "Ivory Coast",
        "name:mt": "Kosta tal-Avorju",
        "name:my": "အိုင်ဗရီကို့စ်နိုင်ငံ",
        "name:na": "Aibori Kot",
        "name:nah": "Tlanomihuēyātēnco",
        "name:nds": "Elfenbeenküst",
        "name:nds-nl": "Ivoorkuste",
        "name:ne": "आइभरी कोस्ट",
        "name:new": "आइभोरी कोस्ट",
        "name:nl": "Ivoorkust",
        "name:nn": "Elfenbeinskysten",
        "name:no": "Elfenbenskysten",
        "name:nov": "Côte d'Ivoire",
        "name:nrm": "Côte d'Iviéthe",
        "name:nso": "Côte d'Ivoire",
        "name:nv": "Chį́į́h Yee Adilohii Bideeʼ Tónteel Bibąąh",
        "name:oc": "Còsta d'Evòri",
        "name:or": "ଆଇଭେରି କୋଷ୍ଟ",
        "name:os": "Кот-д’Ивуар",
        "name:pa": "ਦੰਦ ਖੰਡ ਤਟ",
        "name:pam": "Côte d'Ivoire",
        "name:pdc": "Ivory Coast",
        "name:pl": "Wybrzeże Kości Słoniowej",
        "name:pms": "Còsta d'Avòri",
        "name:pnb": "آئیوری کوسٹ",
        "name:ps": "عاج ساحل",
        "name:pt": "Costa do Marfim",
        "name:qu": "Marphil Chala",
        "name:rm": "Costa d'Ivur",
        "name:ro": "Coasta de Fildeș",
        "name:roa-rup": "Côte d'Ivoire",
        "name:ru": "Кот-д’Ивуар",
        "name:rw": "Kote Divuwari",
        "name:sa": "कोट ऐवरी",
        "name:sah": "Кот д'Ивуар",
        "name:sc": "Costa de Avòriu",
        "name:scn": "Côte d'Ivoire",
        "name:sco": "Côte d'Ivoire",
        "name:se": "Elefántačalánriddu",
        "name:sg": "Kôdivüära",
        "name:sh": "Obala Slonovače",
        "name:si": "අයිවරි කෝස්ට්",
        "name:sk": "Pobrežie Slonoviny",
        "name:sl": "Slonokoščena obala",
        "name:sn": "Côte d'Ivoire",
        "name:so": "Xeebta Foolmaroodi",
        "name:sq": "Bregu i Fildishtë",
        "name:sr": "Обала Слоноваче",
        "name:ss": "Lugu Lwempondvondlovu",
        "name:stq": "Älfenbeenkuste",
        "name:su": "Basisir Gading",
        "name:sv": "Elfenbenskusten",
        "name:sw": "Cote d'Ivoire",
        "name:szl": "Wybrzeże Elefantowych Gnatůw",
        "name:ta": "கோட் டிவார்",
        "name:te": "కోటె డి ఐవొరి",
        "name:tg": "Кот-д'Ивуар",
        "name:th": "ประเทศโกตดิวัวร์",
        "name:tk": "Kot-d’Iwuar",
        "name:tl": "Baybaying Garing",
        "name:tok": "ma Kosiwa",
        "name:tr": "Fildişi Sahili",
        "name:ts": "Côte d'Ivoire",
        "name:tt": "Кот-д’Ивуар",
        "name:tzl": "Costa d'Ivoria",
        "name:ug": "پىل چىشى قىرغىغى",
        "name:uk": "Кот-д'Івуар",
        "name:ur": "کوت داوواغ",
        "name:uz": "Kot-d‘ivuar",
        "name:vec": "Costa d'Avorio",
        "name:vi": "Bờ Biển Ngà",
        "name:vo": "Viorajolän",
        "name:war": "Côte d'Ivoire",
        "name:wo": "Kodiwaar",
        "name:wuu": "科特迪瓦",
        "name:xal": "Котдивугармудин Орн",
        "name:yi": "בארטן פון העלפאנדביין",
        "name:yo": "Côte d'Ivoire",
        "name:zh": "科特迪瓦",
        "name:zh-min-nan": "Côte d'Ivoire",
        "name:zh-yue": "象牙海岸",
        "name:zu": "Ugu Emhlophe",
        "official_name": "République de Côte d’Ivoire",
        "official_name:cs": "Republika Pobřeží slonoviny",
        "official_name:de": "Republik Côte d’Ivoire",
        "official_name:en": "Republic of Côte d’Ivoire",
        "official_name:eo": "Ebur-Borda Respubliko",
        "official_name:es": "República de Costa de Marfil",
        "official_name:fr": "République de Côte d’Ivoire",
        "timezone": "Africa/Abidjan",
        "type": "boundary",
        "wikidata": "Q1008",
        "wikipedia": "fr:Côte d'Ivoire",
        "@geometry": "center"
      },
      "geometry": {
        "type": "Point",
        "coordinates": [
          -5.547378,
          7.4511587
        ]
      },
      "id": "relation/192779"
    },
    {
      "type": "Feature",
      "properties": {
        "@id": "relation/192790",
        "ISO3166-1": "CF",
        "ISO3166-1:alpha2": "CF",
        "ISO3166-1:alpha3": "CAF",
        "ISO3166-1:numeric": "140",
        "admin_level": "2",
        "alt_name:fr": "Republique Centre Africaine;CentreAfrique",
        "alt_name:sl": "Centralnoafriška republika",
        "boundary": "administrative",
        "currency": "XAF",
        "flag": "http://upload.wikimedia.org/wikipedia/commons/6/6f/Flag_of_the_Central_African_Republic.svg",
        "is_in:continent": "Africa",
        "name": "Ködörösêse tî Bêafrîka - République Centrafricaine",
        "name:ace": "Republik Afrika Teungoh",
        "name:af": "Sentraal-Afrikaanse Republiek",
        "name:als": "Zentralafrikanische Republik",
        "name:am": "የመካከለኛው አፍሪካ ሪፐብሊክ",
        "name:an": "Republica Centroafricana",
        "name:ang": "Middel Affricanisc Cynewīse",
        "name:ar": "جمهورية أفريقيا الوسطى",
        "name:arc": "ܩܘܛܢܝܘܬܐ ܕܐܦܪܝܩܐ ܡܨܥܝܬܐ",
        "name:arz": "افريقيا الوسطى",
        "name:ast": "República Centroafricana",
        "name:az": "Mərkəzi Afrika Respublikası",
        "name:bat-smg": "Cėntrėnės Afrėkas Respoblėka",
        "name:bcl": "Sentral na Aprikanong Republika",
        "name:be": "Цэнтральна-Афрыканская Рэспубліка",
        "name:be-tarask": "Цэнтральна-Афрыканская Рэспубліка",
        "name:bg": "Централноафриканска република",
        "name:bjn": "Ripublik Aprika Tangah",
        "name:bm": "Cema Afrika Fasojamana",
        "name:bn": "মধ্য আফ্রিকান প্রজাতন্ত্র",
        "name:bo": "དབུས་ཨ་ཧྥེ་རི་ཁན་རི་པཔ་ལིཀ།",
        "name:bpy": "মধ্য আফ্রিকা",
        "name:br": "Republik Kreizafrikan",
        "name:bs": "Centralnoafrička Republika",
        "name:bxr": "Түб Африкын Улас",
        "name:ca": "República Centreafricana",
        "name:ce": "Юккъерчу Африкин Республика",
        "name:ceb": "Republikang Sentral Aprikano",
        "name:ckb": "کۆماری ئەفریقای ناوەڕاست",
        "name:crh": "Merkeziy Afrika",
        "name:cs": "Středoafrická republika",
        "name:cy": "Gweriniaeth Canolbarth Affrica",
        "name:da": "Centralafrikanske Republik",
        "name:de": "Zentralafrikanische Republik",
        "name:diq": "Cumhuriyetê Afrikaya Miyanêne",
        "name:dsb": "Centralnoafriska republika",
        "name:dv": "މެދުތެރޭ އެފްރިކާގެ ޖުމްހޫރިއްޔާ",
        "name:ee": "Central African Republic",
        "name:el": "Κεντροαφρικανική Δημοκρατία",
        "name:en": "Central African Republic",
        "name:eo": "Centr-Afriko",
        "name:es": "República Centroafricana",
        "name:et": "Kesk-Aafrika Vabariik",
        "name:eu": "Afrika Erdiko Errepublika",
        "name:ext": "Repúbrica Centroafricana",
        "name:fa": "جمهوری آفریقای مرکزی",
        "name:fi": "Keski-Afrikan tasavalta",
        "name:fiu-vro": "Kesk-Afriga Vabariik",
        "name:fo": "Miðafrikalýðveldið",
        "name:fr": "République Centrafricaine",
        "name:frp": "Rèpublica centrafriquêna",
        "name:fy": "Sintraal-Afrikaanske Republyk",
        "name:ga": "Poblacht na hAfraice Láir",
        "name:gag": "Merkez Afrika Respublikası",
        "name:gd": "Poblachd Meadhan Afraga",
        "name:gl": "República Centroafricana",
        "name:gv": "Pobblaght yn Affrick Veanagh",
        "name:he": "הרפובליקה המרכז-אפריקאית",
        "name:hi": "मध्य अफ़्रीकी गणराज्य",
        "name:hif": "Central African Republic",
        "name:hr": "Srednjoafrička Republika",
        "name:hsb": "Centralnoafriska republika",
        "name:ht": "Repiblik santafrik",
        "name:hu": "Közép-afrikai Köztársaság",
        "name:hy": "Կենտրոնաաֆրիկյան Հանրապետություն",
        "name:ia": "Republica Centroafrican",
        "name:id": "Republik Afrika Tengah",
        "name:ie": "Central African Republic",
        "name:ilo": "Republika ti Tengnga nga Aprika",
        "name:io": "Centrafrika",
        "name:is": "Mið-Afríkulýðveldið",
        "name:it": "Repubblica Centrafricana",
        "name:ja": "中央アフリカ共和国",
        "name:jv": "Republik Afrika Tengah",
        "name:ka": "ცენტრალური აფრიკის რესპუბლიკა",
        "name:kaa": "Oraylıq Afrika Respublikası",
        "name:kg": "Repubilika ya Afelika ya Kati",
        "name:kk": "Орталық Африка Республикасы",
        "name:kn": "ಮಧ್ಯ ಆಫ್ರಿಕಾದ ಗಣರಾಜ್ಯ",
        "name:ko": "중앙아프리카 공화국",
        "name:ku": "Komara Afrîkaya Navend",
        "name:kw": "Centrafrika",
        "name:la": "Respublica Africae Mediae",
        "name:lad": "Repuvlika Sentroafrikana",
        "name:lb": "Zentralafrikanesch Republik",
        "name:li": "Centraal Afrika",
        "name:lij": "Repubbrica Çentro-Africann-a",
        "name:lmo": "Repüblica Centrafricana",
        "name:ln": "Santrafríka",
        "name:lt": "Centrinės Afrikos Respublika",
        "name:lv": "Centrālāfrikas Republika",
        "name:mk": "Централноафриканска Република",
        "name:ml": "മദ്ധ്യ ആഫ്രിക്കൻ റിപ്പബ്ലിക്ക്",
        "name:mr": "मध्य आफ्रिकेचे प्रजासत्ताक",
        "name:ms": "Republik Afrika Tengah",
        "name:mt": "Repubblika Ċentru-Afrikana",
        "name:my": "ဗဟိုအာဖရိကသမ္မတနိုင်ငံ",
        "name:na": "Ripubrikin Aprika Yugaga",
        "name:nah": "Tlācatlahtohcāyōtl Tlahco Africa",
        "name:nds": "Zentraalafrikaansche Republiek",
        "name:ne": "मध्य अफ्रिकी गणतन्त्र",
        "name:nl": "Centraal-Afrikaanse Republiek",
        "name:nn": "Den sentralafrikanske republikken",
        "name:no": "Den sentralafrikanske republikk",
        "name:nov": "Sentral Afrikani Republike",
        "name:nso": "Central African Republic",
        "name:nv": "Naakaii Łizhinii Bikéyah Beʼałnííʼ",
        "name:oc": "Centreafrica",
        "name:or": "ସେଣ୍ଟରାଲ ଆଫ୍ରିକାନ ରିପବ୍ଲିକ",
        "name:os": "Централон Африкæйы Республикæ",
        "name:pa": "ਮੱਧ ਅਫ਼ਰੀਕੀ ਗਣਰਾਜ",
        "name:pam": "Republika ning Central Aprika",
        "name:pih": "Sentril Afrekan Repablik",
        "name:pl": "Republika Środkowoafrykańska",
        "name:pms": "Repùblica Sentrafrican-a",
        "name:pnb": "مڈلا افریقی لوک راج",
        "name:ps": "د منځنی افريقا ولسمشريزه",
        "name:pt": "República da África Central",
        "name:qu": "Chawpi Aphrika Republika",
        "name:ro": "Republica Centrafricană",
        "name:ru": "Центральноафриканская Республика",
        "name:rue": "Середнёафрицька републіка",
        "name:rw": "Repubulika ya Santara Afurika",
        "name:sa": "केन्द्रीय अफ्रीका गणराज्यम्",
        "name:sah": "Киин Африка Республиката",
        "name:sc": "Tzentràfrica",
        "name:scn": "Ripubblica Centrafricana",
        "name:sco": "Central African Republic",
        "name:se": "Gaska-Afrihká dásseváldi",
        "name:sg": "Ködörösêse tî Bêafrîka",
        "name:sh": "Srednjoafrička Republika",
        "name:sk": "Stredoafrická republika",
        "name:sl": "Srednjeafriška republika",
        "name:sn": "Central African Republic",
        "name:so": "Jamhuuriyadda Bartamaha Afrika",
        "name:sq": "Republika e Afrikës Qendrore",
        "name:sr": "Централноафричка Република",
        "name:ss": "Umkhatsi we-Afrikha",
        "name:stq": "Zentroalafrikoanske Republik",
        "name:su": "Républik Afrika Tengah",
        "name:sv": "Centralafrikanska republiken",
        "name:sw": "Jamhuri ya Afrika ya Kati",
        "name:szl": "Strzodkowoafrikańsko Republika",
        "name:ta": "மத்திய ஆப்பிரிக்கக் குடியரசு",
        "name:te": "సెంట్రల్ ఆఫ్రికన్ రిపబ్లిక్",
        "name:tg": "Ҷумҳурии Африқои Марказӣ",
        "name:th": "สาธารณรัฐแอฟริกากลาง",
        "name:tk": "Merkezi Afrika Respublikasy",
        "name:tl": "Republika ng Gitnang Aprika",
        "name:tr": "Orta Afrika Cumhuriyeti",
        "name:ts": "Afrika Wale Xikarhi",
        "name:tt": "Үзәк Африка Җөмһүрияте",
        "name:ug": "ئوتتۇرا ئافرىقا جۇمھۇرىيىتى",
        "name:uk": "Центральноафриканська Республіка",
        "name:ur": "وسطی افریقی جمہوریہ",
        "name:uz": "Markaziy Afrika Respublikasi",
        "name:vec": "Republica Sentrafricana",
        "name:vi": "Cộng hòa Trung Phi",
        "name:vo": "Zänoda-Frikop",
        "name:war": "Republika han Butnga nga Aprika",
        "name:wo": "Réewum Diggu Afrig",
        "name:xal": "Өр Априкин Орн",
        "name:yo": "Orílẹ̀-èdè Olómìnira Àrin Áfríkà",
        "name:zh": "中非共和國",
        "name:zh-classical": "中非",
        "name:zh-min-nan": "Tiong-hui Kiōng-hô-kok",
        "name:zh-yue": "中非共和國",
        "name:zu": "Central African Republic",
        "official_name:eo": "Centr-Afrika Respubliko",
        "timezone": "Africa/Bangui",
        "type": "boundary",
        "wikidata": "Q929",
        "wikipedia": "fr:République centrafricaine",
        "@geometry": "center"
      },
      "geometry": {
        "type": "Point",
        "coordinates": [
          20.9348095,
          6.6085221
        ]
      },
      "id": "relation/192790"
    },
    {
      "type": "Feature",
      "properties": {
        "@id": "relation/192794",
        "ISO3166-1": "CG",
        "ISO3166-1:alpha2": "CG",
        "ISO3166-1:alpha3": "COG",
        "ISO3166-1:numeric": "178",
        "admin_level": "2",
        "alt_name:en": "Congo (Brazzaville)",
        "alt_name:eo": "Kongo Brazavila",
        "alt_name:sv": "Konto-Brazzaville",
        "boundary": "administrative",
        "currency": "XAF",
        "flag": "http://upload.wikimedia.org/wikipedia/commons/9/92/Flag_of_the_Republic_of_the_Congo.svg",
        "is_in:continent": "Africa",
        "name": "Congo",
        "name:af": "Republiek van die Kongo",
        "name:als": "Republik Kongo",
        "name:am": "ኮንጎ ሪፐብሊክ",
        "name:an": "Republica d'o Congo",
        "name:ar": "جمهورية الكونغو",
        "name:arc": "ܩܘܛܢܝܘܬܐ ܕܩܘܢܓܘ",
        "name:arz": "جمهورية الكونجو",
        "name:ast": "El Congu",
        "name:az": "Konqo Respublikası",
        "name:ba": "Республика Конго",
        "name:bat-smg": "Kuongs",
        "name:bcl": "Republika kan Kongo",
        "name:be": "Рэспубліка Конга",
        "name:be-tarask": "Рэспубліка Конга",
        "name:bg": "Република Конго",
        "name:bm": "Kongo-Brazaville",
        "name:bn": "কঙ্গো প্রজাতন্ত্র",
        "name:bo": "ཀོང་གོ་སྤྱི་མཐུན་རྒྱལ་ཁབ།",
        "name:bpy": "কঙ্গো প্রজাতন্ত্র",
        "name:br": "Republik Kongo",
        "name:bs": "Republika Kongo",
        "name:bxr": "Конго",
        "name:ca": "República del Congo",
        "name:ce": "Республика Конго",
        "name:ceb": "Republika sa Congo",
        "name:chy": "Republic of the Congo",
        "name:ckb": "کۆماری کۆنگۆ",
        "name:crh": "Kongo (Brazzavil)",
        "name:cs": "Republika Kongo",
        "name:cv": "Конго Республики",
        "name:cy": "Gweriniaeth y Congo",
        "name:da": "Republikken Congo",
        "name:de": "Republik Kongo",
        "name:diq": "Cumhuriyetê Kongoy",
        "name:dsb": "Republika Kongo",
        "name:dv": "ކޮންގޯ (ޖުމްހޫރިއްޔާ)",
        "name:el": "Δημοκρατία του Κονγκό",
        "name:en": "Congo-Brazzaville",
        "name:eo": "Respubliko Kongo",
        "name:es": "República del Congo",
        "name:et": "Kongo Vabariik",
        "name:eu": "Kongoko Errepublika",
        "name:ext": "Congu",
        "name:fa": "جمهوری کنگو",
        "name:fi": "Kongon tasavalta",
        "name:fiu-vro": "Kongo Vabariik",
        "name:fr": "Congo-Brazzaville",
        "name:frp": "Rèpublica du Congô",
        "name:fy": "Republyk Kongo",
        "name:ga": "Poblacht an Chongó",
        "name:gag": "Kongo Respublikası",
        "name:gd": "A' Chongo",
        "name:gl": "Congo",
        "name:gv": "Pobblaght ny Congo",
        "name:he": "הרפובליקה של קונגו",
        "name:hi": "कांगो गणराज्य",
        "name:hif": "Republic of the Congo",
        "name:hr": "Republika Kongo",
        "name:hsb": "Republika Kongo",
        "name:ht": "Kongo (Brazavil)",
        "name:hu": "Kongói Köztársaság",
        "name:hy": "Կոնգոյի Հանրապետություն",
        "name:ia": "Republica del Congo",
        "name:id": "Republik Kongo",
        "name:ie": "Republic de Congo",
        "name:ilo": "Republika iti Kongo",
        "name:io": "Republiko Kongo",
        "name:is": "Vestur-Kongó",
        "name:it": "Repubblica del Congo",
        "name:ja": "コンゴ共和国",
        "name:jbo": "kongos",
        "name:jv": "Republik Kongo",
        "name:ka": "კონგოს რესპუბლიკა",
        "name:kg": "Repubilika ya Kôngo",
        "name:kk": "Конго Республикасы",
        "name:ko": "콩고 공화국",
        "name:ku": "Komara Kongoyê",
        "name:kw": "Repoblek Kongo",
        "name:la": "Respublica Congensis",
        "name:lb": "Republik Kongo",
        "name:li": "Kongo-Brazzaville",
        "name:lij": "Repubbrica Do Congo",
        "name:lmo": "Congo",
        "name:ln": "Kongó-Brazzaville",
        "name:lt": "Kongo Respublika",
        "name:lv": "Kongo Republika",
        "name:mk": "Република Конго",
        "name:ml": "റിപ്പബ്ലിക്ക് ഓഫ് കോംഗോ",
        "name:mn": "Бүгд Найрамдах Конго Улс",
        "name:mr": "काँगोचे प्रजासत्ताक",
        "name:ms": "Republik Congo",
        "name:my": "ကွန်ဂိုသမ္မတနိုင်ငံ",
        "name:na": "Ripubrikin Kongo",
        "name:nah": "Tlācatlahtohcāyōtl in Congo",
        "name:nds": "Republiek Kongo",
        "name:nl": "Congo-Brazzaville",
        "name:nn": "Kongo-Brazzaville",
        "name:no": "Republikken Kongo",
        "name:nov": "Kongo",
        "name:nso": "Republic ya Congo",
        "name:nv": "Kéyah Káango Náhookǫsjí Siʼánígíí",
        "name:oc": "Republica de Còngo",
        "name:os": "Конгойы Республикæ",
        "name:pa": "ਕਾਂਗੋ ਗਣਰਾਜ",
        "name:pam": "Republika ning Kongo",
        "name:pih": "Repablik o' t' Kongo",
        "name:pl": "Kongo",
        "name:pms": "Còngo",
        "name:pnb": "کانگو",
        "name:ps": "د کانګو جمهوريت",
        "name:pt": "República do Congo",
        "name:qu": "Kungu Republika",
        "name:ro": "Republica Congo",
        "name:ru": "Конго",
        "name:rw": "Kongo",
        "name:sah": "Конго Өрөспүүбүлүкэтэ",
        "name:sc": "Repùbrica de su Congo",
        "name:scn": "Ripùbbrica dû Congu",
        "name:sco": "Republic o the Congo",
        "name:se": "Kongo dásseváldi",
        "name:sg": "Ködörösêse tî Kongöo",
        "name:sh": "Republika Kongo",
        "name:si": "කොංගෝ ජනරජය",
        "name:sk": "Kongo (Brazzaville)",
        "name:sl": "Republika Kongo",
        "name:sn": "Republic of the Congo",
        "name:so": "Jamhuuriyadda Kongo",
        "name:sq": "Republika e Kongos",
        "name:sr": "Република Конго",
        "name:ss": "Tibuse weKhongo",
        "name:stq": "Republik Kongo",
        "name:su": "Républik Kongo",
        "name:sv": "Republiken Kongo",
        "name:sw": "Jamhuri ya Kongo",
        "name:ta": "கொங்கோ குடியரசு",
        "name:te": "కాంగో రిపబ్లిక్",
        "name:tg": "Ҷумҳӯрии Конго",
        "name:th": "สาธารณรัฐคองโก",
        "name:tk": "Kongo Respublikasy",
        "name:tl": "Republika ng Konggo",
        "name:tr": "Kongo Cumhuriyeti",
        "name:ts": "Riphabliki ya Congo",
        "name:tt": "Конго Җөмһүрияте",
        "name:ug": "كونگو جۇمھۇرىيىتى",
        "name:uk": "Республіка Конго",
        "name:ur": "جمہوریہ کانگو",
        "name:uz": "Kongo Respublikasi",
        "name:vec": "Republica del Congo",
        "name:vi": "Cộng hòa Congo",
        "name:vo": "Kongoän (Repüblikän)",
        "name:war": "Republika han Congo",
        "name:wo": "Kongóo-Brasaawiil",
        "name:wuu": "刚果共和国",
        "name:xal": "Конһлмудин Орн",
        "name:yi": "רעפובליק פון קאנגא",
        "name:yo": "Orílẹ̀-èdè Olómìnira ilẹ̀ Kóngò",
        "name:zh": "刚果共和国",
        "name:zh-min-nan": "Congo Kiōng-hô-kok",
        "name:zh-yue": "剛果",
        "name:zu": "IKongo",
        "official_name": "République du Congo",
        "official_name:en": "Republic of the Congo",
        "official_name:fr": "République du Congo",
        "official_name:pl": "Republika Konga",
        "timezone": "Africa/Brazzaville",
        "type": "boundary",
        "wikidata": "Q971",
        "wikipedia": "fr:République du Congo",
        "@geometry": "center"
      },
      "geometry": {
        "type": "Point",
        "coordinates": [
          14.8242158,
          -0.7180165
        ]
      },
      "id": "relation/192794"
    },
    {
      "type": "Feature",
      "properties": {
        "@id": "relation/192830",
        "ISO3166-1": "CM",
        "ISO3166-1:alpha2": "CM",
        "ISO3166-1:alpha3": "CMR",
        "ISO3166-1:numeric": "120",
        "admin_level": "2",
        "boundary": "administrative",
        "currency": "XAF",
        "flag": "http://upload.wikimedia.org/wikipedia/commons/4/4f/Flag_of_Cameroon.svg",
        "is_in:continent": "Africa",
        "name": "Cameroun",
        "name:af": "Kameroen",
        "name:als": "Kamerun",
        "name:am": "ካሜሩን",
        "name:an": "Camerún",
        "name:ang": "Camerun",
        "name:ar": "الكاميرون",
        "name:arc": "ܩܐܡܪܘܢ",
        "name:arz": "الكاميرون",
        "name:ast": "Camerún",
        "name:az": "Kamerun",
        "name:ba": "Камерун",
        "name:bar": "Kamerun",
        "name:bat-smg": "Kamerūns",
        "name:bcl": "Kameron",
        "name:be": "Камерун",
        "name:be-tarask": "Камэрун",
        "name:bg": "Камерун",
        "name:bjn": "Kamerun",
        "name:bm": "Kamerun",
        "name:bn": "ক্যামেরুন",
        "name:bo": "ཁམ་མུ་རོན།",
        "name:bpy": "ক্যামেরুন",
        "name:br": "Kameroun",
        "name:bs": "Kamerun",
        "name:bxr": "Камерун",
        "name:ca": "Camerun",
        "name:ceb": "Kamerun",
        "name:ckb": "کامیروون",
        "name:crh": "Kamerun",
        "name:cs": "Kamerun",
        "name:cv": "Камерун",
        "name:cy": "Camerŵn",
        "name:da": "Cameroun",
        "name:de": "Kamerun",
        "name:diq": "Kamerun",
        "name:dsb": "Kamerun",
        "name:dv": "ކެމަރޫން",
        "name:ee": "Cameroon",
        "name:el": "Καμερούν",
        "name:en": "Cameroon",
        "name:eo": "Kameruno",
        "name:es": "Camerún",
        "name:et": "Kamerun",
        "name:eu": "Kamerun",
        "name:ext": "Camerún",
        "name:fa": "کامرون",
        "name:ff": "Kamerun",
        "name:fi": "Kamerun",
        "name:fiu-vro": "Kamõrun",
        "name:fo": "Kamerun",
        "name:fr": "Cameroun",
        "name:frp": "Cameron",
        "name:fy": "Kameroen",
        "name:ga": "Camarún",
        "name:gag": "Kamerun",
        "name:gd": "Camarun",
        "name:gl": "Camerún",
        "name:gv": "Cameroon",
        "name:ha": "Kameru",
        "name:he": "קמרון",
        "name:hi": "कैमरुन",
        "name:hif": "Cameroon",
        "name:hr": "Kamerun",
        "name:hsb": "Kamerun",
        "name:ht": "Kamewoun",
        "name:hu": "Kamerun",
        "name:hy": "Կամերուն",
        "name:ia": "Camerun",
        "name:id": "Kamerun",
        "name:ie": "Cameroon",
        "name:ig": "Kameroon",
        "name:ilo": "Kamerun",
        "name:io": "Kamerun",
        "name:is": "Kamerún",
        "name:it": "Camerun",
        "name:ja": "カメルーン",
        "name:jbo": "kamerun",
        "name:jv": "Kamerun",
        "name:ka": "კამერუნი",
        "name:kaa": "Kamerun",
        "name:kab": "Kamirun",
        "name:kg": "Kamerun",
        "name:ki": "Cameroon",
        "name:kk": "Камерун",
        "name:kn": "ಕ್ಯಾಮರೂನ್",
        "name:ko": "카메룬",
        "name:ku": "Kamerûn",
        "name:kw": "Kameroun",
        "name:la": "Cameronia",
        "name:lad": "Kamerun",
        "name:lb": "Kamerun",
        "name:li": "Kameroen",
        "name:lij": "Camerun",
        "name:lmo": "Camerun",
        "name:ln": "Kamerun",
        "name:lt": "Kamerūnas",
        "name:lv": "Kamerūna",
        "name:min": "Kamerun",
        "name:mk": "Камерун",
        "name:ml": "കാമറൂൺ",
        "name:mn": "Камерун",
        "name:mr": "कामेरून",
        "name:mrj": "Камерун",
        "name:ms": "Cameroon",
        "name:mt": "Kamerun",
        "name:my": "ကင်မရွန်းနိုင်ငံ",
        "name:mzn": "کامرون",
        "name:na": "Kamerun",
        "name:nah": "Camerun",
        "name:nds": "Kamerun",
        "name:ne": "क्यामेरून",
        "name:new": "क्यामेरून",
        "name:nl": "Kameroen",
        "name:nn": "Kamerun",
        "name:no": "Kamerun",
        "name:nov": "Kamerun",
        "name:nso": "Cameroon",
        "name:nv": "Táłtłʼááh Chʼosh Daadánígíí Bitooh",
        "name:oc": "Cameron",
        "name:or": "କାମେରୁନ",
        "name:os": "Камерун",
        "name:pa": "ਕੈਮਰੂਨ",
        "name:pam": "Cameroon",
        "name:pih": "Cameroon",
        "name:pl": "Kamerun",
        "name:pms": "Cameron",
        "name:pnb": "کیمرون",
        "name:pnt": "Καμερούν",
        "name:ps": "کامرون",
        "name:pt": "Camarões",
        "name:qu": "Kamirun",
        "name:rm": "Camerun",
        "name:ro": "Camerun",
        "name:roa-rup": "Camerun",
        "name:ru": "Камерун",
        "name:rw": "Kameruni",
        "name:sa": "केमेरून",
        "name:sah": "Камерун",
        "name:sc": "Camerùn",
        "name:scn": "Camerun",
        "name:sco": "Cameroon",
        "name:se": "Kamerun",
        "name:sg": "Kamerün",
        "name:sh": "Kamerun",
        "name:simple": "Cameroon",
        "name:sk": "Kamerun",
        "name:sl": "Kamerun",
        "name:sn": "Cameroon",
        "name:so": "Kamiruun",
        "name:sq": "Kameruni",
        "name:sr": "Камерун",
        "name:ss": "IKhameruni",
        "name:stq": "Kamerun",
        "name:su": "Kamerun",
        "name:sv": "Kamerun",
        "name:sw": "Kamerun",
        "name:szl": "Kamerůn",
        "name:ta": "கமரூன்",
        "name:te": "కామెరూన్",
        "name:tg": "Камерун",
        "name:th": "ประเทศแคเมอรูน",
        "name:tk": "Kamerun",
        "name:tl": "Kamerun",
        "name:tr": "Kamerun",
        "name:ts": "Cameroon",
        "name:tt": "Камерун",
        "name:tzl": "Camerun",
        "name:ug": "كامېرۇن",
        "name:uk": "Камерун",
        "name:ur": "کیمرون",
        "name:uz": "Kamerun",
        "name:vec": "Camerun",
        "name:vi": "Cameroon",
        "name:vo": "Kamerunän",
        "name:war": "Camerun",
        "name:wo": "Kamerun",
        "name:wuu": "喀麦隆",
        "name:xal": "Камерудин Орн",
        "name:yi": "קאמערון",
        "name:yo": "Kamẹrúùn",
        "name:zh": "喀麦隆",
        "name:zh-min-nan": "Cameroon",
        "name:zh-yue": "喀麥隆",
        "name:zu": "IKamerooni",
        "official_name:cs": "Kamerunská republika",
        "timezone": "Africa/Douala",
        "type": "boundary",
        "wikidata": "Q1009",
        "wikipedia": "en:Cameroon",
        "@geometry": "center"
      },
      "geometry": {
        "type": "Point",
        "coordinates": [
          12.2871826,
          7.3689994
        ]
      },
      "id": "relation/192830"
    },
    {
      "type": "Feature",
      "properties": {
        "@id": "relation/270056",
        "ISO3166-1": "CN",
        "ISO3166-1:alpha2": "CN",
        "ISO3166-1:alpha3": "CHN",
        "ISO3166-1:numeric": "156",
        "admin_level": "2",
        "alt_name:eo": "Ĉinio",
        "alt_name:ru": "Китай",
        "boundary": "administrative",
        "flag": "http://upload.wikimedia.org/wikipedia/commons/f/fa/Flag_of_the_People%27s_Republic_of_China.svg",
        "int_name": "People's Republic of China",
        "is_in:continent": "Asia",
        "name": "中国",
        "name:UN:ar": "الصين",
        "name:UN:en": "China",
        "name:UN:es": "China",
        "name:UN:fr": "Chine (la)",
        "name:UN:ru": "Китай",
        "name:UN:zh": "中国",
        "name:ab": "Ачынҭатәи Ажәлартә Республика",
        "name:am": "የቻይና ሕዝባዊ ሪፐብሊክ",
        "name:ang": "Cīnan Folclicu Cynewīse",
        "name:ar": "الصين",
        "name:arc": "ܩܘܛܢܝܘܬܐ ܥܡܡܝܬܐ ܕܨܝܢ",
        "name:arz": "الصين",
        "name:ast": "China",
        "name:ba": "Ҡытай",
        "name:bar": "Kina",
        "name:be": "Кітай",
        "name:be-tarask": "Кітай",
        "name:bh": "चीन",
        "name:bi": "China",
        "name:bm": "China",
        "name:bn": "গণচীন",
        "name:bo": "ཀྲུང་ཧྭ་མི་དམངས་སྤྱི་མཐུན་རྒྱལ་ཁབ།",
        "name:bpy": "গণচীন",
        "name:bxr": "Хитад Улас",
        "name:cbk-zam": "China",
        "name:ce": "Китайн Халкъан Республика",
        "name:chr": "ᏥᎾ",
        "name:chy": "China",
        "name:ckb": "کۆماری گەلی چین",
        "name:crh": "Çin Halq Cumhuriyeti",
        "name:cs": "Čínská lidová republika",
        "name:csb": "Chińskô Lëdowô Repùblika",
        "name:cu": "Срѣдинꙗнє",
        "name:cv": "Китай Халăх Республики",
        "name:cy": "Gweriniaeth Pobl Tsieina",
        "name:de": "China",
        "name:diq": "Cumhuriyetê Şariê Çini",
        "name:dsb": "Chinska ludowa republika",
        "name:dv": "ސީނުކަރަ",
        "name:ee": "China",
        "name:el": "Λαϊκή Δημοκρατία της Κίνας",
        "name:eml": "Cina",
        "name:en": "China",
        "name:eo": "Ĉinujo",
        "name:es": "República Popular China",
        "name:et": "Hiina",
        "name:eu": "Txinako Herri Errepublika",
        "name:ext": "Repúbrica Populal China",
        "name:fa": "جمهوری خلق چین",
        "name:fi": "Kiina",
        "name:fiu-vro": "Hiina Rahvavabariik",
        "name:fo": "Fólkalýðveldið Kina",
        "name:fr": "République populaire de Chine",
        "name:frp": "Rèpublica populèra de Ch·ina",
        "name:frr": "China",
        "name:fy": "Sina",
        "name:ga": "Daon-Phoblacht na Síne",
        "name:gag": "Kitay Halk Respublikası",
        "name:gan": "中華人民共和國",
        "name:gd": "Sluagh-Phoblachd na Sìne",
        "name:gn": "China Tekoha Tetã",
        "name:gu": "ચીન",
        "name:gv": "Deynphobblaght ny Sheen",
        "name:ha": "Sin",
        "name:hak": "Chûng-fà Ngìn-mìn Khiung-fò-koet",
        "name:haw": "Kina",
        "name:he": "הרפובליקה העממית של סין",
        "name:hi": "चीनी जनवादी गणराज्य",
        "name:hif": "China",
        "name:hr": "Kina",
        "name:hu": "Kínai Népköztársaság",
        "name:hy": "Չինաստանի Ժողովրդական Հանրապետություն",
        "name:ia": "China",
        "name:id": "Republik Rakyat Cina",
        "name:ie": "China",
        "name:ilo": "Tsína",
        "name:io": "Chinia",
        "name:is": "Alþýðulýðveldið Kína",
        "name:it": "Cina",
        "name:iu": "China",
        "name:ja": "中国",
        "name:jbo": ".djunguos.",
        "name:ka": "ჩინეთი",
        "name:kaa": "Qıtay",
        "name:kab": "Ccinwa",
        "name:kbd": "Хъутей Джылэ Республикэ",
        "name:kg": "Sina",
        "name:ki": "China",
        "name:kk": "Қытай Халық Республикасы",
        "name:kl": "Kina",
        "name:kn": "ಚೀನಿ ಜನರ ಗಣರಾಜ್ಯ",
        "name:ko": "중화인민공화국",
        "name:koi": "Кина",
        "name:krc": "Къытай Халкъ Республика",
        "name:ks": "چیٖن",
        "name:ku": "Çîn",
        "name:kv": "Китай",
        "name:kw": "Repoblek Werin China",
        "name:ky": "Кытай",
        "name:lb": "Volleksrepublik China",
        "name:lez": "Китайдин Халкьдин Республика",
        "name:lmo": "Cina",
        "name:ln": "Sína",
        "name:lo": "ປະເທດຈີນ",
        "name:lt": "Kinijos Liaudies Respublika",
        "name:lv": "Ķīna",
        "name:mdf": "Китай",
        "name:mhr": "Китай",
        "name:mi": "Haina",
        "name:min": "Cino",
        "name:mk": "Народна Република Кина",
        "name:ml": "ചൈന",
        "name:mn": "Бүгд Найрамдах Хятад Ард Улс",
        "name:mr": "चीन",
        "name:mt": "Ċina",
        "name:mwl": "República Popular de la China",
        "name:my": "တရုတ်ပြည်သူ့သမ္မတနိုင်ငံ",
        "name:mzn": "چین",
        "name:na": "Tsiene",
        "name:nah": "China",
        "name:nap": "Cina",
        "name:ne": "जनबादी गणतन्त्र चीन",
        "name:new": "चीन",
        "name:nso": "Tšhaena",
        "name:or": "ଚୀନ",
        "name:os": "Китай",
        "name:pa": "ਚੀਨ ਦਾ ਲੋਕ ਰਾਜੀ ਗਣਤੰਤਰ",
        "name:pap": "China",
        "name:pih": "Shiina",
        "name:pl": "Chiny",
        "name:pms": "Cin-a",
        "name:pnb": "چین",
        "name:pnt": "Κίνα",
        "name:ps": "چين د خلکو جمهوريت",
        "name:pt": "República Popular da China",
        "name:qu": "Chunwa Runallaqta Republika",
        "name:ro": "Republica Populară Chineză",
        "name:roa-tara": "Repubbleche Populare Cenise",
        "name:ru": "Китайская Народная Республика",
        "name:rue": "Кітайска Народна Републіка",
        "name:rw": "Ubushinwa",
        "name:sah": "Кытай Дьон Республиката",
        "name:sc": "Cina",
        "name:scn": "Cina",
        "name:se": "Kiinná",
        "name:sg": "Sînä",
        "name:si": "චීනය",
        "name:sk": "Čínska ľudová republika",
        "name:sm": "Saina",
        "name:sn": "China",
        "name:so": "Shiinaha",
        "name:sq": "Kina",
        "name:sr": "Кина",
        "name:srn": "Sneysa",
        "name:ss": "IShayina",
        "name:st": "Tjhaena",
        "name:sw": "Jamhuri ya Watu wa China",
        "name:szl": "Chińsko Ludowo Republika",
        "name:ta": "சீன மக்கள் குடியரசு",
        "name:te": "చైనా",
        "name:tet": "Xina",
        "name:tg": "Ҷумҳурии Халқии Чин",
        "name:th": "ประเทศจีน",
        "name:tk": "Hytaý Halk Respublikasy",
        "name:tl": "Republikang Popular ng Tsina",
        "name:tpi": "Ol Manmeri Ripablik bilong Saina",
        "name:tr": "Çin Halk Cumhuriyeti",
        "name:ts": "China",
        "name:tt": "Кытай",
        "name:ty": "Tinitō",
        "name:tzl": "Cina",
        "name:udm": "Китай",
        "name:ug": "جۇڭخۇا خەلق جۇمھۇرىيىتى",
        "name:uk": "Китайська Народна Республіка",
        "name:ur": "چین",
        "name:uz": "Xitoy Xalq Respublikasi",
        "name:vec": "Republica Popołare Cinexe",
        "name:vep": "Kitai",
        "name:vi": "Cộng hòa Nhân dân Trung Hoa",
        "name:vo": "Tsyinän",
        "name:war": "Kanan Katawhan Republika han Tsina",
        "name:wo": "Réewum Popileer bu Siin",
        "name:xal": "Китдин Улс Орн",
        "name:xmf": "ჩინეთი",
        "name:yi": "כינע",
        "name:zh": "中国",
        "name:zh-classical": "中國",
        "name:zh-min-nan": "Tiong-hoâ Jîn-bîn Kiōng-hô-kok",
        "name:zh-simplified": "中国",
        "name:zh-traditional": "中國",
        "name:zh_pinyin": "Zhōngguó",
        "name:zu": "IShayina",
        "official_name": "中华人民共和国",
        "official_name:ace": "Rèpublik Rakyat Cina",
        "official_name:af": "Volksrepubliek van Sjina",
        "official_name:als": "Volksrepublik China",
        "official_name:an": "Republica Popular de China",
        "official_name:ast": "República Popular de China",
        "official_name:ay": "Markani Republika China",
        "official_name:az": "Çin Xalq Respublikası",
        "official_name:bat-smg": "Kėnėjės Liaudėis Respoblėka",
        "official_name:bcl": "Republikang Popular kan Tsina",
        "official_name:bg": "Китайска народна република",
        "official_name:bjn": "Ripublik Rakyat Cina",
        "official_name:br": "Republik Pobl Sina",
        "official_name:bs": "Narodna Republika Kina",
        "official_name:ca": "República Popular de la Xina",
        "official_name:ceb": "Republikang Popular sa Tsina",
        "official_name:cs": "Čínská lidová republika",
        "official_name:da": "Folkerepublikken Kina",
        "official_name:de": "Volksrepublik China",
        "official_name:en": "People's Republic of China",
        "official_name:eo": "Ĉina Popola Respubliko",
        "official_name:gl": "República Popular da China",
        "official_name:hr": "Narodna Republika Kina",
        "official_name:hsb": "Ludowa republika China",
        "official_name:io": "Populala Republiko di Chinia",
        "official_name:jv": "Républik Rakyat Cina",
        "official_name:la": "Res Publica Popularis Sinarum",
        "official_name:lad": "Repuvlika Popular de Kina",
        "official_name:li": "Volksrepubliek China",
        "official_name:mg": "Repoblika Entim-bahoakan'i Sina",
        "official_name:ms": "Republik Rakyat China",
        "official_name:nds": "Volksrepubliek China",
        "official_name:nds-nl": "Volksrippebliek China",
        "official_name:nl": "Volksrepubliek China",
        "official_name:nn": "Folkerepublikken Kina",
        "official_name:no": "Folkerepublikken Kina",
        "official_name:nov": "Populen Republike de China",
        "official_name:nrm": "Républyique du Peupl'ye d'la Chinne",
        "official_name:oc": "Republica Populara de China",
        "official_name:pag": "Republika ya Too na Jhina",
        "official_name:pam": "Maldang Republika ning Tsina",
        "official_name:pcd": "Républike populére Kine",
        "official_name:pl": "Chińska Republika Ludowa",
        "official_name:sco": "Fowkrepublic o Cheenae",
        "official_name:sh": "Narodna Republika Kina",
        "official_name:sl": "Ljudska republika Kitajska",
        "official_name:sr": "Народна Република Кина",
        "official_name:stq": "Foulksrepublik China",
        "official_name:sv": "Folkrepubliken Kina",
        "official_name:wuu": "中华人民共和国",
        "official_name:yo": "Orílẹ̀-èdè Olómìnira àwọn Ará ilẹ̀ Ṣáínà",
        "official_name:za": "Cunghvaz Yinzminz Gunghozgoz",
        "official_name:zea": "Volksrepubliek China",
        "official_name:zh": "中华人民共和国",
        "official_name:zh-classical": "中華人民共和國",
        "official_name:zh-simplified": "中华人民共和国",
        "official_name:zh-traditional": "中華人民共和國",
        "old_name:eo": "Ĥinujo",
        "short_name:ru": "КНР",
        "type": "boundary",
        "wikidata": "Q148",
        "wikipedia": "en:People's Republic of China",
        "@geometry": "center"
      },
      "geometry": {
        "type": "Point",
        "coordinates": [
          104.1375955,
          31.1995795
        ]
      },
      "id": "relation/270056"
    },
    {
      "type": "Feature",
      "properties": {
        "@id": "relation/287667",
        "ISO3166-1": "CR",
        "ISO3166-1:alpha2": "CR",
        "ISO3166-1:alpha3": "CRI",
        "ISO3166-1:numeric": "188",
        "admin_level": "2",
        "border_type": "nation",
        "boundary": "administrative",
        "flag": "http://upload.wikimedia.org/wikipedia/commons/f/f2/Flag_of_Costa_Rica.svg",
        "is_in:continent": "North America",
        "name": "Costa Rica",
        "name:ace": "Kosta Rika",
        "name:af": "Costa Rica",
        "name:als": "Costa Rica",
        "name:am": "ኮስታ ሪካ",
        "name:an": "Costa Rica",
        "name:ar": "كوستاريكا",
        "name:arz": "كوستا ريكا",
        "name:ast": "Costa Rica",
        "name:ay": "Kustarika",
        "name:az": "Kosta-Rika",
        "name:ba": "Коста-Рика",
        "name:bat-smg": "Kuosta Rėka",
        "name:bcl": "Kosta Rika",
        "name:be": "Коста-Рыка",
        "name:be-tarask": "Коста-Рыка",
        "name:bg": "Коста Рика",
        "name:bm": "Kosta Rika",
        "name:bn": "কোস্টা রিকা",
        "name:bo": "ཁོ་ས་ཏ་རི་ཁ",
        "name:bpy": "কোস্টা রিকা",
        "name:br": "Costa Rica",
        "name:bs": "Kostarika",
        "name:bxr": "Коста-Рика",
        "name:ca": "Costa Rica",
        "name:ce": "Коста-Рика",
        "name:ceb": "Costa Rica",
        "name:ckb": "کۆستاریکا",
        "name:crh": "Kosta Rika",
        "name:cs": "Kostarika",
        "name:cy": "Costa Rica",
        "name:da": "Costa Rica",
        "name:de": "Costa Rica",
        "name:diq": "Kosta Rika",
        "name:dsb": "Kosta Rika",
        "name:dv": "ކޮސްޓަރީކާ",
        "name:ee": "Costa Rica",
        "name:el": "Κόστα Ρίκα",
        "name:en": "Costa Rica",
        "name:eo": "Kostariko",
        "name:es": "Costa Rica",
        "name:et": "Costa Rica",
        "name:eu": "Costa Rica",
        "name:ext": "Costa Rica",
        "name:fa": "کاستاریکا",
        "name:fi": "Costa Rica",
        "name:fiu-vro": "Costa Rica",
        "name:fo": "Kosta Rika",
        "name:fr": "Costa Rica",
        "name:frp": "Costa Rica",
        "name:frr": "Costa Rica",
        "name:fy": "Kosta Rika",
        "name:ga": "Cósta Ríce",
        "name:gag": "Kosta Rika",
        "name:gd": "Costa Rica",
        "name:gl": "Costa Rica",
        "name:gn": "Kosta Rrika",
        "name:gv": "Yn Coose Berçhagh",
        "name:hak": "Kô-sṳ̂-tha̍t Lì-kâ",
        "name:he": "קוסטה ריקה",
        "name:hi": "कोस्टा रीका",
        "name:hif": "Costa Rica",
        "name:hr": "Kostarika",
        "name:hsb": "Kosta Rika",
        "name:ht": "Kostarika",
        "name:hu": "Costa Rica",
        "name:hy": "Կոստա Ռիկա",
        "name:ia": "Costa Rica",
        "name:id": "Kosta Rika",
        "name:ie": "Costa Rica",
        "name:ilo": "Costa Rica",
        "name:io": "Kosta Rika",
        "name:is": "Kosta Ríka",
        "name:it": "Costa Rica",
        "name:ja": "コスタリカ",
        "name:jbo": "kostarikas",
        "name:jv": "Kosta Rika",
        "name:ka": "კოსტა-რიკა",
        "name:kk": "Коста-Рика",
        "name:kn": "ಕೋಸ್ಟಾ ರಿಕ",
        "name:ko": "코스타리카",
        "name:ku": "Kosta Rîka",
        "name:kw": "Kosta Rika",
        "name:la": "Ora Opulenta",
        "name:lb": "Costa Rica",
        "name:li": "Costa Rica",
        "name:lij": "Còsta Rica",
        "name:lmo": "Costa Rica",
        "name:ln": "Kosta Rika",
        "name:lt": "Kosta Rika",
        "name:lv": "Kostarika",
        "name:mg": "Costa Rica",
        "name:mhr": "Коста-Рика",
        "name:mk": "Костарика",
        "name:ml": "കോസ്റ്റ റീക്ക",
        "name:mn": "Коста-Рика",
        "name:mr": "कोस्टा रिका",
        "name:mrj": "Коста-Рика",
        "name:ms": "Costa Rica",
        "name:mt": "Kosta Rika",
        "name:my": "ကော့စတာရီကာနိုင်ငံ",
        "name:na": "Kosta Rika",
        "name:nah": "Costa Rica",
        "name:nds": "Costa Rica",
        "name:ne": "कोस्टारिका",
        "name:new": "कोस्टा रिका",
        "name:nl": "Costa Rica",
        "name:nn": "Costa Rica",
        "name:no": "Costa Rica",
        "name:nov": "Kosta Rika",
        "name:oc": "Còsta Rica",
        "name:or": "କୋଷ୍ଟାରିକା",
        "name:os": "Коста-Рикæ",
        "name:pa": "ਕੋਸਤਾ ਰੀਕਾ",
        "name:pam": "Costa Rica",
        "name:pap": "Costa Rica",
        "name:pl": "Kostaryka",
        "name:pms": "Còsta Rica",
        "name:pnb": "کوسٹا ریکا",
        "name:ps": "کوسټاریکا",
        "name:pt": "Costa Rica",
        "name:qu": "Kustarika",
        "name:ro": "Costa Rica",
        "name:roa-rup": "Costa Rica",
        "name:ru": "Коста-Рика",
        "name:rw": "Kosita Rika",
        "name:sa": "कोस्टा रीका",
        "name:sah": "Коста Рика",
        "name:scn": "Costa Rica",
        "name:sco": "Costa Rica",
        "name:se": "Costa Rica",
        "name:sh": "Kostarika",
        "name:si": "කෝස්ට රිකා",
        "name:simple": "Costa Rica",
        "name:sk": "Kostarika",
        "name:sl": "Kostarika",
        "name:so": "Kosta Rika",
        "name:sq": "Kosta Rika",
        "name:sr": "Костарика",
        "name:ss": "IKhosta-Likha",
        "name:su": "Kosta Rika",
        "name:sv": "Costa Rica",
        "name:sw": "Kosta Rika",
        "name:ta": "கோஸ்ட்டா ரிக்கா",
        "name:te": "కోస్టారీకా",
        "name:tg": "Коста Рика",
        "name:th": "ประเทศคอสตาริกา",
        "name:tl": "Costa Rica",
        "name:tok": "ma Kosalika",
        "name:tr": "Kosta Rika",
        "name:tt": "Коста-Рика",
        "name:tzl": "Costa Rica",
        "name:ug": "كوستارىكا",
        "name:uk": "Коста-Рика",
        "name:ur": "کوسٹاریکا",
        "name:uz": "Kosta Rika",
        "name:vec": "Costa Rica",
        "name:vi": "Costa Rica",
        "name:vo": "Kostarikän",
        "name:wa": "Costa Rica",
        "name:war": "Costa Rica",
        "name:wo": "Kosta Riika",
        "name:xal": "Костарикмудин Орн",
        "name:yi": "קאסטא ריקא",
        "name:yo": "Kóstá Rikà",
        "name:zea": "Costa Rica",
        "name:zh": "哥斯达黎加",
        "name:zh-classical": "哥斯大黎加",
        "name:zh-min-nan": "Costa Rica",
        "name:zh-yue": "哥斯達黎加",
        "name:zu": "Costa Rica",
        "official_name:cs": "Kostarická republika",
        "timezone": "America/Costa_Rica",
        "type": "boundary",
        "wikidata": "Q800",
        "wikipedia": "es:Costa Rica",
        "@geometry": "center"
      },
      "geometry": {
        "type": "Point",
        "coordinates": [
          -84.8891427,
          8.2762691
        ]
      },
      "id": "relation/287667"
    },
    {
      "type": "Feature",
      "properties": {
        "@id": "relation/287827",
        "ISO3166-1": "BZ",
        "ISO3166-1:alpha2": "BZ",
        "ISO3166-1:alpha3": "BLZ",
        "ISO3166-1:numeric": "084",
        "admin_level": "2",
        "border_type": "nation",
        "boundary": "administrative",
        "flag": "http://upload.wikimedia.org/wikipedia/commons/e/e7/Flag_of_Belize.svg",
        "is_in:continent": "North America",
        "name": "Belize",
        "name:ace": "Belize",
        "name:af": "Belize",
        "name:als": "Belize",
        "name:am": "ቤሊዝ",
        "name:an": "Belize",
        "name:ar": "بليز",
        "name:arz": "بيليز",
        "name:ast": "Belize",
        "name:ay": "Wilisi",
        "name:az": "Beliz",
        "name:ba": "Белиз",
        "name:bat-smg": "Belėzos",
        "name:bcl": "Belisa",
        "name:be": "Беліз",
        "name:be-tarask": "Бэліз",
        "name:bg": "Белиз",
        "name:bm": "Belize",
        "name:bn": "বেলিজ",
        "name:bo": "བེ་ལི་ཛི།",
        "name:bpy": "বেলিজ",
        "name:br": "Belize",
        "name:bs": "Beliz",
        "name:bxr": "Белиз",
        "name:ca": "Belize",
        "name:ce": "Белиз",
        "name:ceb": "Belize",
        "name:ckb": "بەلیز",
        "name:crh": "Beliz",
        "name:cs": "Belize",
        "name:cv": "Белиз",
        "name:cy": "Belize",
        "name:da": "Belize",
        "name:de": "Belize",
        "name:diq": "Beliz",
        "name:dsb": "Belize",
        "name:dv": "ބެލީޒު",
        "name:dz": "བེ་ལིཛ།",
        "name:ee": "Belize",
        "name:el": "Μπελίζ",
        "name:en": "Belize",
        "name:eo": "Belizo",
        "name:es": "Belice",
        "name:et": "Belize",
        "name:eu": "Belize",
        "name:ext": "Belici",
        "name:fa": "بلیز",
        "name:fi": "Belize",
        "name:fiu-vro": "Belize",
        "name:fo": "Belis",
        "name:fr": "Belize",
        "name:frp": "Belize",
        "name:frr": "Belize",
        "name:fy": "Belize",
        "name:ga": "An Bheilís",
        "name:gag": "Beliz",
        "name:gd": "Beilise",
        "name:gl": "Belice",
        "name:gn": "Mbelise",
        "name:gv": "Yn Veleesh",
        "name:he": "בליז",
        "name:hi": "बेलीज़",
        "name:hif": "Belize",
        "name:hr": "Belize",
        "name:hsb": "Belize",
        "name:ht": "Beliz",
        "name:hu": "Belize",
        "name:hy": "Բելիզ",
        "name:ia": "Belize",
        "name:id": "Belize",
        "name:ie": "Belize",
        "name:ilo": "Belis",
        "name:io": "Belize",
        "name:is": "Belís",
        "name:it": "Belize",
        "name:ja": "ベリーズ",
        "name:jbo": "beliz",
        "name:jv": "Belize",
        "name:ka": "ბელიზი",
        "name:kn": "ಬೆಲೀಜ್",
        "name:ko": "벨리즈",
        "name:ku": "Belîze",
        "name:kw": "Belisa",
        "name:la": "Beliza",
        "name:lb": "Belize",
        "name:li": "Belize",
        "name:lij": "Belize",
        "name:lmo": "Belize",
        "name:ln": "Belize",
        "name:lt": "Belizas",
        "name:lv": "Beliza",
        "name:mhr": "Белиз",
        "name:mk": "Белизе",
        "name:ml": "ബെലീസ്",
        "name:mn": "Белиз",
        "name:mr": "बेलिझ",
        "name:mrj": "Белиз",
        "name:ms": "Belize",
        "name:mt": "Beliże",
        "name:my": "ဘလိဇ်နိုင်ငံ",
        "name:na": "Berij",
        "name:nah": "Belice",
        "name:nds": "Belize",
        "name:ne": "बेलिज",
        "name:nl": "Belize",
        "name:nn": "Belize",
        "name:no": "Belize",
        "name:nov": "Beliz",
        "name:oc": "Belize",
        "name:or": "ବେଲିଜ",
        "name:os": "Белиз",
        "name:pa": "ਬੇਲੀਜ਼",
        "name:pam": "Belize",
        "name:pap": "Belize",
        "name:pih": "Beles",
        "name:pl": "Belize",
        "name:pms": "Belize",
        "name:pnb": "بیلیز",
        "name:ps": "بېلیز",
        "name:pt": "Belize",
        "name:qu": "Bilisi",
        "name:rm": "Belize",
        "name:ro": "Belize",
        "name:roa-rup": "Belize",
        "name:ru": "Белиз",
        "name:rue": "Беліз",
        "name:rw": "Belize",
        "name:sa": "बेलीज",
        "name:sah": "Белиз",
        "name:scn": "Belizi",
        "name:sco": "Belize",
        "name:se": "Belize",
        "name:sh": "Belize",
        "name:simple": "Belize",
        "name:sk": "Belize",
        "name:sl": "Belize",
        "name:so": "Belise",
        "name:sq": "Beliza",
        "name:sr": "Белизе",
        "name:ss": "IBhelizi",
        "name:su": "Bélis",
        "name:sv": "Belize",
        "name:sw": "Belize",
        "name:ta": "பெலீசு",
        "name:te": "బెలిజ్",
        "name:tg": "Белиз",
        "name:th": "ประเทศเบลีซ",
        "name:tl": "Belise",
        "name:tr": "Belize",
        "name:tt": "Белиз",
        "name:tzl": "Beliça",
        "name:ug": "بېلىز",
        "name:uk": "Беліз",
        "name:ur": "بیلیز",
        "name:uz": "Beliz",
        "name:vec": "Belize",
        "name:vi": "Belize",
        "name:vo": "Belisän",
        "name:war": "Belize",
        "name:wo": "Beliis",
        "name:xal": "Белсин Орн",
        "name:yi": "בעליז",
        "name:yo": "Bẹ̀lísè",
        "name:zea": "Belize",
        "name:zh": "伯利兹",
        "name:zh-min-nan": "Belize",
        "name:zh-yue": "伯利茲",
        "name:zu": "Belize",
        "timezone": "America/Belize",
        "type": "boundary",
        "wikidata": "Q242",
        "wikipedia": "en:Belize",
        "@geometry": "center"
      },
      "geometry": {
        "type": "Point",
        "coordinates": [
          -88.2680289,
          17.1908648
        ]
      },
      "id": "relation/287827"
    },
    {
      "type": "Feature",
      "properties": {
        "@id": "relation/307787",
        "ISO3166-1": "CY",
        "ISO3166-1:alpha2": "CY",
        "ISO3166-1:alpha3": "CYP",
        "ISO3166-1:numeric": "196",
        "admin_level": "2",
        "border_type": "nation",
        "boundary": "administrative",
        "description": "This is the full country, de jure, as recognized by the United Nations",
        "driving_side": "left",
        "flag": "http://upload.wikimedia.org/wikipedia/commons/d/d4/Flag_of_Cyprus.svg",
        "is_in:continent": "Asia",
        "name": "Κύπρος - Kıbrıs",
        "name:ace": "Siprus",
        "name:af": "Siprus",
        "name:am": "ቆጵሮስ",
        "name:an": "Chipre",
        "name:ang": "Cipros",
        "name:ar": "قبرص",
        "name:arc": "ܩܘܦܪܘܣ",
        "name:arz": "قبرص",
        "name:ast": "Xipre",
        "name:az": "Kipr",
        "name:bar": "Zypern",
        "name:bcl": "Siprus",
        "name:be": "Кіпр",
        "name:bg": "Кипър",
        "name:bi": "Cyprus",
        "name:bn": "সাইপ্রাস",
        "name:bo": "སེ་པི་རི་སི།",
        "name:bpy": "সাইপ্রাস",
        "name:br": "Kiprenez",
        "name:bs": "Kipar",
        "name:bxr": "Кипр",
        "name:ca": "Xipre",
        "name:ce": "Кипр",
        "name:ceb": "Tsipre",
        "name:ckb": "قوبرس",
        "name:co": "Cipru",
        "name:crh": "Qıbrız",
        "name:cs": "Kypr",
        "name:csb": "Cyper",
        "name:cu": "Кѷпръ",
        "name:cv": "Кипр",
        "name:cy": "Cyprus",
        "name:da": "Cypern",
        "name:de": "Zypern",
        "name:diq": "Qıbrısi",
        "name:dsb": "Cypern",
        "name:ee": "Cyprus",
        "name:el": "Κύπρος",
        "name:en": "Cyprus",
        "name:eo": "Kipro",
        "name:es": "Chipre",
        "name:et": "Küpros",
        "name:eu": "Zipre",
        "name:ext": "Chipri",
        "name:fa": "قبرس",
        "name:fi": "Kypros",
        "name:fo": "Kýpros",
        "name:fr": "Chypre",
        "name:frp": "Ch·ipre",
        "name:frr": "Zypern",
        "name:fur": "Cipri",
        "name:fy": "Syprus",
        "name:ga": "An Chipir",
        "name:gd": "Cìopras",
        "name:gl": "Chipre",
        "name:gn": "Chipre",
        "name:gsw": "Zypern",
        "name:gu": "સાયપ્રસ",
        "name:gv": "Yn Cheeprey",
        "name:hak": "Set-phû-lu-sṳ̂",
        "name:haw": "Kupelo",
        "name:he": "קפריסין",
        "name:hi": "साइप्रस",
        "name:hif": "Cyprus",
        "name:hr": "Cipar",
        "name:hsb": "Cypernska",
        "name:ht": "Chip",
        "name:hu": "Ciprus",
        "name:hy": "Կիպրոս",
        "name:ia": "Cypro",
        "name:id": "Siprus",
        "name:ie": "Cypria",
        "name:ilo": "Cyprus",
        "name:io": "Chipro",
        "name:is": "Kýpur",
        "name:it": "Cipro",
        "name:ja": "キプロス",
        "name:jv": "Siprus",
        "name:ka": "კვიპროსი",
        "name:kaa": "Kipr",
        "name:kg": "Kipros",
        "name:kk": "Кипр",
        "name:kl": "Cyperni",
        "name:kn": "ಕಿಪ್ರೊಸ್",
        "name:ko": "키프로스",
        "name:krc": "Кипр",
        "name:ku": "Kîpros",
        "name:kv": "Кипр",
        "name:kw": "Kobros",
        "name:la": "Cyprus",
        "name:lad": "Kipre",
        "name:lb": "Zypern",
        "name:lez": "Кипр",
        "name:li": "Cyprus",
        "name:lij": "Çipro",
        "name:lmo": "Cipru",
        "name:lt": "Kipras",
        "name:ltg": "Kipra",
        "name:lv": "Kipra",
        "name:mdf": "Кипра",
        "name:mg": "Kipra",
        "name:mhr": "Кипр",
        "name:mi": "Haipara",
        "name:mk": "Кипар",
        "name:ml": "സൈപ്രസ്",
        "name:mn": "Кипр",
        "name:mr": "सायप्रस",
        "name:ms": "Cyprus",
        "name:mt": "Ċipru",
        "name:my": "ဆိုက်ပရပ်စ်နိုင်ငံ",
        "name:na": "Taiprus",
        "name:nah": "Chipre",
        "name:nan": "Ku-pí-lō͘",
        "name:nap": "Cipro",
        "name:nb": "Kypros",
        "name:nds": "Zypern",
        "name:nds-nl": "Cyprus",
        "name:ne": "साइप्रस",
        "name:new": "साइप्रस",
        "name:nl": "Cyprus",
        "name:nn": "Kypros",
        "name:no": "Kypros",
        "name:nov": "Kiprus",
        "name:nrm": "Chypre",
        "name:nv": "Béésh Łichíiʼii Bikéyah",
        "name:oc": "Chipre",
        "name:or": "ସାଇପ୍ରସ",
        "name:os": "Кипр",
        "name:pa": "ਸਾਇਪ੍ਰਸ",
        "name:pag": "Kiprô",
        "name:pam": "Sipre",
        "name:pih": "Siipris",
        "name:pl": "Cypr",
        "name:pms": "Cipro",
        "name:pnb": "قبرص",
        "name:pnt": "Κύπρος",
        "name:pt": "Chipre",
        "name:qu": "Kipru",
        "name:rm": "Cipra",
        "name:ro": "Cipru",
        "name:ru": "Кипр",
        "name:rue": "Ціпрус",
        "name:rw": "Shipure",
        "name:sah": "Кипр",
        "name:sc": "Tzipru",
        "name:scn": "Cipru",
        "name:sco": "Cyprus",
        "name:se": "Kypros",
        "name:sh": "Cipar",
        "name:si": "සයිප්‍රස්",
        "name:sk": "Cyprus",
        "name:sl": "Ciper",
        "name:sm": "Cyprus",
        "name:so": "Qabrus",
        "name:sq": "Qiproja",
        "name:sr": "Кипар",
        "name:srn": "Sipruskondre",
        "name:ss": "ISayiphro",
        "name:stq": "Zypern",
        "name:su": "Siprus",
        "name:sv": "Cypern",
        "name:sw": "Kupro",
        "name:szl": "Cypr",
        "name:ta": "சைப்பிரஸ்",
        "name:te": "సైప్రస్",
        "name:tet": "Xipre",
        "name:tg": "Кипр",
        "name:th": "ประเทศไซปรัส",
        "name:tk": "Kipr",
        "name:tl": "Tsipre",
        "name:tpi": "Saipras",
        "name:tr": "Kıbrıs",
        "name:tt": "Кипр",
        "name:tzl": "Cüpris",
        "name:udm": "Кипр",
        "name:ug": "سىپرۇس",
        "name:uk": "Кіпр",
        "name:ur": "قبرص",
        "name:uz": "Qibris",
        "name:vec": "Sipro",
        "name:vep": "Kipr",
        "name:vi": "Síp",
        "name:vls": "Cyprus",
        "name:vo": "Sipreän",
        "name:vro": "Küprüs",
        "name:war": "Tsipre",
        "name:wo": "Ciipër",
        "name:wuu": "塞浦路斯",
        "name:xal": "Кипр",
        "name:xmf": "კვიპროსი",
        "name:yi": "קיפראס",
        "name:yo": "Kíprù",
        "name:yue": "塞浦路斯",
        "name:zea": "Cyprus",
        "name:zh": "塞浦路斯",
        "official_name": "Κυπριακή Δημοκρατία - Kıbrıs Cumhuriyeti",
        "official_name:ast": "República de Xipre",
        "official_name:az": "Kipr Respublikası",
        "official_name:bar": "Republik Zypern",
        "official_name:br": "Republik Kiprenez",
        "official_name:crh": "Qıbrız Cumhuriyeti",
        "official_name:cs": "Kyperská republika",
        "official_name:cv": "Кипр Республики",
        "official_name:de": "Republik Zypern",
        "official_name:diq": "Cumhuriyetê Qıbrısi",
        "official_name:el": "Κυπριακή Δημοκρατία",
        "official_name:en": "Republic of Cyprus",
        "official_name:eo": "Respubliko Kipro",
        "official_name:fi": "Kyproksen tasavalta",
        "official_name:fr": "République de Chypre",
        "official_name:gsw": "Republik Zypern",
        "official_name:hu": "Ciprusi Köztársaság",
        "official_name:lad": "Repuvlika Kipriyota",
        "official_name:mg": "Repoblikan'i Kipra",
        "official_name:nb": "Republikken Kypros",
        "official_name:nds": "Republiek Zypern",
        "official_name:nn": "Republikken Kypros",
        "official_name:no": "Republikken Kypros",
        "official_name:ru": "Республика Кипр",
        "official_name:so": "Jasiirada Qabrus",
        "official_name:tk": "Kipr Respublikasy",
        "official_name:tr": "Kıbrıs Cumhuriyeti",
        "official_name:tt": "Кипр Республикасы",
        "official_name:uz": "Qibris Respublikasi",
        "official_name:vi": "Cộng hòa Síp",
        "official_name:xal": "Кипрудин Орн",
        "timezone": "Asia/Nicosia",
        "type": "boundary",
        "wikidata": "Q229",
        "wikipedia": "en:Cyprus",
        "@geometry": "center"
      },
      "geometry": {
        "type": "Point",
        "coordinates": [
          33.4390382,
          35.1758113
        ]
      },
      "id": "relation/307787"
    },
    {
      "type": "Feature",
      "properties": {
        "@id": "relation/307833",
        "ISO3166-1": "CU",
        "ISO3166-1:alpha2": "CU",
        "ISO3166-1:alpha3": "CUB",
        "ISO3166-1:numeric": "192",
        "admin_level": "2",
        "border_type": "nation",
        "boundary": "administrative",
        "flag": "http://upload.wikimedia.org/wikipedia/commons/b/bd/Flag_of_Cuba.svg",
        "is_in:continent": "North America",
        "maritime": "yes",
        "name": "Cuba",
        "name:ace": "Kuba",
        "name:af": "Kuba",
        "name:als": "Kuba",
        "name:am": "ኩባ",
        "name:an": "Cuba",
        "name:ang": "Cūba",
        "name:ar": "كوبا",
        "name:arz": "كوبا",
        "name:ast": "Cuba",
        "name:ay": "Kuba",
        "name:az": "Kuba",
        "name:ba": "Куба",
        "name:bar": "Cuba",
        "name:bat-smg": "Kuba",
        "name:bcl": "Kuba",
        "name:be": "Куба",
        "name:be-tarask": "Куба",
        "name:bg": "Куба",
        "name:bm": "Kuba",
        "name:bn": "কিউবা",
        "name:bo": "ཀུ་བ།",
        "name:bpy": "কিউবা",
        "name:br": "Kuba",
        "name:bs": "Kuba",
        "name:bxr": "Куба",
        "name:ca": "Cuba",
        "name:ce": "Куба",
        "name:ceb": "Cuba",
        "name:chr": "Cuba",
        "name:ckb": "کووبا",
        "name:crh": "Kuba",
        "name:cs": "Kuba",
        "name:cv": "Куба",
        "name:cy": "Cuba",
        "name:da": "Cuba",
        "name:de": "Kuba",
        "name:diq": "Kuba",
        "name:dsb": "Kuba",
        "name:dv": "ކިއުބާ",
        "name:ee": "Cuba",
        "name:el": "Κούβα",
        "name:en": "Cuba",
        "name:eo": "Kubo",
        "name:es": "Cuba",
        "name:et": "Kuuba",
        "name:eu": "Kuba",
        "name:ext": "Cuba",
        "name:fa": "کوبا",
        "name:fi": "Kuuba",
        "name:fiu-vro": "Kuuba",
        "name:fo": "Kuba",
        "name:fr": "Cuba",
        "name:frp": "Cuba",
        "name:frr": "Kuuba",
        "name:fy": "Kuba",
        "name:ga": "Cúba",
        "name:gag": "Kuba",
        "name:gan": "古巴",
        "name:gd": "Cùba",
        "name:gl": "Cuba",
        "name:gn": "Kuva",
        "name:gv": "Yn Choobey",
        "name:hak": "Kú-pâ",
        "name:he": "קובה",
        "name:hi": "क्यूबा",
        "name:hif": "Cuba",
        "name:hr": "Kuba",
        "name:hsb": "Kuba",
        "name:ht": "Kiba",
        "name:hu": "Kuba",
        "name:hy": "Կուբա",
        "name:ia": "Cuba",
        "name:id": "Kuba",
        "name:ilo": "Kubá",
        "name:io": "Kuba",
        "name:is": "Kúba",
        "name:it": "Cuba",
        "name:iu": "ᖂᐹ/quupaa",
        "name:ja": "キューバ",
        "name:jbo": "kubas",
        "name:jv": "Kuba",
        "name:ka": "კუბა",
        "name:kab": "Kuba",
        "name:kbd": "Куба",
        "name:kk": "Куба",
        "name:km": "គុយបា",
        "name:kn": "ಕ್ಯೂಬಾ",
        "name:ko": "쿠바",
        "name:ku": "Kûba",
        "name:kv": "Куба",
        "name:kw": "Kuba",
        "name:la": "Cuba",
        "name:lb": "Kuba",
        "name:lez": "Куба",
        "name:li": "Cuba",
        "name:lij": "Cuba",
        "name:lmo": "Cuba",
        "name:ln": "Kuba",
        "name:lt": "Kuba",
        "name:lv": "Kuba",
        "name:mhr": "Кубо",
        "name:mk": "Куба",
        "name:ml": "ക്യൂബ",
        "name:mn": "Куба",
        "name:mr": "क्युबा",
        "name:mrj": "Куба",
        "name:ms": "Cuba",
        "name:mt": "Kuba",
        "name:mwl": "Cuba",
        "name:my": "ကျူးဘားနိုင်ငံ",
        "name:mzn": "کوبا",
        "name:na": "Kiuba",
        "name:nah": "Cuba",
        "name:nds": "Kuba",
        "name:nds-nl": "Kuba",
        "name:ne": "क्युबा",
        "name:new": "क्युबा",
        "name:nl": "Cuba",
        "name:nn": "Cuba",
        "name:no": "Cuba",
        "name:nov": "Kuba",
        "name:nv": "Kyóoba",
        "name:oc": "Cuba",
        "name:or": "କ୍ୟୁବା",
        "name:os": "Кубæ",
        "name:pa": "ਕਿਊਬਾ",
        "name:pag": "Cuba",
        "name:pam": "Cuba",
        "name:pap": "Cuba",
        "name:pdc": "Kubaa",
        "name:pih": "Kyuuba",
        "name:pl": "Kuba",
        "name:pms": "Cuba",
        "name:pnb": "کیوبا",
        "name:pt": "Cuba",
        "name:qu": "Kuba",
        "name:rmy": "Kuba",
        "name:ro": "Cuba",
        "name:roa-tara": "Cuba",
        "name:ru": "Куба",
        "name:rue": "Куба",
        "name:rw": "Kiba",
        "name:sa": "क्यूबा",
        "name:sah": "Куба",
        "name:sc": "Cuba",
        "name:scn": "Cubba",
        "name:sco": "Cuba",
        "name:se": "Cuba",
        "name:sh": "Kuba",
        "name:si": "කියුබාව",
        "name:simple": "Cuba",
        "name:sk": "Kuba",
        "name:sl": "Kuba",
        "name:so": "Kuuba",
        "name:sq": "Kuba",
        "name:sr": "Куба",
        "name:srn": "Cuba",
        "name:ss": "IKhuyubha",
        "name:stq": "Kuba",
        "name:su": "Kuba",
        "name:sv": "Kuba",
        "name:sw": "Kuba",
        "name:szl": "Kuba",
        "name:ta": "கூபா",
        "name:te": "క్యూబా",
        "name:tg": "Кубо",
        "name:th": "ประเทศคิวบา",
        "name:tk": "Kuba",
        "name:tl": "Kuba",
        "name:tr": "Küba",
        "name:tt": "Куба",
        "name:tzl": "Cjuva",
        "name:ug": "كۇبا",
        "name:uk": "Куба",
        "name:ur": "کیوبا",
        "name:uz": "Kuba",
        "name:vec": "Cuba",
        "name:vi": "Cuba",
        "name:vo": "Kubeän",
        "name:wa": "Couba",
        "name:war": "Cuba",
        "name:wo": "Kubaa",
        "name:wuu": "古巴",
        "name:xal": "Кубанмудин Орн",
        "name:yi": "קובא",
        "name:yo": "Kúbà",
        "name:za": "Gujbah",
        "name:zh": "古巴",
        "name:zh-classical": "古巴",
        "name:zh-min-nan": "Cuba",
        "name:zh-yue": "古巴",
        "official_name:cs": "Kubánská republika",
        "timezone": "America/Havana",
        "type": "boundary",
        "wikidata": "Q241",
        "wikipedia": "en:Cuba",
        "@geometry": "center"
      },
      "geometry": {
        "type": "Point",
        "coordinates": [
          -79.5434853,
          21.5546133
        ]
      },
      "id": "relation/307833"
    },
    {
      "type": "Feature",
      "properties": {
        "@id": "relation/315232",
        "IBGE:GEOCODIGO": "3109501",
        "admin_level": "8",
        "boundary": "administrative",
        "name": "Cabo Verde",
        "population": "13823",
        "source": "IBGE",
        "type": "boundary",
        "wikidata": "Q1815606",
        "wikipedia": "pt:Cabo Verde (Minas Gerais)",
        "@geometry": "center"
      },
      "geometry": {
        "type": "Point",
        "coordinates": [
          -46.363788,
          -21.4835
        ]
      },
      "id": "relation/315232"
    },
    {
      "type": "Feature",
      "properties": {
        "@id": "relation/1428125",
        "ISO3166-1": "CA",
        "ISO3166-1:alpha2": "CA",
        "ISO3166-1:alpha3": "CAN",
        "ISO3166-1:numeric": "124",
        "admin_level": "2",
        "alt_name:vi": "Ca-na-đa",
        "boundary": "administrative",
        "capital_city": "Ottawa",
        "country_code_fips": "CA",
        "flag": "http://upload.wikimedia.org/wikipedia/commons/c/cf/Flag_of_Canada.svg",
        "int_name": "Canada",
        "is_in:continent": "North America",
        "name": "Canada",
        "name:ab": "Канада",
        "name:ace": "Kanada",
        "name:af": "Kanada",
        "name:als": "Kanada",
        "name:am": "ካናዳ",
        "name:an": "Canadá",
        "name:ang": "Canada",
        "name:ar": "كندا",
        "name:arc": "ܩܢܕܐ",
        "name:arz": "كندا",
        "name:as": "কানাডা",
        "name:ast": "Canadá",
        "name:av": "Канада",
        "name:ay": "Kanada",
        "name:az": "Kanada",
        "name:ba": "Канада",
        "name:bar": "Kanada",
        "name:bat-smg": "Kanada",
        "name:bcl": "Kanada",
        "name:be": "Канада",
        "name:be-tarask": "Канада",
        "name:bg": "Канада",
        "name:bi": "Kanada",
        "name:bm": "Kanada",
        "name:bn": "কানাডা",
        "name:bo": "ཁ་ན་ཌ།",
        "name:bpy": "কানাডা",
        "name:br": "Kanada",
        "name:bs": "Kanada",
        "name:bxr": "Канада",
        "name:ca": "Canadà",
        "name:cdo": "Gă-nā-dâi",
        "name:ce": "Канада",
        "name:ceb": "Canada",
        "name:chr": "ᎨᎾᏓ",
        "name:chy": "Canada",
        "name:ckb": "کەنەدا",
        "name:co": "Canadà",
        "name:cr": "ᑳᓇᑖ",
        "name:crh": "Kanada",
        "name:cs": "Kanada",
        "name:csb": "Kanada",
        "name:cu": "Канада",
        "name:cv": "Канада",
        "name:cy": "Canada",
        "name:da": "Canada",
        "name:de": "Kanada",
        "name:diq": "Kanada",
        "name:dsb": "Kanada",
        "name:dv": "ކެނެޑާ",
        "name:dz": "ཀེ་ན་ཌ་",
        "name:ee": "Canada",
        "name:el": "Καναδάς",
        "name:en": "Canada",
        "name:eo": "Kanado",
        "name:es": "Canadá",
        "name:et": "Kanada",
        "name:eu": "Kanada",
        "name:ext": "Canadá",
        "name:fa": "کانادا",
        "name:fi": "Kanada",
        "name:fiu-vro": "Kanada",
        "name:fo": "Kanada",
        "name:fr": "Canada",
        "name:frp": "Canada",
        "name:frr": "Kanada",
        "name:fur": "Canade",
        "name:fy": "Kanada",
        "name:ga": "Ceanada",
        "name:gag": "Kanada",
        "name:gan": "加拿大",
        "name:gd": "Canada",
        "name:gl": "Canadá",
        "name:gn": "Kanatã",
        "name:gu": "કેનેડા",
        "name:gv": "Yn Chanadey",
        "name:ha": "Kanada",
        "name:hak": "Kâ-nâ-thai",
        "name:haw": "Kanakā",
        "name:he": "קנדה",
        "name:hi": "कनाडा",
        "name:hif": "Canada",
        "name:hr": "Kanada",
        "name:hsb": "Kanada",
        "name:ht": "Kanada",
        "name:hu": "Kanada",
        "name:hy": "Կանադա",
        "name:ia": "Canada",
        "name:id": "Kanada",
        "name:ie": "Canada",
        "name:ig": "Kánada",
        "name:ik": "Kanada",
        "name:ilo": "Kánada",
        "name:io": "Kanada",
        "name:is": "Kanada",
        "name:it": "Canada",
        "name:iu": "ᑲᓇᑕ / kanata",
        "name:ja": "カナダ",
        "name:jbo": "kadnygu'e",
        "name:jv": "Kanada",
        "name:ka": "კანადა",
        "name:kab": "Kanada",
        "name:kbd": "Канадэ",
        "name:ki": "Canada",
        "name:kk": "Канада",
        "name:kl": "Canada",
        "name:km": "កាណាដា",
        "name:kn": "ಕೆನಡಾ",
        "name:ko": "캐나다",
        "name:krc": "Канада",
        "name:ku": "Kanada",
        "name:kv": "Канада",
        "name:kw": "Kanada",
        "name:ky": "Канада",
        "name:la": "Canada",
        "name:lad": "Kanada",
        "name:lb": "Kanada",
        "name:lez": "Канада",
        "name:li": "Canada",
        "name:lij": "Canada",
        "name:lmo": "Canada",
        "name:ln": "Kanadá",
        "name:lt": "Kanada",
        "name:ltg": "Kanada",
        "name:lv": "Kanāda",
        "name:mdf": "Канада",
        "name:mg": "Kanada",
        "name:mhr": "Канаде",
        "name:mi": "Kānata",
        "name:mk": "Канада",
        "name:ml": "കാനഡ",
        "name:mn": "Канад",
        "name:mr": "कॅनडा",
        "name:mrj": "Канада",
        "name:ms": "Kanada",
        "name:mt": "Kanada",
        "name:my": "ကနေဒါနိုင်ငံ",
        "name:mzn": "کانادا",
        "name:na": "Kanada",
        "name:nah": "Canada",
        "name:nap": "Canadà",
        "name:nds": "Kanada",
        "name:nds-nl": "Kannede",
        "name:ne": "क्यानाडा",
        "name:new": "क्यानाडा",
        "name:nl": "Canada",
        "name:nn": "Canada",
        "name:no": "Canada",
        "name:nov": "Kanada",
        "name:nrm": "Cannada",
        "name:nv": "Deeteel Bikéyah",
        "name:oc": "Canadà",
        "name:om": "Canada",
        "name:or": "କାନାଡ଼ା",
        "name:os": "Канадæ",
        "name:pa": "ਕੈਨੇਡਾ",
        "name:pag": "Canada",
        "name:pam": "Canada",
        "name:pap": "Canada",
        "name:pcd": "Canada",
        "name:pdc": "Kanadaa",
        "name:pih": "Kaneda",
        "name:pl": "Kanada",
        "name:pms": "Canadà",
        "name:pnb": "کینیڈا",
        "name:ps": "کاناډا",
        "name:pt": "Canadá",
        "name:qu": "Kanada",
        "name:rm": "Canada",
        "name:rmy": "Kanada",
        "name:rn": "Kanada",
        "name:ro": "Canada",
        "name:roa-rup": "Canada",
        "name:roa-tara": "Canada",
        "name:ru": "Канада",
        "name:rue": "Канада",
        "name:rw": "Kanada",
        "name:sa": "केनडा",
        "name:sah": "Канаада",
        "name:sc": "Canada",
        "name:scn": "Canadà",
        "name:sco": "Canadae",
        "name:se": "Kanáda",
        "name:sg": "Kanadäa",
        "name:sh": "Kanada",
        "name:simple": "Canada",
        "name:sk": "Kanada",
        "name:sl": "Kanada",
        "name:sn": "Canada",
        "name:so": "Kanada",
        "name:sq": "Kanadaja",
        "name:sr": "Канада",
        "name:srn": "Kanadakondre",
        "name:ss": "IKhanada",
        "name:stq": "Kanada",
        "name:su": "Kanada",
        "name:sv": "Kanada",
        "name:sw": "Kanada",
        "name:szl": "Kanada",
        "name:ta": "கனடா",
        "name:te": "కెనడా",
        "name:tet": "Kanadá",
        "name:tg": "Канада",
        "name:th": "ประเทศแคนาดา",
        "name:tk": "Kanada",
        "name:tl": "Kanada",
        "name:tpi": "Kanada",
        "name:tr": "Kanada",
        "name:ts": "Canada",
        "name:tt": "Канада",
        "name:tw": "Kanada",
        "name:ty": "Tanata",
        "name:tzl": "Canadà",
        "name:ug": "كانادا",
        "name:uk": "Канада",
        "name:ur": "کینیڈا",
        "name:uz": "Kanada",
        "name:vec": "Canada",
        "name:vep": "Kanad",
        "name:vi": "Canada",
        "name:vls": "Canada",
        "name:vo": "Kanadän",
        "name:wa": "Canada",
        "name:war": "Kanada",
        "name:wo": "Kanadaa",
        "name:wuu": "加拿大",
        "name:xal": "Канадин Орн",
        "name:xmf": "კანადა",
        "name:yi": "קאנאדע",
        "name:yo": "Kánádà",
        "name:zea": "Canada",
        "name:zh": "加拿大",
        "name:zh-classical": "加拿大",
        "name:zh-min-nan": "Canada",
        "name:zh-yue": "加拿大",
        "name:zh_pinyin": "Jiānádà",
        "name:zu": "IKhanada",
        "official_name": "Canada",
        "old_name:vi": "Gia Nã Đại",
        "type": "boundary",
        "wikidata": "Q16",
        "wikipedia": "en:Canada",
        "@geometry": "center"
      },
      "geometry": {
        "type": "Point",
        "coordinates": [
          -96.6629741,
          62.5063842
        ]
      },
      "id": "relation/1428125"
    },
    {
      "type": "Feature",
      "properties": {
        "@id": "relation/2184233",
        "ISO3166-1": "CK",
        "ISO3166-1:alpha2": "CK",
        "ISO3166-1:alpha3": "COK",
        "ISO3166-1:numeric": "184",
        "admin_level": "2",
        "alt_name:el": "Νησιά Κουκ",
        "boundary": "administrative",
        "capital_city": "Avarua",
        "country_code_fips": "CW",
        "country_code_iso3166_1_alpha_2": "CK",
        "flag": "http://upload.wikimedia.org/wikipedia/commons/3/35/Flag_of_the_Cook_Islands.svg",
        "geonames:id": "1899402",
        "int_name": "Cook Islands",
        "is_in:continent": "Oceania",
        "maritime": "yes",
        "name": "Kūki 'Āirani",
        "name:af": "Cookeilande",
        "name:ak": "Kook Nsupɔw",
        "name:am": "ኩክ ደሴቶች",
        "name:ar": "جزر كوك",
        "name:ast": "Islles Cook",
        "name:az": "Kuk Adaları",
        "name:be": "Астравы Кука",
        "name:bg": "Острови Кук",
        "name:bm": "Kuki Gun",
        "name:bn": "কুক দ্বীপপুঞ্জ",
        "name:bo": "ཀཱུག གླིང་ཕྲེན་རྒྱལ་ཁབ།",
        "name:br": "Inizi Cook",
        "name:bs": "Kukova Ostrva",
        "name:ca": "Illes Cook",
        "name:chr": "ᎠᏓᏍᏓᏴᎲᏍᎩ ᎤᎦᏚᏛ",
        "name:cs": "Cookovy ostrovy",
        "name:cy": "Ynysoedd Cook",
        "name:da": "Cook-øerne",
        "name:de": "Cookinseln",
        "name:dz": "ཀུག་གླིང་ཚོམ",
        "name:ee": "Kook ƒudomekpo nutome",
        "name:el": "Νήσοι Κουκ",
        "name:en": "Cook Islands",
        "name:eo": "Kukinsuloj",
        "name:es": "Islas Cook",
        "name:et": "Cooki saared",
        "name:eu": "Cook Uharteak",
        "name:fa": "جزایر کوک",
        "name:ff": "Duuɗe Kuuk",
        "name:fi": "Cookinsaaret",
        "name:fo": "Cooksoyggjarnar",
        "name:fr": "Îles Cook",
        "name:fur": "Isulis Cook",
        "name:fy": "de Cookeilannen",
        "name:ga": "Oileáin Cook",
        "name:gd": "Eileanan Cook",
        "name:gl": "Illas Cook",
        "name:gu": "કુક આઇલેન્ડ્સ",
        "name:ha": "Tsibiran Kuku",
        "name:he": "איי קוק",
        "name:hi": "कुक द्वीपसमूह",
        "name:hr": "Cookovi Otoci",
        "name:hu": "Cook-szigetek",
        "name:ia": "Insulas Cook",
        "name:id": "Kepulauan Cook",
        "name:is": "Cooks-eyjar",
        "name:it": "Isole Cook",
        "name:ja": "クック諸島",
        "name:ka": "კუკის კუნძულები",
        "name:kab": "Tigzirin n Kuk",
        "name:ki": "Visiwa vya Cook",
        "name:kl": "Cook qeqertaq",
        "name:km": "កោះ​ខូក",
        "name:kn": "ಕುಕ್ ದ್ವೀಪಗಳು",
        "name:ko": "쿡제도",
        "name:ks": "کُک جٔزیٖرٕ",
        "name:ksh": "de Kuuk-Enselle",
        "name:ku": "Giravên Cook",
        "name:la": "Insulae Cook",
        "name:lb": "Cookinseln",
        "name:lg": "Bizinga bya Kkuki",
        "name:ln": "Bisanga bya Kookɛ",
        "name:lo": "ຫມູ່ເກາະຄຸກ",
        "name:lt": "Kuko salos",
        "name:lv": "Kuka salas",
        "name:mg": "Nosy Kook",
        "name:mk": "Кукови Острови",
        "name:ml": "കൂക്ക് ദ്വീപുകൾ",
        "name:mn": "Күүкийн Арлууд",
        "name:mr": "कुक बेटे",
        "name:my": "ကွတ် ကျွန်းစု",
        "name:ne": "कुक टापु",
        "name:nl": "Cookeilanden",
        "name:nn": "Cookøyane",
        "name:no": "Cookøyene",
        "name:or": "କୁକ୍ ଆଇସଲ୍ୟାଣ୍ଡ",
        "name:pl": "Wyspy Cooka",
        "name:pt": "Ilhas Cook",
        "name:rar": "Kūki 'Āirani",
        "name:rm": "Inslas Cook",
        "name:rn": "Izinga rya Kuku",
        "name:ro": "Insulele Cook",
        "name:ru": "Острова Кука",
        "name:se": "Cook-sullot",
        "name:sg": "âzûâ Kûku",
        "name:si": "කුක් දූපත්",
        "name:sk": "Cookove ostrovy",
        "name:sl": "Cookovo otočje",
        "name:sn": "Zvitsuwa zveCook",
        "name:so": "Jaziiradda Cook",
        "name:sr": "Кукова Острва",
        "name:sv": "Cooköarna",
        "name:sw": "Visiwa vya Cook",
        "name:ta": "குக் தீவுகள்",
        "name:te": "కుక్ దీవులు",
        "name:th": "หมู่เกาะคุก",
        "name:ti": "ኩክ ደሴቶች",
        "name:to": "ʻOtumotu Kuki",
        "name:tr": "Cook Adaları",
        "name:uk": "Острови Кука",
        "name:ur": "کک آئلینڈز",
        "name:vi": "Đảo Cook",
        "name:yo": "Orílẹ́ède Etíokun Kùúkù",
        "name:zh": "库克群岛",
        "name:zu": "i-Cook Islands",
        "population": "18600",
        "timezone": "Pacific/Rarotonga",
        "type": "boundary",
        "wikidata": "Q26988",
        "wikipedia": "en:Cook Islands",
        "@geometry": "center"
      },
      "geometry": {
        "type": "Point",
        "coordinates": [
          -161.5972899,
          -15.4374746
        ]
      },
      "id": "relation/2184233"
    },
    {
      "type": "Feature",
      "properties": {
        "@id": "relation/2867318",
        "addr:country": "CW",
        "name": "Curaçao",
        "place": "island",
        "type": "multipolygon",
        "@geometry": "center"
      },
      "geometry": {
        "type": "Point",
        "coordinates": [
          -68.9496731,
          12.2135157
        ]
      },
      "id": "relation/2867318"
    },
    {
      "type": "Feature",
      "properties": {
        "@id": "relation/6365444",
        "name": "Christmas Island",
        "name:ja": "クリスマス島",
        "name:ko": "크리스마스 섬",
        "name:zh": "聖誕島",
        "place": "island",
        "type": "multipolygon",
        "wikipedia": "en:Christmas Island",
        "@geometry": "center"
      },
      "geometry": {
        "type": "Point",
        "coordinates": [
          105.623329,
          -10.4911034
        ]
      },
      "id": "relation/6365444"
    }
  ]
}