{
  "type": "FeatureCollection",
  "generator": "overpass-ide",
  "copyright": "The data included in this document is from www.openstreetmap.org. The data is made available under ODbL.",
  "timestamp": "2017-12-10T20:26:02Z",
  "features": [
    {
      "type": "Feature",
      "properties": {
        "@id": "relation/47796",
        "TMC:cid_58:tabcd_1:Class": "Are",
        "TMC:cid_58:tabcd_1:LCLversion": "8.00",
        "TMC:cid_58:tabcd_1:LocationCode": "4",
        "admin_level": "3",
        "boundary": "administrative",
        "currency": "EUR",
        "description": "Kingdom of the Netherlands, constituent State",
        "int_name": "Nederland",
        "name": "Nederland",
        "name:ast": "Países Baxos",
        "name:ca": "Països Baixos",
        "name:cs": "Nizozemsko",
        "name:da": "Nederlandene",
        "name:de": "Niederlande",
        "name:el": "Ολλανδία",
        "name:en": "Netherlands",
        "name:eo": "Nederlando",
        "name:es": "Países Bajos",
        "name:fr": "Pays-Bas",
        "name:fy": "Nederlân",
        "name:hr": "Nizozemska",
        "name:hsb": "Nižozemska",
        "name:io": "Nederlando",
        "name:it": "Paesi Bassi",
        "name:lt": "Nyderlandai",
        "name:mi": "Hōrana",
        "name:nds": "Nedderlannen",
        "name:nl": "Nederland",
        "name:pl": "Holandia",
        "name:pt": "Países Baixos",
        "name:ru": "Нидерланды",
        "name:sr": "Холандија",
        "name:sv": "Nederländerna",
        "name:ta": "நெதர்லாந்து",
        "name:tzl": "Päts-Bäts",
        "name:uk": "Нідерланди",
        "name:vo": "Nedän",
        "population": "17000000",
        "timezone": "Europe/Amsterdam",
        "type": "boundary",
        "wikidata": "Q55",
        "wikipedia": "nl:Nederland",
        "@geometry": "center"
      },
      "geometry": {
        "type": "Point",
        "coordinates": [
          -30.6990167,
          32.7751661
        ]
      },
      "id": "relation/47796"
    },
    {
      "type": "Feature",
      "properties": {
        "@id": "relation/114686",
        "ISO3166-1": "MX",
        "ISO3166-1:alpha2": "MX",
        "ISO3166-1:alpha3": "MEX",
        "ISO3166-1:numeric": "484",
        "admin_level": "2",
        "alt_name": "México",
        "alt_name:vi": "Mê-hi-cô;Mễ Tây Cơ;Mễ",
        "border_type": "nation",
        "boundary": "administrative",
        "currency": "MXN",
        "flag": "http://upload.wikimedia.org/wikipedia/commons/f/fc/Flag_of_Mexico.svg",
        "is_in:continent": "North America",
        "name": "México",
        "name:ace": "Meksiko",
        "name:af": "Meksiko",
        "name:als": "Mexiko",
        "name:am": "ሜክሲኮ",
        "name:an": "Mexico",
        "name:ang": "Mexico",
        "name:ar": "المكسيك",
        "name:arc": "ܡܟܣܝܩܘ",
        "name:arz": "الميكسيك",
        "name:ast": "Méxicu",
        "name:ay": "Mïxiku",
        "name:az": "Meksika",
        "name:ba": "Мексика",
        "name:bar": "Mexiko",
        "name:bat-smg": "Meksėka",
        "name:bcl": "Mehiko",
        "name:be": "Мексіка",
        "name:be-tarask": "Мэксыка",
        "name:bg": "Мексико",
        "name:bi": "Mexico",
        "name:bm": "Mɛkisiki",
        "name:bn": "মেক্সিকো",
        "name:bo": "མེག་སི་ཀོ།",
        "name:bpy": "মেক্সিকো",
        "name:br": "Mec'hiko",
        "name:bs": "Meksiko",
        "name:bxr": "Мексико",
        "name:ca": "Mèxic",
        "name:cbk-zam": "México",
        "name:cdo": "Mĕ̤k-să̤-gŏ̤",
        "name:ce": "Мексика",
        "name:ceb": "Mehiko",
        "name:chr": "ᎺᏏᎪ",
        "name:chy": "Mé'šeeséve'ho'évenó",
        "name:ckb": "مەکسیک",
        "name:co": "Messicu",
        "name:crh": "Meksika",
        "name:cs": "Mexiko",
        "name:cv": "Мексика",
        "name:cy": "Mexico",
        "name:da": "Mexico",
        "name:de": "Mexiko",
        "name:diq": "Meksika",
        "name:dsb": "Mexiko",
        "name:dv": "މެކްސިކޯ",
        "name:dz": "མེཀ་སི་ཀོ",
        "name:ee": "Mexico",
        "name:el": "Μεξικό",
        "name:en": "Mexico",
        "name:eo": "Meksiko",
        "name:es": "México",
        "name:et": "Mehhiko",
        "name:eu": "Mexiko",
        "name:ext": "Méjicu",
        "name:fa": "مکزیک",
        "name:fi": "Meksiko",
        "name:fiu-vro": "Mehhiko",
        "name:fo": "Meksiko",
        "name:fr": "Mexique",
        "name:frp": "Mexique",
        "name:frr": "Meksikoo",
        "name:fur": "Messic",
        "name:fy": "Meksiko",
        "name:ga": "Meicsiceo",
        "name:gag": "Meksika",
        "name:gan": "墨西哥",
        "name:gd": "Meagsago",
        "name:gl": "México",
        "name:gn": "Méjiko",
        "name:gu": "મેક્સિકો",
        "name:gv": "Meksico",
        "name:hak": "Me̍t-sî-kô",
        "name:haw": "Mekiko",
        "name:he": "מקסיקו",
        "name:hi": "मेक्सिको",
        "name:hif": "Mexico",
        "name:hr": "Meksiko",
        "name:hsb": "Mexiko",
        "name:ht": "Meksik",
        "name:hu": "Mexikó",
        "name:hy": "Մեքսիկա",
        "name:ia": "Mexico",
        "name:id": "Meksiko",
        "name:ik": "Mexiqo",
        "name:ilo": "Méhiko",
        "name:io": "Mexikia",
        "name:is": "Mexíkó",
        "name:it": "Messico",
        "name:iu": "ᒦᒃᓰᖂ",
        "name:ja": "メキシコ",
        "name:jbo": "mexygu'e",
        "name:jv": "Mèksiko",
        "name:ka": "მექსიკა",
        "name:kbd": "Мексикэ",
        "name:kk": "Мексика",
        "name:kl": "Mexico",
        "name:km": "ម៉ិកស៊ិក",
        "name:kn": "ಮೆಕ್ಸಿಕೋ",
        "name:ko": "멕시코",
        "name:krc": "Мексика",
        "name:ku": "Meksîk",
        "name:kv": "Мексика",
        "name:kw": "Meksiko",
        "name:ky": "Мексика",
        "name:la": "Mexicum",
        "name:lad": "Meksiko",
        "name:lb": "Mexiko",
        "name:lez": "Мексика",
        "name:li": "Mexico",
        "name:lij": "Mescico",
        "name:lmo": "Messich",
        "name:ln": "Mexiko",
        "name:lt": "Meksika",
        "name:ltg": "Meksika",
        "name:lv": "Meksika",
        "name:mdf": "Мексик",
        "name:mg": "Meksika",
        "name:mhr": "Мексике",
        "name:mi": "Mehiko",
        "name:mk": "Мексико",
        "name:ml": "മെക്സിക്കോ",
        "name:mn": "Мексик",
        "name:mr": "मेक्सिको",
        "name:mrj": "Мексика",
        "name:ms": "Mexico",
        "name:mt": "Messiku",
        "name:mwl": "México",
        "name:my": "မက္ကဆီကိုနိုင်ငံ",
        "name:mzn": "مکزیک",
        "name:na": "Meketiko",
        "name:nah": "Mēxihco",
        "name:nap": "Messico",
        "name:nds": "Mexiko",
        "name:nds-nl": "Mexico",
        "name:ne": "मेक्सिको",
        "name:new": "मेक्सिको",
        "name:nl": "Mexico",
        "name:nn": "Mexico",
        "name:no": "Mexico",
        "name:nov": "Mexiko",
        "name:nrm": "Mexique",
        "name:nv": "Méhigo",
        "name:oc": "Mexic",
        "name:or": "ମେକ୍ସିକୋ",
        "name:os": "Мексикæ",
        "name:pa": "ਮੈਕਸੀਕੋ",
        "name:pag": "Mexico",
        "name:pam": "Mexico",
        "name:pap": "Mexico",
        "name:pdc": "Mexiko",
        "name:pfl": "Mexiko",
        "name:pih": "Meksikoe",
        "name:pl": "Meksyk",
        "name:pms": "Méssich",
        "name:pnb": "میکسیکو",
        "name:pt": "México",
        "name:qu": "Mishiku",
        "name:rm": "Mexico",
        "name:rmy": "Mexiko",
        "name:ro": "Mexic",
        "name:roa-tara": "Messeche",
        "name:ru": "Мексика",
        "name:rue": "Мексіко",
        "name:rw": "Megizike",
        "name:sah": "Мексика",
        "name:sc": "Mèssico",
        "name:scn": "Mèssicu",
        "name:sco": "Mexico",
        "name:se": "Meksiko",
        "name:sh": "Meksiko",
        "name:simple": "Mexico",
        "name:sk": "Mexiko",
        "name:sl": "Mehika",
        "name:sm": "Mexico",
        "name:sn": "Mexico",
        "name:so": "Meksiko",
        "name:sq": "Meksika",
        "name:sr": "Мексико",
        "name:srn": "Meksikokondre",
        "name:ss": "IMekisikho",
        "name:stq": "Mexiko",
        "name:su": "Méksiko",
        "name:sv": "Mexico",
        "name:sw": "Mexiko",
        "name:szl": "Meksyk",
        "name:ta": "மெக்சிக்கோ",
        "name:te": "మెక్సికో",
        "name:tg": "Мексика",
        "name:th": "ประเทศเม็กซิโก",
        "name:tk": "Meksika",
        "name:tl": "Mehiko",
        "name:tpi": "Meksiko",
        "name:tr": "Meksika",
        "name:tt": "Мексика",
        "name:tw": "Mexico",
        "name:tzl": "Mexico",
        "name:ug": "مېكسىكا",
        "name:uk": "Мексика",
        "name:ur": "میکسیکو",
        "name:uz": "Meksika",
        "name:vec": "Mèsico",
        "name:vep": "Meksik",
        "name:vi": "México",
        "name:vo": "Mäxikän",
        "name:war": "Mehiko",
        "name:wo": "Meksik",
        "name:xal": "Мексикудин Ниицәтә Орн Нутгуд",
        "name:xmf": "მექსიკა",
        "name:yi": "מעקסיקא",
        "name:yo": "Mẹ́ksíkò",
        "name:zh": "墨西哥",
        "name:zh-classical": "墨西哥",
        "name:zh-min-nan": "Be̍k-se-ko",
        "name:zh-yue": "墨西哥",
        "name:zu": "IMekisiko",
        "official_name:cs": "Spojené státy mexické",
        "type": "boundary",
        "wikidata": "Q96",
        "wikipedia": "es:México",
        "@geometry": "center"
      },
      "geometry": {
        "type": "Point",
        "coordinates": [
          -102.546228,
          23.5536398
        ]
      },
      "id": "relation/114686"
    },
    {
      "type": "Feature",
      "properties": {
        "@id": "relation/184633",
        "ISO3166-1": "NP",
        "ISO3166-1:alpha2": "NP",
        "ISO3166-1:alpha3": "NPL",
        "ISO3166-1:numeric": "524",
        "admin_level": "2",
        "boundary": "administrative",
        "flag": "http://upload.wikimedia.org/wikipedia/commons/9/9b/Flag_of_Nepal.svg",
        "is_in:continent": "Asia",
        "name": "नेपाल",
        "name:ace": "Nepal",
        "name:af": "Nepal",
        "name:als": "Nepal",
        "name:am": "ኔፓል",
        "name:an": "Nepal",
        "name:ar": "نيبال",
        "name:arz": "نيبال",
        "name:as": "নেপাল",
        "name:ast": "Nepal",
        "name:az": "Nepal",
        "name:ba": "Непал",
        "name:bar": "Nepal",
        "name:bat-smg": "Nepals",
        "name:bcl": "Nepal",
        "name:be": "Непал",
        "name:be-tarask": "Нэпал",
        "name:bg": "Непал",
        "name:bh": "नेपाल",
        "name:bjn": "Nepal",
        "name:bn": "নেপাল",
        "name:bo": "བལ་ཡུལ།",
        "name:bpy": "নেপাল",
        "name:br": "Nepal",
        "name:bs": "Nepal",
        "name:bxr": "Балба",
        "name:ca": "Nepal",
        "name:ce": "Непал",
        "name:ceb": "Nepal",
        "name:ckb": "نیپال",
        "name:crh": "Nepal",
        "name:cs": "Nepál",
        "name:csb": "Nepal",
        "name:cv": "Непал",
        "name:cy": "Nepal",
        "name:da": "Nepal",
        "name:de": "Nepal",
        "name:diq": "Nepal",
        "name:dv": "ނޭޕާލް",
        "name:dz": "བལ་ཡུལ་",
        "name:el": "Νεπάλ",
        "name:en": "Nepal",
        "name:eo": "Nepalo",
        "name:es": "Nepal",
        "name:et": "Nepal",
        "name:eu": "Nepal",
        "name:ext": "Nepal",
        "name:fa": "نپال",
        "name:fi": "Nepal",
        "name:fiu-vro": "Nepal",
        "name:fo": "Nepal",
        "name:fr": "Népal",
        "name:frp": "Nèpal",
        "name:fy": "Nepal",
        "name:ga": "Neipeal",
        "name:gag": "Nepal",
        "name:gd": "Neapàl",
        "name:gl": "Nepal",
        "name:gu": "નેપાળ",
        "name:gv": "Nepaal",
        "name:hak": "Nì-pok",
        "name:haw": "Nepala",
        "name:he": "נפאל",
        "name:hi": "नेपाल",
        "name:hif": "Nepal",
        "name:hr": "Nepal",
        "name:hsb": "Nepal",
        "name:ht": "Nepal",
        "name:hu": "Nepál",
        "name:hy": "Նեպալ",
        "name:ia": "Nepal",
        "name:id": "Nepal",
        "name:ie": "Nepal",
        "name:ilo": "Nepal",
        "name:io": "Nepal",
        "name:is": "Nepal",
        "name:it": "Nepal",
        "name:ja": "ネパール",
        "name:jbo": "nepal",
        "name:jv": "Nepal",
        "name:ka": "ნეპალი",
        "name:kk": "Непал",
        "name:kl": "Nepal",
        "name:km": "នេប៉ាល់",
        "name:kn": "ನೇಪಾಳ",
        "name:ko": "네팔",
        "name:krc": "Непал",
        "name:ku": "Nepal",
        "name:kv": "Непал",
        "name:kw": "Nepal",
        "name:ky": "Непал",
        "name:la": "Nepalia",
        "name:lb": "Nepal",
        "name:lez": "Непал",
        "name:lg": "Nepal",
        "name:li": "Nepal",
        "name:lij": "Nepal",
        "name:lmo": "Nepal",
        "name:ln": "Nepáli",
        "name:lt": "Nepalas",
        "name:lv": "Nepāla",
        "name:mg": "Nepal",
        "name:mk": "Непал",
        "name:ml": "നേപ്പാൾ",
        "name:mn": "Балба",
        "name:mr": "नेपाळ",
        "name:ms": "Nepal",
        "name:my": "နီပေါနိုင်ငံ",
        "name:mzn": "نپال",
        "name:na": "Nepar",
        "name:nah": "Nepal",
        "name:nds": "Nepal",
        "name:ne": "नेपाल",
        "name:new": "नेपाः",
        "name:nl": "Nepal",
        "name:nn": "Nepal",
        "name:no": "Nepal",
        "name:nov": "Nepal",
        "name:nv": "Dziłgaiitsoh Honeezkʼazii Bikéyah",
        "name:oc": "Nepal",
        "name:or": "ନେପାଳ",
        "name:os": "Непал",
        "name:pa": "ਨੇਪਾਲ",
        "name:pam": "Nepal",
        "name:pap": "Nepal",
        "name:pi": "नेपाल",
        "name:pih": "Nepal",
        "name:pl": "Nepal",
        "name:pms": "Nepal",
        "name:pnb": "نیپال",
        "name:ps": "نيپال",
        "name:pt": "Nepal",
        "name:qu": "Nipal",
        "name:ro": "Nepal",
        "name:ru": "Непал",
        "name:rw": "Nepali",
        "name:sa": "नेपालदेशः",
        "name:sah": "Непал",
        "name:scn": "Nepal",
        "name:sco": "Nepal",
        "name:sd": "نيپال",
        "name:se": "Nepal",
        "name:sh": "Nepal",
        "name:si": "නේපාලය",
        "name:sk": "Nepál",
        "name:sl": "Nepal",
        "name:so": "Nebal",
        "name:sq": "Nepali",
        "name:sr": "Непал",
        "name:ss": "INephali",
        "name:su": "Nepal",
        "name:sv": "Nepal",
        "name:sw": "Nepal",
        "name:szl": "Nepal",
        "name:ta": "நேபாளம்",
        "name:te": "నేపాల్",
        "name:tg": "Непал",
        "name:th": "ประเทศเนปาล",
        "name:tk": "Nepal",
        "name:tl": "Nepal",
        "name:tr": "Nepal",
        "name:tt": "Непал",
        "name:tw": "Nepal",
        "name:tzl": "Nepal",
        "name:udm": "Непал",
        "name:ug": "نېپال",
        "name:uk": "Непал",
        "name:ur": "نیپال",
        "name:uz": "Nepal",
        "name:vec": "Nèpal",
        "name:vi": "Nepal",
        "name:vo": "Nepalän",
        "name:war": "Nepal",
        "name:wo": "Nepaal",
        "name:wuu": "尼泊尔",
        "name:xal": "Балвудин Улсин Ниицәтә Орн",
        "name:yi": "נעפאל",
        "name:yo": "Nepal",
        "name:zea": "Nepal",
        "name:zh": "尼泊尔",
        "name:zh-min-nan": "Nepal",
        "name:zh-yue": "尼泊爾",
        "official_name:cs": "Nepálská federativní demokratická republika",
        "official_name:eo": "Federacia Demokratia Respubliko Nepalo",
        "official_name:pl": "Federalna Demokratyczna Republika Nepalu",
        "timezone": "Asia/Kathmandu",
        "type": "boundary",
        "wikidata": "Q837",
        "wikipedia": "en:Nepal",
        "@geometry": "center"
      },
      "geometry": {
        "type": "Point",
        "coordinates": [
          84.1300742,
          28.3973515
        ]
      },
      "id": "relation/184633"
    },
    {
      "type": "Feature",
      "properties": {
        "@id": "relation/192763",
        "ISO3166-1": "MR",
        "ISO3166-1:alpha2": "MR",
        "ISO3166-1:alpha3": "MRT",
        "ISO3166-1:numeric": "478",
        "admin_level": "2",
        "boundary": "administrative",
        "flag": "http://upload.wikimedia.org/wikipedia/commons/4/43/Flag_of_Mauritania.svg",
        "is_in:continent": "Africa",
        "name": "موريتانيا",
        "name:af": "Mauritanië",
        "name:am": "ሞሪታኒያ",
        "name:an": "Mauritania",
        "name:ar": "موريتانيا",
        "name:ast": "Mauritania",
        "name:az": "Mavritaniya",
        "name:be": "Маўрытанія",
        "name:ber": "ⵎⵓⵔⵉⵜⴰⵏⵢⴰ",
        "name:bg": "Мавритания",
        "name:bm": "Moritani",
        "name:bn": "মৌরিতানিয়া",
        "name:bo": "མའུ་རི་ཏ་ནི་ཡ།",
        "name:br": "Maouritania",
        "name:bs": "Mauritanija",
        "name:ca": "Mauritània",
        "name:ce": "Мавритани",
        "name:cs": "Mauritánie",
        "name:cv": "Мавритани",
        "name:cy": "Mauritania",
        "name:da": "Mauretanien",
        "name:de": "Mauretanien",
        "name:dv": "މޮރިޓާނިއާ",
        "name:ee": "Mauritania",
        "name:el": "Μαυριτανία",
        "name:en": "Mauritania",
        "name:eo": "Maŭritanio",
        "name:es": "Mauritania",
        "name:et": "Mauritaania",
        "name:eu": "Mauritania",
        "name:fa": "موریتانی",
        "name:ff": "Muritani",
        "name:fi": "Mauritania",
        "name:fo": "Móritania",
        "name:fr": "Mauritanie",
        "name:fy": "Mauritaanje",
        "name:ga": "An Mháratáin",
        "name:gd": "Moratainia",
        "name:gl": "Mauritania",
        "name:gv": "Yn Varitaan",
        "name:ha": "Muritaniya",
        "name:he": "מאוריטניה",
        "name:hi": "मॉरीतानिया",
        "name:hr": "Mauretanija",
        "name:ht": "Moritani",
        "name:hu": "Mauritánia",
        "name:hy": "Մավրիտանիա",
        "name:ia": "Mauritania",
        "name:id": "Mauritania",
        "name:ie": "Mauritania",
        "name:io": "Mauritania",
        "name:is": "Máritanía",
        "name:it": "Mauritania",
        "name:ja": "モーリタニア",
        "name:jbo": "mauritan",
        "name:jv": "Mauritania",
        "name:ka": "მავრიტანია",
        "name:kg": "Muritania",
        "name:kk": "Мавритания",
        "name:kn": "ಮಾರಿಟಾನಿಯ",
        "name:ko": "모리타니",
        "name:ku": "Morîtanya",
        "name:kw": "Moritani",
        "name:la": "Mauritania",
        "name:lb": "Mauretanien",
        "name:li": "Mauritanië",
        "name:ln": "Moritani",
        "name:lt": "Mauritanija",
        "name:lv": "Mauritānija",
        "name:mg": "Maoritania",
        "name:mk": "Мавританија",
        "name:ml": "മൗറിത്താനിയ",
        "name:mn": "Мавритан",
        "name:mr": "मॉरिटानिया",
        "name:ms": "Mauritania",
        "name:mt": "Mawritanja",
        "name:my": "မော်ရီတေးနီးယားနိုင်ငံ",
        "name:nl": "Mauritanië",
        "name:nn": "Mauritania",
        "name:no": "Mauritania",
        "name:nv": "Moowitéínya",
        "name:oc": "Mauritània",
        "name:or": "ମୋରିତାନିଆ",
        "name:os": "Мавритани",
        "name:pa": "ਮੌਰੀਤਾਨੀਆ",
        "name:pl": "Mauretania",
        "name:ps": "موریتاني",
        "name:pt": "Mauritânia",
        "name:qu": "Muritanya",
        "name:ro": "Mauritania",
        "name:ru": "Мавритания",
        "name:rw": "Moritaniya",
        "name:sa": "मारिटेनिया",
        "name:sc": "Mauritània",
        "name:se": "Mauritánia",
        "name:sg": "Moritanïi",
        "name:sk": "Mauritánia",
        "name:sl": "Mavretanija",
        "name:sn": "Mauritania",
        "name:so": "Mauritania",
        "name:sq": "Mauritania",
        "name:sr": "Мауританија",
        "name:ss": "IMolithaniya",
        "name:st": "Mauritania",
        "name:su": "Mauritania",
        "name:sv": "Mauretanien",
        "name:sw": "Mauritania",
        "name:ta": "மூரித்தானியா",
        "name:te": "మౌరిటానియ",
        "name:tg": "Мавритания",
        "name:th": "ประเทศมอริเตเนีย",
        "name:ti": "ሞሪታኒያ",
        "name:tk": "Mawritaniýa",
        "name:tl": "Mauritania",
        "name:tr": "Moritanya",
        "name:ts": "Maritana",
        "name:tt": "Мавритания",
        "name:tzl": "Mauritania",
        "name:ug": "ماۋرىتانىيە",
        "name:uk": "Мавританія",
        "name:ur": "موریتانیہ",
        "name:uz": "Mavritaniya",
        "name:vi": "Mauritanie",
        "name:vo": "Moritän",
        "name:wa": "Moritanreye",
        "name:wo": "Gànnaar",
        "name:xh": "Mauritania",
        "name:yi": "מאריטאניע",
        "name:yo": "Mauritáníà",
        "name:zgh": "ⵎⵓⵔⵉⵜⴰⵏⵢⴰ",
        "name:zh": "毛里塔尼亚",
        "name:zu": "IMoritaniya",
        "official_name": "الجمهورية الإسلامية الموريتانية",
        "official_name:cs": "Mauritánská islámská republika",
        "timezone": "Africa/Nouakchott",
        "type": "boundary",
        "wikidata": "Q1025",
        "wikipedia": "ar:موريتانيا",
        "@geometry": "center"
      },
      "geometry": {
        "type": "Point",
        "coordinates": [
          -10.9507077,
          21.0179665
        ]
      },
      "id": "relation/192763"
    },
    {
      "type": "Feature",
      "properties": {
        "@id": "relation/192786",
        "ISO3166-1": "NE",
        "ISO3166-1:alpha2": "NE",
        "ISO3166-1:alpha3": "NER",
        "ISO3166-1:numeric": "562",
        "admin_level": "2",
        "alt_name:eo": "Niĝerlando",
        "boundary": "administrative",
        "flag": "http://upload.wikimedia.org/wikipedia/commons/f/f4/Flag_of_Niger.svg",
        "is_in:continent": "Africa",
        "name": "Niger",
        "name:ace": "Niger",
        "name:af": "Niger",
        "name:als": "Niger",
        "name:am": "ኒጄር",
        "name:an": "Nícher",
        "name:ar": "النيجر",
        "name:arc": "ܢܝܓܪ",
        "name:arz": "نيجر",
        "name:ast": "Níxer",
        "name:az": "Niger",
        "name:ba": "Нигер",
        "name:bat-smg": "Nigeris",
        "name:bcl": "Niger",
        "name:be": "Нігер",
        "name:be-tarask": "Нігер",
        "name:bg": "Нигер",
        "name:bjn": "Niger",
        "name:bm": "Nijer",
        "name:bn": "নাইজার",
        "name:bo": "ནི་ཇར།",
        "name:bpy": "নাইজের",
        "name:br": "Niger",
        "name:bs": "Niger",
        "name:bxr": "Нигер",
        "name:ca": "Níger",
        "name:ce": "Нигер",
        "name:ceb": "Niger",
        "name:ckb": "نیجەر",
        "name:crh": "Niger",
        "name:cs": "Niger",
        "name:cy": "Niger",
        "name:da": "Niger",
        "name:de": "Niger",
        "name:diq": "Nicer",
        "name:dsb": "Niger",
        "name:dv": "ނީޖަރު",
        "name:ee": "Niger",
        "name:el": "Νίγηρας",
        "name:en": "Niger",
        "name:eo": "Niĝero",
        "name:es": "Níger",
        "name:et": "Niger",
        "name:eu": "Niger",
        "name:ext": "Nigi",
        "name:fa": "نیجر",
        "name:fi": "Niger",
        "name:fiu-vro": "Niger",
        "name:fo": "Niger",
        "name:fr": "Niger",
        "name:frp": "Nig·èr",
        "name:fy": "Niger",
        "name:ga": "An Nígir",
        "name:gag": "Niger",
        "name:gd": "Nìgeir",
        "name:gl": "Níxer",
        "name:gu": "નાઈજર",
        "name:gv": "Yn Neegeyr",
        "name:ha": "Nijar",
        "name:he": "ניז'ר",
        "name:hi": "नाइजर",
        "name:hif": "Niger",
        "name:hr": "Niger",
        "name:hsb": "Niger",
        "name:ht": "Nijè",
        "name:hu": "Niger",
        "name:hy": "Նիգեր",
        "name:ia": "Niger",
        "name:id": "Niger",
        "name:ie": "Niger",
        "name:ig": "Niger",
        "name:ilo": "Niger",
        "name:io": "Nijer",
        "name:is": "Níger",
        "name:it": "Niger",
        "name:ja": "ニジェール",
        "name:jbo": "gugdenu'e",
        "name:jv": "Niger",
        "name:ka": "ნიგერი",
        "name:kg": "Nijer",
        "name:kk": "Нигер",
        "name:ko": "니제르",
        "name:ku": "Nîjer",
        "name:kw": "Pow Nijer",
        "name:la": "Niger",
        "name:lb": "Niger",
        "name:li": "Niger",
        "name:lij": "Niger",
        "name:lmo": "Niger",
        "name:ln": "Nizer",
        "name:lt": "Nigeris",
        "name:lv": "Nigēra",
        "name:mk": "Нигер",
        "name:ml": "നീഷർ",
        "name:mn": "Нигер",
        "name:mr": "नायजर",
        "name:mrj": "Нигер",
        "name:ms": "Niger",
        "name:mt": "Niġer",
        "name:my": "နိုင်ဂျာနိုင်ငံ",
        "name:nah": "Niger",
        "name:nds": "Republiek Niger",
        "name:nl": "Niger",
        "name:nn": "Niger",
        "name:no": "Niger",
        "name:nov": "Niger",
        "name:nso": "Niger",
        "name:oc": "Nigèr (país)",
        "name:or": "ନାଇଜର",
        "name:os": "Нигер (паддзахад)",
        "name:pa": "ਨਾਈਜਰ",
        "name:pam": "Niger",
        "name:pih": "Niijir",
        "name:pl": "Niger",
        "name:pms": "Nìger",
        "name:pnb": "نائجر",
        "name:ps": "نایجېر",
        "name:pt": "Níger",
        "name:qu": "Niqir",
        "name:ro": "Niger",
        "name:ru": "Нигер",
        "name:rue": "Ніґер",
        "name:rw": "Nigeri",
        "name:sa": "नीजे",
        "name:sah": "Нигер",
        "name:sc": "Nixèr",
        "name:scn": "Niger",
        "name:sco": "Niger",
        "name:se": "Niger",
        "name:sg": "Nizëre",
        "name:sh": "Niger",
        "name:si": "නයිජර්",
        "name:sk": "Niger",
        "name:sl": "Niger",
        "name:sn": "Niger",
        "name:so": "Nayjar",
        "name:sq": "Nigeri",
        "name:sr": "Нигер",
        "name:ss": "INayijari",
        "name:stq": "Niger",
        "name:su": "Niger",
        "name:sv": "Niger",
        "name:sw": "Niger",
        "name:szl": "Ńiger",
        "name:ta": "நைஜர்",
        "name:te": "నైజర్",
        "name:tg": "Ниҷер",
        "name:th": "ประเทศไนเจอร์",
        "name:ti": "ናይጀር",
        "name:tk": "Niger",
        "name:tl": "Niyer",
        "name:tr": "Nijer",
        "name:ts": "Niger",
        "name:tzl": "Niger",
        "name:ug": "نىگېر",
        "name:uk": "Нігер",
        "name:ur": "نائجر",
        "name:uz": "Niger",
        "name:vec": "Niger",
        "name:vi": "Niger",
        "name:vo": "Nigerän",
        "name:war": "Niger",
        "name:wo": "Niseer",
        "name:xal": "Нигермудин Орн",
        "name:yi": "ניזשער",
        "name:yo": "Nìjẹ̀r",
        "name:zh": "尼日尔",
        "name:zh-min-nan": "Niger",
        "name:zh-yue": "尼日爾",
        "name:zu": "INayighe",
        "official_name:cs": "Nigerská republika",
        "timezone": "Africa/Niamey",
        "type": "boundary",
        "wikidata": "Q1032",
        "wikipedia": "fr:Niger",
        "@geometry": "center"
      },
      "geometry": {
        "type": "Point",
        "coordinates": [
          8.0828162,
          17.605467
        ]
      },
      "id": "relation/192786"
    },
    {
      "type": "Feature",
      "properties": {
        "@id": "relation/192787",
        "ISO3166-1": "NG",
        "ISO3166-1:alpha2": "NG",
        "ISO3166-1:alpha3": "NGA",
        "ISO3166-1:numeric": "566",
        "admin_level": "2",
        "boundary": "administrative",
        "flag": "http://upload.wikimedia.org/wikipedia/commons/7/79/Flag_of_Nigeria.svg",
        "is_in:continent": "Africa",
        "name": "Nigeria",
        "name:OYO": "Nigeria",
        "name:af": "Nigerië",
        "name:ak": "Nigeria",
        "name:als": "Nigeria",
        "name:am": "ናይጄሪያ",
        "name:an": "Nicheria",
        "name:ang": "Nigeria",
        "name:ar": "نيجيريا",
        "name:arz": "نايجيريا",
        "name:ast": "Nixeria",
        "name:az": "Nigeriya",
        "name:ba": "Нигерия",
        "name:bar": "Nigeria",
        "name:bat-smg": "Nigerėjė",
        "name:bcl": "Nigerya",
        "name:be": "Нігерыя",
        "name:be-tarask": "Нігерыя",
        "name:bg": "Нигерия",
        "name:bjn": "Nigeria",
        "name:bm": "Nijeria",
        "name:bn": "নাইজেরিয়া",
        "name:bo": "ནི་ཇི་རི་ཡ།",
        "name:bpy": "নাইজেরিয়া",
        "name:br": "Nigeria",
        "name:bs": "Nigerija",
        "name:bxr": "Нигери",
        "name:ca": "Nigèria",
        "name:ce": "Нигери",
        "name:ceb": "Nigeria",
        "name:ckb": "نێجیریا",
        "name:crh": "Nigeriya",
        "name:cs": "Nigérie",
        "name:cv": "Нигери",
        "name:cy": "Nigeria",
        "name:da": "Nigeria",
        "name:de": "Nigeria",
        "name:diq": "Nicerya",
        "name:dsb": "Nigerija",
        "name:dv": "ނައިޖީރިއާ",
        "name:ee": "Nigeria",
        "name:el": "Νιγηρία",
        "name:en": "Nigeria",
        "name:eo": "Niĝerio",
        "name:es": "Nigeria",
        "name:et": "Nigeeria",
        "name:eu": "Nigeria",
        "name:ext": "Nigéria",
        "name:fa": "نیجریه",
        "name:ff": "Niiseriya",
        "name:fi": "Nigeria",
        "name:fiu-vro": "Nigeeriä",
        "name:fo": "Nigeria",
        "name:fr": "Nigéria",
        "name:frp": "Nig·èria",
        "name:fy": "Nigearia",
        "name:ga": "An Nigéir",
        "name:gag": "Nigeriya",
        "name:gan": "尼日利亞",
        "name:gd": "Nìgeiria",
        "name:gl": "Nixeria",
        "name:gn": "Niheria",
        "name:gu": "નાઈજેરિયા",
        "name:gv": "Yn Naigeer",
        "name:ha": "Nijeriya",
        "name:hak": "Nai-khi̍p-li-â",
        "name:he": "ניגריה",
        "name:hi": "नाईजीरिया",
        "name:hif": "Nigeria",
        "name:hr": "Nigerija",
        "name:hsb": "Nigerija",
        "name:ht": "Nijerya",
        "name:hu": "Nigéria",
        "name:hy": "Նիգերիա",
        "name:ia": "Nigeria",
        "name:id": "Nigeria",
        "name:ie": "Nigeria",
        "name:ig": "Naigeria",
        "name:ilo": "Nigeria",
        "name:io": "Nigeria",
        "name:is": "Nígería",
        "name:it": "Nigeria",
        "name:ja": "ナイジェリア",
        "name:jbo": "gugdrnaidjiria",
        "name:jv": "Nigeria",
        "name:ka": "ნიგერია",
        "name:kg": "Nizeria",
        "name:kk": "Нигерия",
        "name:kn": "ನೈಜೀರಿಯ",
        "name:ko": "나이지리아",
        "name:ku": "Nîjerya",
        "name:kw": "Nijeri",
        "name:la": "Nigeria",
        "name:lad": "Nijeria",
        "name:lb": "Nigeria",
        "name:lez": "Нигерия",
        "name:li": "Nigeria",
        "name:lij": "Nigeria",
        "name:lmo": "Nigeria",
        "name:ln": "Nizeria",
        "name:lt": "Nigerija",
        "name:ltg": "Nigereja",
        "name:lv": "Nigērija",
        "name:mg": "Nizeria",
        "name:mk": "Нигерија",
        "name:ml": "നൈജീരിയ",
        "name:mn": "Нигери",
        "name:mr": "नायजेरिया",
        "name:mrj": "Нигери",
        "name:ms": "Nigeria",
        "name:mt": "Niġerja",
        "name:my": "နိုင်ဂျီးရီးယားနိုင်ငံ",
        "name:nah": "Nigeria",
        "name:nds": "Nigeria",
        "name:ne": "नाइजेरिया",
        "name:nl": "Nigeria",
        "name:nn": "Nigeria",
        "name:no": "Nigeria",
        "name:nov": "Nigeria",
        "name:nso": "Nigeria",
        "name:oc": "Nigèria",
        "name:or": "ନାଇଜେରିଆ",
        "name:os": "Нигери",
        "name:pa": "ਨਾਈਜੀਰੀਆ",
        "name:pam": "Nigeria",
        "name:pap": "Nigeria",
        "name:pih": "Niijiirya",
        "name:pl": "Nigeria",
        "name:pms": "Nigeria",
        "name:pnb": "نائیجیریا",
        "name:ps": "نايجېريا",
        "name:pt": "Nigéria",
        "name:qu": "Niqirya",
        "name:ro": "Nigeria",
        "name:roa-tara": "Nigerie",
        "name:ru": "Нигерия",
        "name:rue": "Ніґерія",
        "name:rw": "Nijeriya",
        "name:sa": "नैजीरिया",
        "name:sah": "Нигерия",
        "name:sc": "Nigéria",
        "name:scn": "Nigeria",
        "name:sco": "Nigerie",
        "name:se": "Nigeria",
        "name:sg": "Nizerïa",
        "name:sh": "Nigerija",
        "name:simple": "Nigeria",
        "name:sk": "Nigéria",
        "name:sl": "Nigerija",
        "name:sn": "Nigeria",
        "name:so": "Nayjeeriya",
        "name:sq": "Nigeria",
        "name:sr": "Нигерија",
        "name:ss": "INayijeriya",
        "name:stq": "Nigeria",
        "name:su": "Nigeria",
        "name:sv": "Nigeria",
        "name:sw": "Nigeria",
        "name:szl": "Ńigeryjo",
        "name:ta": "நைஜீரியா",
        "name:te": "నైజీరియా",
        "name:tg": "Ниҷерия",
        "name:th": "ประเทศไนจีเรีย",
        "name:ti": "ናይጂሪያ",
        "name:tk": "Nigeriýa",
        "name:tl": "Nigerya",
        "name:tpi": "Naijiria",
        "name:tr": "Nijerya",
        "name:ts": "Nigeria",
        "name:tt": "Нигерия",
        "name:tzl": "Nigeria",
        "name:ug": "نىگېرىيە",
        "name:uk": "Нігерія",
        "name:ur": "نائجیریا",
        "name:uz": "Nigeriya",
        "name:vec": "Nigeria",
        "name:vi": "Nigeria",
        "name:vo": "Nigeriyän",
        "name:wa": "Nidjeria",
        "name:war": "Nigerya",
        "name:wuu": "尼日利亚",
        "name:xal": "Нигермудин Ниицәтә Орн",
        "name:xh": "INigeria",
        "name:yi": "ניגעריע",
        "name:yo": "Nàìjíríà",
        "name:za": "Nizywlihya",
        "name:zh": "奈及利亞",
        "name:zh-classical": "尼日利亞",
        "name:zh-min-nan": "Nigeria",
        "name:zh-yue": "尼日利亞",
        "name:zu": "INigeria",
        "official_name:cs": "Nigerijská federativní republika",
        "timezone": "Africa/Lagos",
        "type": "boundary",
        "wikidata": "Q1033",
        "wikipedia": "en:Nigeria",
        "@geometry": "center"
      },
      "geometry": {
        "type": "Point",
        "coordinates": [
          8.677473,
          8.9773704
        ]
      },
      "id": "relation/192787"
    },
    {
      "type": "Feature",
      "properties": {
        "@id": "relation/195266",
        "ISO3166-1": "NA",
        "ISO3166-1:alpha2": "NA",
        "ISO3166-1:alpha3": "NAM",
        "ISO3166-1:numeric": "516",
        "admin_level": "2",
        "boundary": "administrative",
        "flag": "http://upload.wikimedia.org/wikipedia/commons/0/00/Flag_of_Namibia.svg",
        "is_in:continent": "Africa",
        "name": "Namibia",
        "name:ace": "Namibia",
        "name:af": "Namibië",
        "name:als": "Namibia",
        "name:am": "ናሚቢያ",
        "name:an": "Namibia",
        "name:ang": "Namibia",
        "name:ar": "ناميبيا",
        "name:arz": "ناميبيا",
        "name:ast": "Namibia",
        "name:az": "Namibiya",
        "name:ba": "Намибия",
        "name:bar": "Namibia",
        "name:bat-smg": "Namibėjė",
        "name:bcl": "Namibya",
        "name:be": "Намібія",
        "name:be-tarask": "Намібія",
        "name:bg": "Намибия",
        "name:bjn": "Namibia",
        "name:bm": "Namibia",
        "name:bn": "নামিবিয়া",
        "name:bo": "ན་མི་བྷི་ཡ།",
        "name:bpy": "নামিবিয়া",
        "name:br": "Namibia",
        "name:bs": "Namibija",
        "name:bxr": "Намиби",
        "name:ca": "Namíbia",
        "name:ce": "Намиби",
        "name:ceb": "Namibya",
        "name:chy": "Namibia",
        "name:ckb": "نامیبیا",
        "name:crh": "Namibiya",
        "name:cs": "Namibie",
        "name:cv": "Намиби",
        "name:cy": "Namibia",
        "name:da": "Namibia",
        "name:de": "Namibia",
        "name:diq": "Namibya",
        "name:dsb": "Namibija",
        "name:el": "Ναμίμπια",
        "name:en": "Namibia",
        "name:eo": "Namibio",
        "name:es": "Namibia",
        "name:et": "Namiibia",
        "name:eu": "Namibia",
        "name:ext": "Namibia",
        "name:fa": "نامیبیا",
        "name:fi": "Namibia",
        "name:fiu-vro": "Namiibia",
        "name:fo": "Namibia",
        "name:fr": "Namibie",
        "name:frp": "Namibie",
        "name:fy": "Namybje",
        "name:ga": "An Namaib",
        "name:gag": "Namibiya",
        "name:gd": "Naimibia",
        "name:gl": "Namibia",
        "name:gv": "Yn Nameeb",
        "name:hak": "Na̍p-mí-pí-â",
        "name:he": "נמיביה",
        "name:hi": "नामीबिया",
        "name:hif": "Namibia",
        "name:hr": "Namibija",
        "name:hsb": "Namibija",
        "name:ht": "Namibi",
        "name:hu": "Namíbia",
        "name:hy": "Նամիբիա",
        "name:ia": "Namibia",
        "name:id": "Namibia",
        "name:ie": "Namibia",
        "name:ilo": "Namibia",
        "name:io": "Namibia",
        "name:is": "Namibía",
        "name:it": "Namibia",
        "name:ja": "ナミビア",
        "name:jbo": "namibias",
        "name:jv": "Namibia",
        "name:ka": "ნამიბია",
        "name:kaa": "Namibiya",
        "name:kg": "Namibia",
        "name:ki": "Namibia",
        "name:kk": "Намибия",
        "name:kn": "ನಮೀಬಿಯ",
        "name:ko": "나미비아",
        "name:krc": "Намибия",
        "name:ku": "Namîbya",
        "name:kw": "Namibi",
        "name:la": "Namibia",
        "name:lad": "Namibia",
        "name:lb": "Namibien",
        "name:li": "Namibië",
        "name:lij": "Namibia",
        "name:lmo": "Namibia",
        "name:ln": "Namibia",
        "name:lt": "Namibija",
        "name:ltg": "Namibeja",
        "name:lv": "Namībija",
        "name:mg": "Namibia",
        "name:min": "Namibia",
        "name:mk": "Намибија",
        "name:ml": "നമീബിയ",
        "name:mn": "Намиби",
        "name:mr": "नामिबिया",
        "name:ms": "Namibia",
        "name:mt": "Namibja",
        "name:my": "နမီးဘီးယားနိုင်ငံ",
        "name:nah": "Namibia",
        "name:nds": "Namibia",
        "name:nl": "Namibië",
        "name:nn": "Namibia",
        "name:no": "Namibia",
        "name:nov": "Namibia",
        "name:nso": "Namibia",
        "name:nv": "Namííbya",
        "name:oc": "Namibia",
        "name:or": "ନାମିବିଆ",
        "name:os": "Намиби",
        "name:pa": "ਨਮੀਬੀਆ",
        "name:pam": "Namibia",
        "name:pap": "Namibia",
        "name:pl": "Namibia",
        "name:pms": "Namibia",
        "name:pnb": "نامیبیا",
        "name:ps": "نېمبیا",
        "name:pt": "Namíbia",
        "name:qu": "Namiwya",
        "name:rm": "Namibia",
        "name:ro": "Namibia",
        "name:ru": "Намибия",
        "name:rw": "Namibiya",
        "name:sa": "नमीबिया",
        "name:sah": "Намибия",
        "name:sc": "Namìbia",
        "name:scn": "Namibbia",
        "name:sco": "Namibie",
        "name:se": "Namibia",
        "name:sg": "Namibùii",
        "name:sh": "Namibija",
        "name:simple": "Namibia",
        "name:sk": "Namíbia",
        "name:sl": "Namibija",
        "name:sn": "Namibia",
        "name:so": "Nambiya",
        "name:sq": "Namibia",
        "name:sr": "Намибија",
        "name:ss": "INamibiya",
        "name:st": "Namibia",
        "name:stq": "Namibia",
        "name:su": "Namibia",
        "name:sv": "Namibia",
        "name:sw": "Namibia",
        "name:szl": "Namibijo",
        "name:ta": "நமீபியா",
        "name:te": "నమీబియా",
        "name:tg": "Намибия",
        "name:th": "ประเทศนามิเบีย",
        "name:ti": "ናሚቢያ",
        "name:tk": "Namibiýa",
        "name:tl": "Namibya",
        "name:tn": "Namibia",
        "name:tr": "Namibya",
        "name:ts": "Namibia",
        "name:tt": "Намибия",
        "name:tzl": "Namibia",
        "name:ug": "نامىبىيە",
        "name:uk": "Намібія",
        "name:ur": "نمیبیا",
        "name:uz": "Namibiya",
        "name:ve": "Namibia",
        "name:vec": "Namibia",
        "name:vi": "Namibia",
        "name:vo": "Namibiyän",
        "name:war": "Namibia",
        "name:wo": "Namibi",
        "name:xal": "Намибмудин Орн",
        "name:yi": "נאמיביע",
        "name:yo": "Nàmíbíà",
        "name:zea": "Namibië",
        "name:zh": "纳米比亚",
        "name:zh-classical": "納米比亞",
        "name:zh-min-nan": "Namibia",
        "name:zh-yue": "納米比亞",
        "name:zu": "INamibhiya",
        "official_name:cs": "Namibijská republika",
        "timezone": "Africa/Windhoek",
        "type": "boundary",
        "wikidata": "Q1030",
        "wikipedia": "en:Namibia",
        "@geometry": "center"
      },
      "geometry": {
        "type": "Point",
        "coordinates": [
          18.3948474,
          -22.9664678
        ]
      },
      "id": "relation/195266"
    },
    {
      "type": "Feature",
      "properties": {
        "@id": "relation/195273",
        "ISO3166-1": "MZ",
        "ISO3166-1:alpha2": "MZ",
        "ISO3166-1:alpha3": "MOZ",
        "ISO3166-1:numeric": "508",
        "admin_level": "2",
        "boundary": "administrative",
        "flag": "http://upload.wikimedia.org/wikipedia/commons/d/d0/Flag_of_Mozambique.svg",
        "is_in:continent": "Africa",
        "name": "Moçambique",
        "name:ace": "Mozambik",
        "name:af": "Mosambiek",
        "name:als": "Mosambik",
        "name:am": "ሞዛምቢክ",
        "name:an": "Mozambique",
        "name:ang": "Mosambice",
        "name:ar": "موزمبيق",
        "name:arz": "موزامبيق",
        "name:ast": "Mozambique",
        "name:az": "Mozambik",
        "name:ba": "Мозамбик",
        "name:bat-smg": "Mozambėks",
        "name:bcl": "Mosambik",
        "name:be": "Мазамбік",
        "name:be-tarask": "Мазамбік",
        "name:bg": "Мозамбик",
        "name:bjn": "Mozambik",
        "name:bm": "Mozanbik",
        "name:bn": "মোজাম্বিক",
        "name:bo": "མོ་ཛམ་བིཀ།",
        "name:bpy": "মোজাম্বিক",
        "name:br": "Mozambik",
        "name:bs": "Mozambik",
        "name:bxr": "Мозамбик",
        "name:ca": "Moçambic",
        "name:ce": "Мозамбик",
        "name:ceb": "Mozambique",
        "name:ckb": "مۆزامبیک",
        "name:co": "Mozambicu",
        "name:crh": "Mozambik",
        "name:cs": "Mosambik",
        "name:cv": "Мозамбик",
        "name:cy": "Mosambic",
        "name:da": "Mozambique",
        "name:de": "Mosambik",
        "name:diq": "Mozambik",
        "name:dsb": "Mosambik",
        "name:dv": "މުސިންބީ",
        "name:el": "Μοζαμβίκη",
        "name:en": "Mozambique",
        "name:eo": "Mozambiko",
        "name:es": "Mozambique",
        "name:et": "Mosambiik",
        "name:eu": "Mozambike",
        "name:ext": "Mozambiqui",
        "name:fa": "موزامبیک",
        "name:fi": "Mosambik",
        "name:fiu-vro": "Mosambiik",
        "name:fo": "Mosambik",
        "name:fr": "Mozambique",
        "name:frp": "Mozambique",
        "name:fy": "Mozambyk",
        "name:ga": "Poblacht Mhósaimbíc",
        "name:gag": "Mozambik",
        "name:gd": "Mòsaimbic",
        "name:gl": "Mozambique",
        "name:gn": "Mosambike",
        "name:gv": "Yn Vosambeeck",
        "name:hak": "Mo̍k-sông-pí-khiet",
        "name:he": "מוזמביק",
        "name:hi": "मोज़ाम्बीक",
        "name:hif": "Mozambique",
        "name:hr": "Mozambik",
        "name:hsb": "Mosambik",
        "name:ht": "Mozanbik",
        "name:hu": "Mozambik",
        "name:hy": "Մոզամբիկ",
        "name:ia": "Mozambique",
        "name:id": "Mozambik",
        "name:ie": "Mozambique",
        "name:ilo": "Mosambike",
        "name:io": "Mozambik",
        "name:is": "Mósambík",
        "name:it": "Mozambico",
        "name:ja": "モザンビーク",
        "name:jbo": "mosambik",
        "name:jv": "Mozambik",
        "name:ka": "მოზამბიკი",
        "name:kg": "Musambiki",
        "name:kk": "Мозамбик",
        "name:kn": "ಮೊಜಾಂಬಿಕ್",
        "name:ko": "모잠비크",
        "name:ku": "Mozambîk",
        "name:kw": "Mosambik",
        "name:la": "Mozambicum",
        "name:lad": "Mosambiko",
        "name:lb": "Mosambik",
        "name:li": "Mozambique",
        "name:lij": "Moçambico",
        "name:lmo": "Muzambich",
        "name:ln": "Mozambíki",
        "name:lt": "Mozambikas",
        "name:ltg": "Mozambika",
        "name:lv": "Mozambika",
        "name:mg": "Mozambika",
        "name:mi": "Mohapiki",
        "name:min": "Mozambik",
        "name:mk": "Мозамбик",
        "name:ml": "മൊസാംബിക്ക്",
        "name:mn": "Мозамбик",
        "name:mr": "मोझांबिक",
        "name:ms": "Mozambique",
        "name:mt": "Możambik",
        "name:mwl": "Moçambique",
        "name:my": "မိုဇမ်ဘစ်နိုင်ငံ",
        "name:nah": "Mozambique",
        "name:nds": "Mosambik",
        "name:nl": "Mozambique",
        "name:nn": "Mosambik",
        "name:no": "Mosambik",
        "name:nov": "Mozambik",
        "name:nso": "Mozambique",
        "name:ny": "Mozambique",
        "name:oc": "Moçambic",
        "name:or": "ମୋଜାମ୍ବିକ",
        "name:os": "Мозамбик",
        "name:pa": "ਮੋਜ਼ੈਂਬੀਕ",
        "name:pam": "Mozambique",
        "name:pap": "Mozambique",
        "name:pl": "Mozambik",
        "name:pms": "Mosambich",
        "name:pnb": "موزمبیق",
        "name:ps": "موزمبيق",
        "name:pt": "Moçambique",
        "name:qu": "Musambik",
        "name:ro": "Mozambic",
        "name:roa-rup": "Mozambic",
        "name:ru": "Мозамбик",
        "name:rw": "Mozambike",
        "name:sa": "मोजम्बीक",
        "name:sah": "Мозамбик",
        "name:sc": "Mozambico",
        "name:scn": "Mozambicu",
        "name:sco": "Mozambique",
        "name:se": "Mosambik",
        "name:sg": "Mözämbîka",
        "name:sh": "Mozambik",
        "name:simple": "Mozambique",
        "name:sk": "Mozambik",
        "name:sl": "Mozambik",
        "name:sn": "Mozambique",
        "name:so": "Musanbiig",
        "name:sq": "Mozambiku",
        "name:sr": "Мозамбик",
        "name:ss": "IMozambikhi",
        "name:stq": "Mosambik",
        "name:su": "Mosambik",
        "name:sv": "Moçambique",
        "name:sw": "Msumbiji",
        "name:szl": "Mozambik",
        "name:ta": "மொசாம்பிக்",
        "name:tet": "Mosambike",
        "name:tg": "Мозамбик",
        "name:th": "ประเทศโมซัมบิก",
        "name:ti": "ሞዛምቢክ",
        "name:tk": "Mozambik",
        "name:tl": "Musambik",
        "name:tr": "Mozambik",
        "name:ts": "Mozambique",
        "name:tzl": "Moçambica",
        "name:ug": "موزامبىك",
        "name:uk": "Мозамбік",
        "name:ur": "موزمبیق",
        "name:uz": "Mozambik",
        "name:ve": "Mozambikwi",
        "name:vec": "Mozanbico",
        "name:vi": "Mozambique",
        "name:vo": "Mozambikän",
        "name:war": "Mozambique",
        "name:wo": "Mosambik",
        "name:xal": "Мозамбикудин Орн",
        "name:yi": "מאזאמביק",
        "name:yo": "Mòsámbìk",
        "name:zh": "莫桑比克",
        "name:zh-classical": "莫三比克",
        "name:zh-min-nan": "Moçambique",
        "name:zh-yue": "莫三鼻給",
        "name:zu": "IMozambiki",
        "official_name:cs": "Mosambická republika",
        "timezone": "Africa/Maputo",
        "type": "boundary",
        "wikidata": "Q1029",
        "wikipedia": "pt:Moçambique",
        "@geometry": "center"
      },
      "geometry": {
        "type": "Point",
        "coordinates": [
          35.6338833,
          -18.6230788
        ]
      },
      "id": "relation/195273"
    },
    {
      "type": "Feature",
      "properties": {
        "@id": "relation/195290",
        "ISO3166-1": "MW",
        "ISO3166-1:alpha2": "MW",
        "ISO3166-1:alpha3": "MWI",
        "ISO3166-1:numeric": "454",
        "admin_level": "2",
        "boundary": "administrative",
        "flag": "http://upload.wikimedia.org/wikipedia/commons/d/d1/Flag_of_Malawi.svg",
        "is_in:continent": "Africa",
        "name": "Malawi",
        "name:ace": "Malawi",
        "name:af": "Malawi",
        "name:als": "Malawi",
        "name:am": "ማላዊ",
        "name:an": "Malawi",
        "name:ar": "مالاوي",
        "name:arz": "مالاوى",
        "name:ast": "Malaui",
        "name:az": "Malavi",
        "name:ba": "Малави",
        "name:bat-smg": "Malavis",
        "name:bcl": "Malawi",
        "name:be": "Малаві",
        "name:be-tarask": "Малаві",
        "name:bg": "Малави",
        "name:bjn": "Malawi",
        "name:bm": "Malawi",
        "name:bn": "মালাউই",
        "name:bo": "མ་ལ་ཝི།",
        "name:bpy": "মালাবি",
        "name:br": "Malawi",
        "name:bs": "Malavi",
        "name:bxr": "Малави",
        "name:ca": "Malawi",
        "name:ce": "Малави",
        "name:ceb": "Malawi",
        "name:chy": "Malawi",
        "name:ckb": "مالاوی",
        "name:crh": "Malavi",
        "name:cs": "Malawi",
        "name:cv": "Малави",
        "name:cy": "Malawi",
        "name:da": "Malawi",
        "name:de": "Malawi",
        "name:diq": "Malawi",
        "name:dv": "މަލާވީ",
        "name:ee": "Malawi",
        "name:el": "Μαλάουι",
        "name:en": "Malawi",
        "name:eo": "Malavio",
        "name:es": "Malaui",
        "name:et": "Malawi",
        "name:eu": "Malawi",
        "name:ext": "Malaui",
        "name:fa": "مالاوی",
        "name:fi": "Malawi",
        "name:fiu-vro": "Malawi",
        "name:fo": "Malavi",
        "name:fr": "Malawi",
        "name:frp": "Malavi",
        "name:fy": "Malawy",
        "name:ga": "An Mhaláiv",
        "name:gag": "Malavi",
        "name:gd": "Malabhaidh",
        "name:gl": "Malaui - Malawi",
        "name:gv": "Malawi",
        "name:hak": "Mâ-là-vî",
        "name:he": "מלאווי",
        "name:hi": "मलावी",
        "name:hif": "Malawi",
        "name:hr": "Malavi",
        "name:hsb": "Malawi",
        "name:ht": "Malawi",
        "name:hu": "Malawi",
        "name:hy": "Մալավի",
        "name:ia": "Malawi",
        "name:id": "Malawi",
        "name:ie": "Malawi",
        "name:ilo": "Malawi",
        "name:io": "Malawi",
        "name:is": "Malaví",
        "name:it": "Malawi",
        "name:ja": "マラウイ",
        "name:jbo": "malyvis",
        "name:jv": "Malawi",
        "name:ka": "მალავი",
        "name:kg": "Malawi",
        "name:ki": "Malawi",
        "name:kk": "Малави",
        "name:kn": "ಮಲಾವಿ",
        "name:ko": "말라위",
        "name:ku": "Malavî",
        "name:kw": "Malawi",
        "name:la": "Malavium",
        "name:lb": "Malawi",
        "name:li": "Malawi",
        "name:lij": "Malawi",
        "name:lmo": "Malawi",
        "name:ln": "Malawi",
        "name:lt": "Malavis",
        "name:ltg": "Malaveja",
        "name:lv": "Malāvija",
        "name:mg": "Malawi",
        "name:min": "Malawi",
        "name:mk": "Малави",
        "name:ml": "മലാവി",
        "name:mn": "Малави",
        "name:mr": "मलावी",
        "name:ms": "Malawi",
        "name:mt": "Malawi",
        "name:my": "မာလဝီနိုင်ငံ",
        "name:nah": "Malahui",
        "name:nds": "Malawi",
        "name:nl": "Malawi",
        "name:nn": "Malawi",
        "name:no": "Malawi",
        "name:nov": "Malawi",
        "name:nso": "Malawi",
        "name:nv": "Malááwii",
        "name:ny": "Malaŵi",
        "name:oc": "Malawi",
        "name:os": "Малави",
        "name:pa": "ਮਲਾਵੀ",
        "name:pam": "Malawi",
        "name:pih": "Malaawi",
        "name:pl": "Malawi",
        "name:pms": "Malawi",
        "name:pnb": "ملاوی",
        "name:ps": "مالاوي",
        "name:pt": "Malawi",
        "name:qu": "Malawi",
        "name:ro": "Malawi",
        "name:ru": "Малави",
        "name:rw": "Malawi",
        "name:sa": "मलावी",
        "name:sah": "Малауи",
        "name:sc": "Malawi",
        "name:scn": "Malaui",
        "name:sco": "Malawi",
        "name:se": "Malawi",
        "name:sg": "Malawïi",
        "name:sh": "Malavi",
        "name:sk": "Malawi",
        "name:sl": "Malavi",
        "name:sn": "Malawi",
        "name:so": "Malaawi",
        "name:sq": "Malavi",
        "name:sr": "Малави",
        "name:ss": "IMalawi",
        "name:stq": "Malawi",
        "name:su": "Malawi",
        "name:sv": "Malawi",
        "name:sw": "Malawi",
        "name:szl": "Malawi",
        "name:ta": "மலாவி",
        "name:tg": "Малави",
        "name:th": "ประเทศมาลาวี",
        "name:ti": "ማላዊ",
        "name:tk": "Malawi",
        "name:tl": "Malawi",
        "name:tr": "Malavi",
        "name:ts": "Malawi",
        "name:tum": "Malawi",
        "name:tzl": "Malawi",
        "name:ug": "مالاۋى",
        "name:uk": "Малаві",
        "name:ur": "ملاوی",
        "name:uz": "Malavi",
        "name:vec": "Malawi",
        "name:vi": "Malawi",
        "name:vo": "Malaviyän",
        "name:war": "Malawi",
        "name:wo": "Malawi",
        "name:xal": "Малавудин Орн",
        "name:yi": "מאלאווי",
        "name:yo": "Màláwì",
        "name:zh": "马拉维",
        "name:zh-min-nan": "Malaŵi",
        "name:zh-yue": "馬拉維",
        "name:zu": "IMalawi",
        "official_name:cs": "Malawiská republika",
        "timezone": "Africa/Blantyre",
        "type": "boundary",
        "wikidata": "Q1020",
        "wikipedia": "en:Malawi",
        "@geometry": "center"
      },
      "geometry": {
        "type": "Point",
        "coordinates": [
          34.2944674,
          -13.2489239
        ]
      },
      "id": "relation/195290"
    },
    {
      "type": "Feature",
      "properties": {
        "@id": "relation/287666",
        "ISO3166-1": "NI",
        "ISO3166-1:alpha2": "NI",
        "ISO3166-1:alpha3": "NIC",
        "ISO3166-1:numeric": "558",
        "addr:city": "Jinotega",
        "admin_level": "2",
        "border_type": "nation",
        "boundary": "administrative",
        "flag": "http://upload.wikimedia.org/wikipedia/commons/1/19/Flag_of_Nicaragua.svg",
        "is_in:continent": "North America",
        "name": "Nicaragua",
        "name:ace": "Nikaragua",
        "name:af": "Nicaragua",
        "name:als": "Nicaragua",
        "name:am": "ኒካራጓ",
        "name:an": "Nicaragua",
        "name:ar": "نيكاراجوا",
        "name:arz": "نيكاراجوا",
        "name:ast": "Nicaragua",
        "name:ay": "Nikarwa",
        "name:az": "Nikaraqua",
        "name:ba": "Никарагуа",
        "name:bat-smg": "Nėkaragva",
        "name:bcl": "Nikaragua",
        "name:be": "Нікарагуа",
        "name:be-tarask": "Нікарагуа",
        "name:bg": "Никарагуа",
        "name:bm": "Nikaragwa",
        "name:bn": "নিকারাগুয়া",
        "name:bo": "ནི་ཀ་ར་གུ་ཝ།",
        "name:bpy": "নিকারাগুয়া",
        "name:br": "Nicaragua",
        "name:bs": "Nikaragva",
        "name:bxr": "Никарагуа",
        "name:ca": "Nicaragua",
        "name:ce": "Никарагуа",
        "name:ceb": "Nicaragua",
        "name:ckb": "نیکاراگوا",
        "name:crh": "Nikaragua",
        "name:cs": "Nikaragua",
        "name:cy": "Nicaragua",
        "name:da": "Nicaragua",
        "name:de": "Nicaragua",
        "name:diq": "Nikaragua",
        "name:dsb": "Nikaragua",
        "name:dv": "ނިކަރާގުއާ",
        "name:ee": "Nicaragua",
        "name:el": "Νικαράγουα",
        "name:en": "Nicaragua",
        "name:eo": "Nikaragvo",
        "name:es": "Nicaragua",
        "name:et": "Nicaragua",
        "name:eu": "Nikaragua",
        "name:ext": "Nicarágua",
        "name:fa": "نیکاراگوئه",
        "name:fi": "Nicaragua",
        "name:fiu-vro": "Nicaragua",
        "name:fo": "Nikaragua",
        "name:fr": "Nicaragua",
        "name:frp": "Nicaragoa",
        "name:frr": "Nikaraagua",
        "name:fy": "Nikaragûa",
        "name:ga": "Nicearagua",
        "name:gag": "Nikaragua",
        "name:gd": "Niocaragua",
        "name:gl": "Nicaragua",
        "name:gn": "Nikaragua",
        "name:gv": "Yn Nickeraag",
        "name:hak": "Nì-kâ-lâ-kûa",
        "name:he": "ניקרגואה",
        "name:hi": "निकारागुआ",
        "name:hif": "Nicaragua",
        "name:hr": "Nikaragva",
        "name:hsb": "Nikaragua",
        "name:ht": "Nikaragwa",
        "name:hu": "Nicaragua",
        "name:hy": "Նիկարագուա",
        "name:ia": "Nicaragua",
        "name:id": "Nikaragua",
        "name:ie": "Nicaragua",
        "name:ilo": "Nicaragua",
        "name:io": "Nikaragua",
        "name:is": "Níkaragva",
        "name:it": "Nicaragua",
        "name:ja": "ニカラグア",
        "name:jbo": "nikaraguas",
        "name:jv": "Nikaragua",
        "name:ka": "ნიკარაგუა",
        "name:kk": "Никарагуа",
        "name:ko": "니카라과",
        "name:ku": "Nîkaragua",
        "name:kv": "Никарагуа",
        "name:kw": "Nikaragwa",
        "name:la": "Nicaragua",
        "name:lb": "Nicaragua",
        "name:li": "Nicaragua",
        "name:lij": "Nicaragua",
        "name:lmo": "Nicaragua",
        "name:ln": "Nikalagwa",
        "name:lt": "Nikaragva",
        "name:lv": "Nikaragva",
        "name:mg": "Nicaragua",
        "name:mhr": "Никарагуа",
        "name:mk": "Никарагва",
        "name:ml": "നിക്കരാഗ്വ",
        "name:mn": "Никарагуа",
        "name:mr": "निकाराग्वा",
        "name:mrj": "Никарагуа",
        "name:ms": "Nicaragua",
        "name:mt": "Nikaragwa",
        "name:my": "နီကာရာဂွါနိုင်ငံ",
        "name:nah": "Nicānāhuac",
        "name:nds": "Nicaragua",
        "name:ne": "निकाराग्वा",
        "name:nl": "Nicaragua",
        "name:nn": "Nicaragua",
        "name:no": "Nicaragua",
        "name:nov": "Nikaragua",
        "name:oc": "Nicaragua",
        "name:or": "ନିକାରାଗୁଆ",
        "name:os": "Никарагуæ",
        "name:pa": "ਨਿਕਾਰਾਗੁਆ",
        "name:pam": "Nicaragua",
        "name:pap": "Nicaragua",
        "name:pl": "Nikaragua",
        "name:pms": "Nicaragua",
        "name:ps": "نیکاراګوا",
        "name:pt": "Nicarágua",
        "name:qu": "Nikarawa",
        "name:ro": "Nicaragua",
        "name:ru": "Никарагуа",
        "name:rw": "Nikaragwa",
        "name:sa": "निकारगुवा",
        "name:sah": "Никарагуа",
        "name:scn": "Nicaragua",
        "name:sco": "Nicaragua",
        "name:se": "Nicaragua",
        "name:sh": "Nikaragva",
        "name:simple": "Nicaragua",
        "name:sk": "Nikaragua",
        "name:sl": "Nikaragva",
        "name:so": "Nikaragua",
        "name:sq": "Nikaraguaja",
        "name:sr": "Никарагва",
        "name:ss": "INikhalaga",
        "name:su": "Nikaragua",
        "name:sv": "Nicaragua",
        "name:sw": "Nikaragua",
        "name:szl": "Ńikaragua",
        "name:ta": "நிக்கராகுவா",
        "name:tg": "Никарагуа",
        "name:th": "ประเทศนิการากัว",
        "name:tl": "Nicaragua",
        "name:tr": "Nikaragua",
        "name:tt": "Никарагуа",
        "name:tzl": "Nicaral",
        "name:ug": "نىكاراگۇئا",
        "name:uk": "Нікарагуа",
        "name:ur": "نکاراگوا",
        "name:uz": "Nikaragua",
        "name:vec": "Nicaragua",
        "name:vep": "Nikaragua",
        "name:vi": "Nicaragua",
        "name:vo": "Nikaraguvän",
        "name:war": "Nicaragua",
        "name:wo": "Nikaraaguwa",
        "name:xal": "Никарагудин Орн",
        "name:yi": "ניקאראגוא",
        "name:yo": "Nikarágúà",
        "name:zh": "尼加拉瓜",
        "name:zh-min-nan": "Nicaragua",
        "name:zh-yue": "尼加拉瓜",
        "name:zu": "Nicaragua",
        "official_name:cs": "Nikaragujská republika",
        "timezone": "America/Managua",
        "type": "boundary",
        "wikidata": "Q811",
        "wikipedia": "es:Nicaragua",
        "@geometry": "center"
      },
      "geometry": {
        "type": "Point",
        "coordinates": [
          -85.2621171,
          12.8703874
        ]
      },
      "id": "relation/287666"
    },
    {
      "type": "Feature",
      "properties": {
        "@id": "relation/365307",
        "ISO3166-1": "MT",
        "ISO3166-1:alpha2": "MT",
        "ISO3166-1:alpha3": "MLT",
        "ISO3166-1:numeric": "470",
        "admin_level": "2",
        "boundary": "administrative",
        "driving_side": "left",
        "flag": "http://upload.wikimedia.org/wikipedia/commons/7/73/Flag_of_Malta.svg",
        "int_name": "Malta",
        "is_in:continent": "Europe",
        "name": "Malta",
        "name:ak": "Mɔlta",
        "name:am": "ማልታ",
        "name:ar": "مالطا",
        "name:be": "Мальта",
        "name:bg": "Малта",
        "name:bm": "Malti",
        "name:bn": "মাল্টা",
        "name:bo": "མལ་ཊ།",
        "name:br": "Malta",
        "name:ca": "Malta",
        "name:chr": "ᎹᎵᏔ",
        "name:cs": "Malta",
        "name:de": "Malta",
        "name:dz": "མཱལ་ཊ",
        "name:ee": "Malta nutome",
        "name:el": "Μάλτα",
        "name:en": "Malta",
        "name:eo": "Malto",
        "name:es": "Malta",
        "name:fa": "مالت",
        "name:ff": "Malte",
        "name:fi": "Malta",
        "name:fr": "Malte",
        "name:ga": "Málta",
        "name:gu": "માલ્ટા",
        "name:gv": "Yn Valta",
        "name:haw": "Malata",
        "name:he": "מלטה",
        "name:hi": "माल्टा",
        "name:hr": "Malta",
        "name:hu": "Málta",
        "name:hy": "Մալթա",
        "name:ia": "Malta",
        "name:io": "Malta",
        "name:is": "Malta",
        "name:it": "Malta",
        "name:ja": "マルタ",
        "name:jbo": "maltas",
        "name:ka": "მალტა",
        "name:kab": "Malṭ",
        "name:km": "ម៉ាល់តា",
        "name:kn": "ಮಾಲ್ಟಾ",
        "name:ko": "몰타",
        "name:ks": "مالٹا",
        "name:ku": "Malta",
        "name:la": "Melita",
        "name:lg": "Malita",
        "name:ln": "Malitɛ",
        "name:lo": "ມັນຕາ",
        "name:lv": "Malta",
        "name:mk": "Малта",
        "name:ml": "മാൾട്ട",
        "name:mn": "Мальта",
        "name:mr": "माल्टा",
        "name:ne": "माल्टा",
        "name:no": "Malta",
        "name:or": "ମାଲ୍ଟା",
        "name:pl": "Malta",
        "name:rn": "Malita",
        "name:ru": "Мальта",
        "name:se": "Málta",
        "name:sg": "Mâlta",
        "name:si": "මෝල්ටාව",
        "name:sk": "Malta",
        "name:so": "Maalda",
        "name:sq": "Maltë",
        "name:sr": "Малта",
        "name:sv": "Malta",
        "name:ta": "மால்டா",
        "name:te": "మాల్టా",
        "name:tg": "Малта",
        "name:th": "ประเทศมอลตา",
        "name:ti": "ማልታ",
        "name:to": "Malita",
        "name:uk": "Мальта",
        "name:ur": "مالٹا",
        "name:vi": "Malta",
        "name:vo": "Malteän",
        "name:yo": "Orílẹ́ède Malata",
        "name:zh": "马尔他",
        "name:zh_pinyin": "Mǎěrtā",
        "name:zu": "i-Malta",
        "official_name:ar": "جمهورية مالطة",
        "official_name:be": "Рэспубліка Мальта",
        "official_name:ca": "República de Malta",
        "official_name:cs": "Maltská republika",
        "official_name:el": "Δημοκρατία της Μάλτας",
        "official_name:eo": "Malta Respubliko",
        "official_name:fi": "Maltan tasavalta",
        "official_name:id": "Republik Malta",
        "official_name:ja": "マルタ共和国",
        "official_name:ku": "Komara Maltayê",
        "official_name:lb": "Republik Malta",
        "official_name:lt": "Maltos Respublika",
        "official_name:lv": "Maltas Republika",
        "official_name:no": "Republikken Malta",
        "official_name:ru": "Республика Мальта",
        "official_name:sk": "Maltská republika",
        "official_name:sr": "Република Малта",
        "official_name:sv": "Republiken Malta",
        "official_name:vi": "Cộng hòa Malta",
        "timezone": "Europe/Malta",
        "type": "boundary",
        "wikidata": "Q233",
        "wikipedia": "en:Malta",
        "@geometry": "center"
      },
      "geometry": {
        "type": "Point",
        "coordinates": [
          14.3796096,
          35.9441201
        ]
      },
      "id": "relation/365307"
    },
    {
      "type": "Feature",
      "properties": {
        "@id": "relation/535828",
        "ISO3166-1": "MU",
        "ISO3166-1:alpha2": "MU",
        "ISO3166-1:alpha3": "MUS",
        "ISO3166-1:numeric": "480",
        "admin_level": "2",
        "boundary": "administrative",
        "flag": "http://upload.wikimedia.org/wikipedia/commons/7/77/Flag_of_Mauritius.svg",
        "is_in:continent": "Africa",
        "name": "Mauritius",
        "name:am": "ሞሪሸስ",
        "name:an": "Mauricio",
        "name:ar": "موريشيوس",
        "name:az": "Mavriki",
        "name:be": "Маўрыкій",
        "name:bg": "Мавриций",
        "name:bn": "মরিশাস",
        "name:bo": "མའུ་རི་ཊིའུ་སུ།",
        "name:br": "Maoris",
        "name:bs": "Mauricijus",
        "name:ca": "Maurici",
        "name:cs": "Mauricius",
        "name:cv": "Маврики",
        "name:de": "Mauritius",
        "name:dv": "މޮރިޝަސް",
        "name:el": "Μαυρίκιος (κράτος)",
        "name:en": "Mauritius",
        "name:eo": "Maŭricio",
        "name:es": "Mauricio",
        "name:eu": "Maurizio",
        "name:fa": "موریس",
        "name:fo": "Móritius",
        "name:fr": "Maurice",
        "name:fy": "Mauritsius",
        "name:ga": "Oileán Mhuirís",
        "name:gd": "Na h-Eileanan Mhoiriseas",
        "name:gl": "Mauricio - Maurice",
        "name:gv": "Ellan Wirrish",
        "name:he": "מאוריציוס",
        "name:hi": "मॉरिशस",
        "name:hr": "Mauricijus",
        "name:ht": "Moris",
        "name:hy": "Մավրիկիոս",
        "name:ia": "Mauritio",
        "name:io": "Maurico",
        "name:is": "Máritíus",
        "name:ja": "モーリシャス",
        "name:ka": "მავრიკი",
        "name:kk": "Маврикий",
        "name:kn": "ಮಾರಿಷಸ್",
        "name:ko": "모리셔스",
        "name:ku": "Maurîtius",
        "name:kw": "Ynys Morrys",
        "name:la": "Mauritia",
        "name:ln": "Morisi",
        "name:lt": "Mauricijus",
        "name:lv": "Maurīcija",
        "name:mg": "Maorisy",
        "name:mk": "Маврициус",
        "name:ml": "മൗറീഷ്യസ്",
        "name:mr": "मॉरिशस",
        "name:mt": "Mawrizji",
        "name:my": "မောရစ်ရှနိုင်ငံ",
        "name:ne": "मौरिसस",
        "name:nl": "Mauritius",
        "name:oc": "Maurici",
        "name:or": "ମରିସସ",
        "name:os": "Маврикий",
        "name:pa": "ਮਾਰੀਸ਼ਸ",
        "name:ps": "ماوریتوس",
        "name:pt": "Maurícia",
        "name:qu": "Mawrisyu",
        "name:ru": "Маврикий",
        "name:rw": "Morise",
        "name:sa": "मारिषस्",
        "name:sc": "Mauritzius",
        "name:sg": "Mörîsi",
        "name:si": "මුරුසි සමුහාණ්ඩුව",
        "name:sk": "Maurícius",
        "name:sq": "Mauritiusi",
        "name:sr": "Маурицијус",
        "name:ss": "IMorishiyasi",
        "name:sw": "Morisi",
        "name:ta": "மொரிசியசு",
        "name:te": "మారిషస్",
        "name:tg": "Маврикия",
        "name:th": "ประเทศมอริเชียส",
        "name:tk": "Mawrikiý",
        "name:tl": "Maurisyo",
        "name:tt": "Маврикий",
        "name:tzl": "Mauriça",
        "name:ug": "ماۋرىتىئۇس",
        "name:uk": "Маврикій",
        "name:ur": "موریشس",
        "name:uz": "Mavritsiya",
        "name:vo": "Moriseän",
        "name:wo": "Móoris",
        "name:yo": "Mọ́rísì",
        "name:zh": "毛里求斯",
        "name:zu": "IMorishisi",
        "official_name:cs": "Mauricijská republika",
        "timezone": "Indian/Mauritius",
        "type": "boundary",
        "wikidata": "Q1027",
        "wikipedia": "en:Mauritius",
        "@geometry": "center"
      },
      "geometry": {
        "type": "Point",
        "coordinates": [
          60.0488235,
          -15.4315
        ]
      },
      "id": "relation/535828"
    },
    {
      "type": "Feature",
      "properties": {
        "@id": "relation/536773",
        "ISO3166-1": "MV",
        "ISO3166-1:alpha2": "MV",
        "ISO3166-1:alpha3": "MDV",
        "ISO3166-1:numeric": "462",
        "admin_level": "2",
        "boundary": "administrative",
        "flag": "http://upload.wikimedia.org/wikipedia/commons/0/0f/Flag_of_Maldives.svg",
        "is_in:continent": "Asia",
        "name": "ދިވެހިރާއްޖެ",
        "name:af": "Maldive",
        "name:am": "ማልዲቭስ",
        "name:ar": "ملديف",
        "name:ast": "Les Maldives",
        "name:az": "Maldiv",
        "name:be": "Мальдзівы",
        "name:bg": "Малдиви",
        "name:bm": "Maldivi",
        "name:bn": "মালদ্বীপ",
        "name:bo": "མལ་དྭིབ།",
        "name:br": "Maldivez",
        "name:bs": "Maldivi",
        "name:ca": "Maldives",
        "name:chr": "ᎹᎵᏗᏫᏍ",
        "name:cs": "Maledivy",
        "name:da": "Maldiverne",
        "name:de": "Malediven",
        "name:dv": "ދިވެހިރާއްޖެ",
        "name:dz": "མཱལ་དིབས",
        "name:ee": "maldivesdukɔ",
        "name:el": "Μαλδίβες",
        "name:en": "Maldives",
        "name:eo": "Maldivoj",
        "name:es": "Maldivas",
        "name:et": "Maldiivid",
        "name:eu": "Maldivak",
        "name:fa": "مالدیو",
        "name:ff": "Maldiiwe",
        "name:fi": "Malediivit",
        "name:fo": "Maldivuoyggjarnar",
        "name:fr": "Maldives",
        "name:fur": "Maldivis",
        "name:fy": "de Maldiven",
        "name:ga": "Oileáin Mhaildíve",
        "name:gd": "Na h-Eileanan Mhaladaibh",
        "name:gl": "Maldivas",
        "name:gu": "માલદિવ્સ",
        "name:gv": "Ny Maldeevaghyn",
        "name:ha": "Maldibi",
        "name:haw": "Maladiwa",
        "name:he": "מלדיבים",
        "name:hi": "मालदीव",
        "name:hr": "Maldivi",
        "name:hu": "Maldív-szigetek",
        "name:hy": "Մալդիվներ",
        "name:id": "Maladewa",
        "name:ig": "Maldivesa",
        "name:io": "Maldivi",
        "name:is": "Maldíveyjar",
        "name:it": "Maldive",
        "name:ja": "モルディブ",
        "name:jbo": "maldives",
        "name:ka": "მალდივის კუნძულები",
        "name:kab": "Maldib",
        "name:ki": "Modivu",
        "name:km": "ម៉ាល់ឌីវ",
        "name:kn": "ಮಾಲ್ಡಿವ್ಸ್",
        "name:ko": "몰디브",
        "name:ks": "مالدیٖو",
        "name:ksh": "de Mallediive",
        "name:ku": "Maldîv",
        "name:la": "Insulae Maldivae",
        "name:lb": "Malediven",
        "name:lg": "Bizinga by'eMalidive",
        "name:ln": "Madívɛ",
        "name:lo": "ມັນດິຟ",
        "name:lt": "Maldyvai",
        "name:lv": "Maldīvija",
        "name:mg": "Maldiva",
        "name:mk": "Малдиви",
        "name:ml": "മാലിദ്വീപ്",
        "name:mn": "Мальдив",
        "name:mr": "मालदीव्ज",
        "name:ms": "Maldiv",
        "name:my": "မော်လဒိုက်",
        "name:ne": "माल्दिभ्स",
        "name:nl": "Malediven",
        "name:nn": "Maldivane",
        "name:no": "Maldivene",
        "name:or": "ମାଳଦ୍ବୀପ",
        "name:pl": "Malediwy",
        "name:pt": "Maldivas",
        "name:rm": "Maldivas",
        "name:rn": "Moludave",
        "name:ro": "Maldive",
        "name:ru": "Мальдивы",
        "name:se": "Malediivvat",
        "name:sg": "Maldîva",
        "name:si": "මාල දිවයින",
        "name:sk": "Maledivy",
        "name:sl": "Maldivi",
        "name:so": "Maaldiqeen",
        "name:sq": "Maldivit",
        "name:sr": "Малдиви",
        "name:sv": "Maldiverna",
        "name:sw": "Modivu",
        "name:ta": "மாலத்தீவு",
        "name:te": "మాల్దీవులు",
        "name:th": "ประเทศมัลดีฟส์",
        "name:ti": "ማልዲቭስ",
        "name:to": "Malativisi",
        "name:tr": "Maldivler",
        "name:tt": "Мальдивлар",
        "name:tzl": "Divehins",
        "name:uk": "Мальдіви",
        "name:ur": "مالدیو",
        "name:vi": "Maldives",
        "name:vo": "Maldivuäns",
        "name:yo": "Orílẹ́ède Maladifi",
        "name:zh": "马尔代夫",
        "name:zh_pinyin": "Mǎěrdàifū",
        "name:zu": "i-Maldives",
        "official_name:be": "Мальдыўская Рэспубліка",
        "official_name:cs": "Maledivská republika",
        "official_name:eo": "Respubliko de Maldivoj",
        "official_name:et": "Maldiivi Vabariik",
        "official_name:id": "Republik Maladewa",
        "official_name:it": "Repubblica delle Maledive",
        "official_name:ku": "Komara Maldîvan",
        "official_name:lb": "Republik Malediven",
        "official_name:lt": "Maldyvų Respublika",
        "official_name:lv": "Maldīvijas Republika",
        "official_name:pl": "Republika Malediwów",
        "official_name:ru": "Мальдивская Республика",
        "official_name:sv": "Republiken Maldiverna",
        "population": "328536",
        "timezone": "Indian/Maldives",
        "type": "boundary",
        "wikidata": "Q826",
        "wikipedia": "en:Maldives",
        "@geometry": "center"
      },
      "geometry": {
        "type": "Point",
        "coordinates": [
          73.1627575,
          3.2015655
        ]
      },
      "id": "relation/536773"
    },
    {
      "type": "Feature",
      "properties": {
        "@id": "relation/537257",
        "ISO3166-1": "MS",
        "ISO3166-1:alpha2": "MS",
        "ISO3166-1:alpha3": "MSR",
        "ISO3166-1:numeric": "500",
        "admin_level": "2",
        "boundary": "administrative",
        "description": "british overseas territory",
        "flag": "http://upload.wikimedia.org/wikipedia/commons/d/d0/Flag_of_Montserrat.svg",
        "is_in:continent": "North America",
        "name": "Montserrat",
        "name:af": "Montserrat",
        "name:als": "Montserrat",
        "name:an": "Isla de Montserrat",
        "name:ang": "Montserrat",
        "name:ar": "مونتسرات",
        "name:arz": "مونتسيرات",
        "name:ast": "Montserrat",
        "name:az": "Montserrat",
        "name:ba": "Монтсеррат",
        "name:be": "Мантсерат",
        "name:be-tarask": "Мансэрат",
        "name:bg": "Монсерат",
        "name:bpy": "মন্টসের্রাট",
        "name:br": "Enez Montserrat",
        "name:bs": "Monserat",
        "name:ca": "Illa de Montserrat",
        "name:cs": "Montserrat",
        "name:cy": "Montserrat",
        "name:da": "Montserrat",
        "name:de": "Montserrat",
        "name:dv": "މޮންސެރާޓު",
        "name:el": "Μοντσερράτ",
        "name:en": "Montserrat",
        "name:eo": "Moncerato",
        "name:es": "Montserrat",
        "name:et": "Montserrat",
        "name:eu": "Montserrat",
        "name:fa": "مونتسرات",
        "name:fi": "Montserrat",
        "name:fr": "Montserrat",
        "name:frp": "Montsarrat",
        "name:frr": "Montserrat",
        "name:ga": "Montsarat",
        "name:gl": "Illa Montserrat",
        "name:he": "מונטסראט",
        "name:hi": "मॉण्टसेराट",
        "name:hr": "Montserrat",
        "name:ht": "Montserrat",
        "name:hu": "Montserrat",
        "name:hy": "Մոնտսերատ",
        "name:id": "Montserrat",
        "name:io": "Montserrat",
        "name:is": "Montserrat",
        "name:it": "Montserrat",
        "name:ja": "モントセラト",
        "name:jv": "Montserrat",
        "name:ka": "მონსერატი",
        "name:ko": "몬트세랫",
        "name:kw": "Montserrat",
        "name:la": "Montserrat",
        "name:lb": "Montserrat",
        "name:li": "Montserrat",
        "name:lij": "Montserrat",
        "name:lmo": "Montserrat",
        "name:lt": "Montseratas",
        "name:lv": "Montserrata",
        "name:mk": "Монтсерат",
        "name:mr": "माँटसेराट",
        "name:ms": "Montserrat",
        "name:nds": "Montserrat",
        "name:nl": "Montserrat",
        "name:nn": "Montserrat",
        "name:no": "Montserrat",
        "name:nov": "Montserat",
        "name:oc": "Montserrat",
        "name:pa": "ਮਾਂਟਸਰਾਤ",
        "name:pap": "Montserrat",
        "name:pl": "Montserrat",
        "name:pms": "Montserrat",
        "name:pnb": "مونتسرات",
        "name:pt": "Montserrat",
        "name:ro": "Montserrat",
        "name:ru": "Монтсеррат",
        "name:rw": "Monserati",
        "name:sh": "Montserrat",
        "name:simple": "Montserrat",
        "name:sk": "Montserrat",
        "name:sl": "Montserrat",
        "name:sq": "Montserrati",
        "name:sr": "Монтсерат",
        "name:su": "Montserrat",
        "name:sv": "Montserrat",
        "name:ta": "மொன்செராட்",
        "name:th": "มอนต์เซอร์รัต",
        "name:tl": "Montserrat",
        "name:tr": "Montserrat",
        "name:ug": "مونتسەررات",
        "name:uk": "Монтсеррат",
        "name:ur": "مانٹسریٹ",
        "name:vi": "Montserrat",
        "name:war": "Montserrat",
        "name:wo": "Montserrat",
        "name:yo": "Montserrat",
        "name:zh": "蒙塞拉特島",
        "name:zh-min-nan": "Montserrat",
        "name:zh-yue": "蒙塞拉特島",
        "timezone": "America/Montserrat",
        "type": "boundary",
        "wikidata": "Q13353",
        "wikipedia": "en:Montserrat",
        "@geometry": "center"
      },
      "geometry": {
        "type": "Point",
        "coordinates": [
          -62.1930244,
          16.7451489
        ]
      },
      "id": "relation/537257"
    },
    {
      "type": "Feature",
      "properties": {
        "@id": "relation/571804",
        "ISO3166-1": "NR",
        "ISO3166-1:alpha2": "NR",
        "ISO3166-1:alpha3": "NRU",
        "ISO3166-1:numeric": "520",
        "admin_level": "2",
        "boundary": "administrative",
        "flag": "http://upload.wikimedia.org/wikipedia/commons/3/30/Flag_of_Nauru.svg",
        "is_in:continent": "Oceania",
        "name": "Naoero",
        "name:am": "ናውሩ",
        "name:ar": "ناورو",
        "name:bg": "Науру",
        "name:bn": "নাউরু",
        "name:cs": "Nauru",
        "name:de": "Nauru",
        "name:dv": "ނައުރޫ",
        "name:el": "Ναουρού",
        "name:en": "Nauru",
        "name:eo": "Nauro",
        "name:fa": "نائورو",
        "name:fr": "Nauru",
        "name:ga": "Nárú",
        "name:he": "נאורו",
        "name:hi": "नाउरु",
        "name:hr": "Nauru",
        "name:is": "Nárú",
        "name:jbo": "naurus",
        "name:ml": "നൗറു",
        "name:mt": "Nawru",
        "name:ru": "Науру",
        "name:sk": "Nauru",
        "name:sq": "Naurua",
        "name:ta": "நவூரு",
        "name:uk": "Науру",
        "name:ur": "ناورو",
        "name:vo": "Naureän",
        "name:zh": "諾魯",
        "official_name:cs": "Republika Nauru",
        "timezone": "Pacific/Nauru",
        "type": "boundary",
        "wikidata": "Q697",
        "wikipedia": "en:Nauru",
        "@geometry": "center"
      },
      "geometry": {
        "type": "Point",
        "coordinates": [
          166.9348582,
          -0.528
        ]
      },
      "id": "relation/571804"
    },
    {
      "type": "Feature",
      "properties": {
        "@id": "relation/1059668",
        "boundary": "administrative",
        "int_name": "Norge",
        "name": "Norge",
        "name:ace": "Norwègia",
        "name:af": "Noorweë",
        "name:als": "Norwegen",
        "name:am": "ኖርዌይ",
        "name:an": "Noruega",
        "name:ang": "Norþweg",
        "name:ar": "النرويج",
        "name:arc": "ܢܘܪܒܝܓ",
        "name:arz": "النرويج",
        "name:ast": "Noruega",
        "name:ay": "Nurweka",
        "name:az": "Norveç",
        "name:ba": "Норвегия",
        "name:bar": "Norwegn",
        "name:bat-smg": "Nuorvegėjė",
        "name:bcl": "Norwey",
        "name:be": "Нарвегія",
        "name:be-tarask": "Нарвэгія",
        "name:bg": "Норвегия",
        "name:bi": "Norway",
        "name:bm": "Norwij",
        "name:bn": "নরওয়ে",
        "name:bo": "ནོར་ཝེ།",
        "name:bpy": "নরৱে",
        "name:br": "Norvegia",
        "name:bs": "Norveška",
        "name:bxr": "Норвеги",
        "name:ca": "Noruega",
        "name:cdo": "Nò̤-ŭi",
        "name:ce": "Норвеги",
        "name:ceb": "Noruwega",
        "name:chy": "Norway",
        "name:ckb": "نۆرویژ",
        "name:co": "Nurvegia",
        "name:crh": "Norvegiya",
        "name:cs": "Norsko",
        "name:csb": "Norweskô",
        "name:cu": "Норєгъ",
        "name:cv": "Норвеги",
        "name:cy": "Norwy",
        "name:da": "Norge",
        "name:de": "Norwegen",
        "name:diq": "Norwec",
        "name:dsb": "Norwegska",
        "name:dv": "ނޯވޭ",
        "name:dz": "ནོ་ཝེ་",
        "name:ee": "Norway",
        "name:el": "Νορβηγία",
        "name:en": "Norway",
        "name:eo": "Norvegio",
        "name:es": "Noruega",
        "name:et": "Norra",
        "name:eu": "Norvegia",
        "name:ext": "Noruega",
        "name:fa": "نروژ",
        "name:fi": "Norja",
        "name:fiu-vro": "Norra",
        "name:fo": "Noregur",
        "name:fr": "Norvège",
        "name:frp": "Norvèg·e",
        "name:frr": "Norweegen",
        "name:fy": "Noarwegen",
        "name:ga": "An Iorua",
        "name:gag": "Norvegiya",
        "name:gan": "挪威",
        "name:gd": "Nirribhidh",
        "name:gl": "Noruega",
        "name:gn": "Noruega",
        "name:gu": "નોર્વે",
        "name:gv": "Norlynn",
        "name:hak": "Nò-vî",
        "name:haw": "Nolewai",
        "name:he": "נורבגיה",
        "name:hi": "नॉर्वे",
        "name:hif": "Norway",
        "name:hr": "Norveška",
        "name:hsb": "Norwegska",
        "name:ht": "Nòvèj",
        "name:hu": "Norvégia",
        "name:hy": "Նորվեգիա",
        "name:ia": "Norvegia",
        "name:id": "Norwegia",
        "name:ie": "Norvegia",
        "name:ilo": "Norwéga",
        "name:io": "Norvegia",
        "name:is": "Noregur",
        "name:it": "Norvegia",
        "name:iu": "ᓄᕐᒋ/nurgi",
        "name:ja": "ノルウェー",
        "name:jbo": "noreg",
        "name:jv": "Norwégia",
        "name:ka": "ნორვეგია",
        "name:kaa": "Norvegiya",
        "name:kbd": "Норвегэ",
        "name:kg": "Norge",
        "name:kk": "Норвегия",
        "name:kl": "Norge",
        "name:kn": "ನಾರ್ವೇ",
        "name:ko": "노르웨이",
        "name:koi": "Норвег",
        "name:krc": "Норвегия",
        "name:ku": "Norwêc",
        "name:kv": "Норвегия",
        "name:kw": "Norgagh",
        "name:ky": "Норвегия",
        "name:la": "Norvegia",
        "name:lad": "Norvejia",
        "name:lb": "Norwegen",
        "name:lez": "Норвегия",
        "name:li": "Noorwege",
        "name:lij": "Norveggia",
        "name:lmo": "Nurvegia",
        "name:ln": "Norvej",
        "name:lt": "Norvegija",
        "name:ltg": "Norvegeja",
        "name:lv": "Norvēģija",
        "name:mdf": "Норвегие",
        "name:mg": "Norvezy",
        "name:mhr": "Норвегий",
        "name:mi": "Nōwei",
        "name:mk": "Норвешка",
        "name:ml": "നോർവെ",
        "name:mn": "Норвеги",
        "name:mr": "नॉर्वे",
        "name:ms": "Norway",
        "name:mt": "Norveġja",
        "name:my": "နော်ဝေနိုင်ငံ",
        "name:myv": "Норвегия Мастор",
        "name:na": "Norwei",
        "name:nah": "Noruegia",
        "name:nan": "Lo̍k-ui-kok",
        "name:nb": "Norge",
        "name:nds": "Norwegen",
        "name:nds-nl": "Noorwegen",
        "name:ne": "नर्वे",
        "name:nl": "Noorwegen",
        "name:nn": "Noreg",
        "name:no": "Norge",
        "name:nov": "Norvegia",
        "name:nrm": "Norouague",
        "name:oc": "Norvègia",
        "name:om": "Norway",
        "name:or": "ନରୱେ",
        "name:os": "Норвеги",
        "name:pa": "ਨਾਰਵੇ",
        "name:pam": "Norwega",
        "name:pap": "Noruega",
        "name:pcd": "Norvège",
        "name:pih": "Norwaii",
        "name:pl": "Norwegia",
        "name:pms": "Norvegia",
        "name:pnb": "ناروے",
        "name:pnt": "Νορβηγία",
        "name:ps": "ناروې",
        "name:pt": "Noruega",
        "name:qu": "Nurwiga",
        "name:rm": "Norvegia",
        "name:rmy": "Norvejiya",
        "name:rn": "Noruega",
        "name:ro": "Norvegia",
        "name:roa-rup": "Norveghia",
        "name:roa-tara": "Norveggie",
        "name:ru": "Норвегия",
        "name:rw": "Noruveje",
        "name:sa": "नार्वे",
        "name:sah": "Норвегия",
        "name:sc": "Norvegia",
        "name:scn": "Norveggia",
        "name:sco": "Norawa",
        "name:se": "Norga",
        "name:sh": "Norveška",
        "name:simple": "Norway",
        "name:sk": "Nórsko",
        "name:sl": "Norveška",
        "name:sme": "Norga",
        "name:so": "Norway",
        "name:sq": "Norvegjia",
        "name:sr": "Норвешка",
        "name:ss": "INoweyi",
        "name:stq": "Norwegen",
        "name:su": "Norwégia",
        "name:sv": "Norge",
        "name:sw": "Norwei",
        "name:szl": "Norwygijo",
        "name:ta": "நோர்வே",
        "name:te": "నార్వే",
        "name:tet": "Noruega",
        "name:tg": "Норвегия",
        "name:th": "ประเทศนอร์เวย์",
        "name:tk": "Norwegiýa",
        "name:tl": "Noruwega",
        "name:tpi": "Nowe",
        "name:tr": "Norveç",
        "name:ts": "Norge",
        "name:tt": "Норвегия",
        "name:tzl": "Norvexhà",
        "name:udm": "Норвегия",
        "name:ug": "نورۋېگىيە",
        "name:uk": "Норвегія",
        "name:ur": "ناروے",
        "name:uz": "Norvegiya",
        "name:vec": "Norveja",
        "name:vep": "Norvegii",
        "name:vi": "Na Uy",
        "name:vls": "Nôorweegn",
        "name:vo": "Norgän",
        "name:wa": "Norvedje",
        "name:war": "Noruega",
        "name:wo": "Noorwees",
        "name:wuu": "挪威",
        "name:xal": "Ноорскгин Нутг",
        "name:xmf": "ნორვეგია",
        "name:yi": "נארוועגיע",
        "name:yo": "Nọ́rwèy",
        "name:yue": "挪威",
        "name:za": "Nozveih",
        "name:zea": "Noorwegen",
        "name:zh": "挪威",
        "name:zu": "INoki",
        "note": "This relation represents only the continental part of Norway, excluding islands such as Svalbard and Jan Mayen. Another relation represents the whole of Norway. So do not tag this relation with an ISO 3166-1 code or an admin_level place=country.",
        "timezone": "Europe/Oslo",
        "type": "boundary",
        "wikidata": "Q20",
        "wikipedia": "no:Norge",
        "@geometry": "center"
      },
      "geometry": {
        "type": "Point",
        "coordinates": [
          17.9245092,
          64.5719419
        ]
      },
      "id": "relation/1059668"
    },
    {
      "type": "Feature",
      "properties": {
        "@id": "relation/1558556",
        "ISO3166-1": "NU",
        "ISO3166-1:alpha2": "NU",
        "ISO3166-1:alpha3": "NIU",
        "ISO3166-1:numeric": "570",
        "addr:country": "NU",
        "admin_level": "2",
        "boundary": "administrative",
        "flag": "http://upload.wikimedia.org/wikipedia/commons/0/01/Flag_of_Niue.svg",
        "is_in:continent": "Oceania",
        "name": "Niuē",
        "name:ar": "نييوي",
        "name:be": "Ніуэ",
        "name:bg": "Ниуе",
        "name:cs": "Niue",
        "name:de": "Niue",
        "name:dv": "ނީއު",
        "name:el": "Νιούε",
        "name:en": "Niue",
        "name:eo": "Niuo",
        "name:es": "Niue",
        "name:fa": "نیووی",
        "name:fr": "Niue",
        "name:he": "ניואה",
        "name:hr": "Niue",
        "name:ja": "ニウエ",
        "name:ka": "ნიუე",
        "name:kk": "Ниуе",
        "name:ko": "니우에",
        "name:ku": "Niûe",
        "name:lt": "Niujė",
        "name:mk": "Ниуе",
        "name:ml": "നിയുവെ",
        "name:mr": "न्युए",
        "name:os": "Ниуэ",
        "name:ru": "Ниуэ",
        "name:rw": "Niyuwe",
        "name:sk": "Niue",
        "name:sr": "Нијуе",
        "name:ta": "நியுவே",
        "name:th": "นีอูเอ",
        "name:ug": "Niué Arili",
        "name:uk": "Ніуе",
        "name:ur": "نیووے",
        "name:wo": "Niwe",
        "name:zh": "紐埃",
        "timezone": "Pacific/Niue",
        "type": "boundary",
        "wikidata": "Q34020",
        "wikipedia": "en:Niue",
        "@geometry": "center"
      },
      "geometry": {
        "type": "Point",
        "coordinates": [
          -169.8621129,
          -19.0541612
        ]
      },
      "id": "relation/1558556"
    },
    {
      "type": "Feature",
      "properties": {
        "@id": "relation/2108121",
        "ISO3166-1": "MY",
        "ISO3166-1:alpha2": "MY",
        "ISO3166-1:alpha3": "MYS",
        "ISO3166-1:numeric": "458",
        "admin_level": "2",
        "border_type": "nation",
        "boundary": "administrative",
        "flag": "http://upload.wikimedia.org/wikipedia/commons/6/66/Flag_of_Malaysia.svg",
        "is_in:continent": "Asia",
        "name": "Malaysia",
        "name:af": "Maleisië",
        "name:als": "Malaysia",
        "name:am": "ማሌዢያ",
        "name:an": "Malaisia",
        "name:ar": "ماليزيا",
        "name:arz": "ماليزيا",
        "name:ast": "Malasia",
        "name:az": "Malayziya",
        "name:ba": "Малайзия",
        "name:bar": "Malaysia",
        "name:bat-smg": "Malaizėjė",
        "name:bcl": "Malasya",
        "name:be": "Малайзія",
        "name:be-tarask": "Малайзія",
        "name:bg": "Малайзия",
        "name:bjn": "Malaysia",
        "name:bn": "মালয়েশিয়া",
        "name:bo": "མ་ལ་ཤི་ཡ།",
        "name:bpy": "মালয়েশিয়া",
        "name:br": "Malaysia",
        "name:bs": "Malezija",
        "name:bug": "Malaysia",
        "name:bxr": "Малайзи",
        "name:ca": "Malàisia",
        "name:cbk-zam": "Malasia",
        "name:cdo": "Mā-lài-să̤-ā",
        "name:ce": "Малайзи",
        "name:ceb": "Malasya",
        "name:ckb": "مالیزیا",
        "name:crh": "Malayziya",
        "name:cs": "Malajsie",
        "name:csb": "Malezjô",
        "name:cv": "Малайзи",
        "name:cy": "Malaysia",
        "name:da": "Malaysia",
        "name:de": "Malaysia",
        "name:diq": "Malêzya",
        "name:dsb": "Malayzija",
        "name:dv": "މެލޭޝިޔާ",
        "name:dz": "མ་ལེ་ཤི་ཡ་",
        "name:el": "Μαλαισία",
        "name:en": "Malaysia",
        "name:eo": "Malajzio",
        "name:es": "Malasia",
        "name:et": "Malaisia",
        "name:eu": "Malaysia",
        "name:ext": "Malásia",
        "name:fa": "مالزی",
        "name:fi": "Malesia",
        "name:fiu-vro": "Malaisia",
        "name:fo": "Maleisia",
        "name:fr": "Malaisie",
        "name:frp": "Malèsie",
        "name:fy": "Maleizje",
        "name:ga": "An Mhalaeisia",
        "name:gag": "Malayziya",
        "name:gan": "馬來西亞",
        "name:gd": "Malaidhsia",
        "name:gl": "Malaisia",
        "name:gu": "મલેશિયા",
        "name:gv": "Yn Valaysia",
        "name:hak": "Mâ-lòi-sî-â",
        "name:haw": "Malaisia",
        "name:he": "מלזיה",
        "name:hi": "मलेशिया",
        "name:hif": "Malaysia",
        "name:hr": "Malezija",
        "name:hsb": "Malajzija",
        "name:ht": "Malezi",
        "name:hu": "Malajzia",
        "name:hy": "Մալազիա",
        "name:ia": "Malaysia",
        "name:id": "Malaysia",
        "name:ie": "Malaysia",
        "name:ilo": "Malaysia",
        "name:io": "Malaizia",
        "name:is": "Malasía",
        "name:it": "Malesia",
        "name:ja": "マレーシア",
        "name:jbo": "mejgu'e",
        "name:jv": "Malaysia",
        "name:ka": "მალაიზია",
        "name:kbd": "Мэлайзиэ",
        "name:ki": "Malaysia",
        "name:kk": "Малайзия",
        "name:km": "ម៉ាឡេស៊ី",
        "name:kn": "ಮಲೇಶಿಯ",
        "name:ko": "말레이시아",
        "name:ku": "Malezya",
        "name:kv": "Малайзия",
        "name:kw": "Malaysi",
        "name:ky": "Малайзия",
        "name:la": "Malaesia",
        "name:lb": "Malaysia",
        "name:li": "Maleisië",
        "name:lij": "Malaysia",
        "name:lmo": "Malaysia",
        "name:lo": "ປະເທດມາເລເຊຍ",
        "name:lt": "Malaizija",
        "name:lv": "Malaizija",
        "name:map-bms": "Malaysia",
        "name:mhr": "Малайзий",
        "name:mi": "Marēhia",
        "name:min": "Malaysia",
        "name:mk": "Малезија",
        "name:ml": "മലേഷ്യ",
        "name:mn": "Малайз",
        "name:mr": "मलेशिया",
        "name:ms": "Malaysia",
        "name:mt": "Malażja",
        "name:my": "မလေးရှားနိုင်ငံ",
        "name:na": "Maraidja",
        "name:nah": "Malasia",
        "name:nds": "Malaysia",
        "name:ne": "मलेशिया",
        "name:new": "मलेसिया",
        "name:nl": "Maleisië",
        "name:nn": "Malaysia",
        "name:no": "Malaysia",
        "name:nov": "Malaysia",
        "name:nv": "Maléízha",
        "name:oc": "Malàisia",
        "name:or": "ମାଲେସିଆ",
        "name:os": "Малайзи",
        "name:pa": "ਮਲੇਸ਼ੀਆ",
        "name:pag": "Malasia",
        "name:pam": "Malasya",
        "name:pap": "Malaysia",
        "name:pih": "Melasya",
        "name:pl": "Malezja",
        "name:pms": "Malaysia",
        "name:pnb": "ملائشیا",
        "name:pt": "Malásia",
        "name:qu": "Malasya",
        "name:ro": "Malaezia",
        "name:ru": "Малайзия",
        "name:rw": "Malesiya",
        "name:sa": "मलयेशिया",
        "name:sah": "Малайзия",
        "name:scn": "Malesia",
        "name:sco": "Malaysie",
        "name:se": "Malesia",
        "name:sg": "Malezïi",
        "name:sh": "Malezija",
        "name:simple": "Malaysia",
        "name:sk": "Malajzia",
        "name:sl": "Malezija",
        "name:so": "Malaysiya",
        "name:sq": "Malajzia",
        "name:sr": "Малезија",
        "name:ss": "IMaleshiya",
        "name:su": "Malaysia",
        "name:sv": "Malaysia",
        "name:sw": "Malaysia",
        "name:szl": "Malezyjo",
        "name:ta": "மலேசியா",
        "name:te": "మలేషియా",
        "name:tet": "Malázia",
        "name:tg": "Малайзия",
        "name:th": "ประเทศมาเลเซีย",
        "name:tk": "Malaýziýa",
        "name:tl": "Malasya",
        "name:tr": "Malezya",
        "name:tt": "Малайзия",
        "name:tw": "Malaysia",
        "name:tzl": "Malaiçía",
        "name:udm": "Малайзия",
        "name:ug": "مالايسىيا",
        "name:uk": "Малайзія",
        "name:ur": "ملائیشیا",
        "name:uz": "Malayziya",
        "name:vi": "Malaysia",
        "name:vo": "Malaysiyän",
        "name:war": "Malaysia",
        "name:wo": "Maleesi",
        "name:wuu": "马来西亚",
        "name:xal": "Малаймудин Орн",
        "name:yi": "מאלייזיע",
        "name:yo": "Malaysia",
        "name:za": "Majlaizsihya",
        "name:zh": "马来西亚",
        "name:zh-classical": "馬來西亞",
        "name:zh-hant": "馬來西亞",
        "name:zh-min-nan": "Má-lâi-se-a",
        "name:zh-yue": "馬來西亞",
        "note": "Please connect Malaysia with W. P in KL then connect W.P to Labuan, Putrajaya and KL",
        "type": "boundary",
        "wikidata": "Q833",
        "wikipedia": "en:Malaysia",
        "@geometry": "center"
      },
      "geometry": {
        "type": "Point",
        "coordinates": [
          109.188151,
          4.1825099
        ]
      },
      "id": "relation/2108121"
    },
    {
      "type": "Feature",
      "properties": {
        "@id": "relation/2386068",
        "ISO3166-1": "NF",
        "ISO3166-1:alpha2": "NF",
        "ISO3166-1:alpha3": "NFK",
        "ISO3166-1:numeric": "574",
        "ISO3166-2": "NF",
        "Schalansky_ref": "86",
        "name": "Norfolk Island",
        "name:cs": "Norfolk",
        "name:fr": "Île Norfolk",
        "place": "island",
        "type": "multipolygon",
        "wikidata": "Q31057",
        "wikipedia": "en:Norfolk Island",
        "@geometry": "center"
      },
      "geometry": {
        "type": "Point",
        "coordinates": [
          167.9556525,
          -29.0289934
        ]
      },
      "id": "relation/2386068"
    },
    {
      "type": "Feature",
      "properties": {
        "@id": "relation/3407643",
        "ISO3166-1": "NC",
        "ISO3166-1:alpha2": "NC",
        "ISO3166-1:alpha3": "NCL",
        "ISO3166-1:numeric": "540",
        "ISO3166-2": "FR-NC",
        "admin_level": "3",
        "border_type": "territorial",
        "boundary": "administrative",
        "currency": "XPF",
        "description": "France, territoires régis par les articles 76 et 77 de la Constitution",
        "flag": "http://upload.wikimedia.org/wikipedia/commons/2/23/Flag_of_New_Caledonia.svg",
        "int_name": "New Caledonia",
        "is_in:continent": "Oceania",
        "is_in:country": "France",
        "is_in:country_code": "FR",
        "is_in:ocean": "Pacific",
        "name": "Nouvelle-Calédonie",
        "name:af": "Nieu-Caledonia",
        "name:ak": "Kaledonia Foforo",
        "name:am": "ኒው ካሌዶኒያ",
        "name:ar": "كاليدونيا الجديدة",
        "name:ast": "Nueva Caledonia",
        "name:az": "Yeni Kaledoniya",
        "name:be": "Новая Каледонія",
        "name:bg": "Нова Каледония",
        "name:bm": "Kaledoni Koura",
        "name:bn": "নিউ ক্যালেডোনিয়া",
        "name:br": "Kaledonia Nevez",
        "name:bs": "Nova Kaledonija",
        "name:ca": "Nova Caledònia",
        "name:chr": "ᎢᏤ ᎧᎵᏙᏂᎠᏂ",
        "name:cs": "Nová Kaledonie",
        "name:cy": "Caledonia Newydd",
        "name:da": "Ny Kaledonien",
        "name:de": "Neukaledonien",
        "name:dz": "ནིའུ་ཀ་ལི་དོ་ནི་ཡ",
        "name:ee": "New Kaledonia nutome",
        "name:el": "Νέα Καληδονία",
        "name:en": "New Caledonia",
        "name:eo": "Nov-Kaledonio",
        "name:es": "Nueva Caledonia",
        "name:et": "Uus-Kaledoonia",
        "name:eu": "Kaledonia Berria",
        "name:fa": "کالدونیای جدید",
        "name:ff": "Nuwel Kaledonii",
        "name:fi": "Uusi-Kaledonia",
        "name:fo": "Ný-Kaledonia",
        "name:fr": "Nouvelle-Calédonie",
        "name:fur": "Gnove Caledonie",
        "name:ga": "An Nua-Chaladóin",
        "name:gd": "Cailleann Nuadh",
        "name:gl": "Nova Caledonia",
        "name:gu": "ન્યુ સેલેડોનિયા",
        "name:ha": "Kaledoniya Sabuwa",
        "name:he": "קלדוניה החדשה",
        "name:hi": "न्यू कैलेडोनिया",
        "name:hr": "Nova Kaledonija",
        "name:hu": "Új-Kaledónia",
        "name:ia": "Nove Caledonia",
        "name:id": "Kaledonia Baru",
        "name:is": "Nýja-Kaledónía",
        "name:it": "Nuova Caledonia",
        "name:ja": "ニューカレドニア",
        "name:ka": "ახალი კალედონია",
        "name:kab": "Kalidunya Tamaynut",
        "name:ki": "Nyukaledonia",
        "name:kl": "Nutaaq Caledonia",
        "name:km": "ញូកាឡេដូនៀ",
        "name:kn": "ನ್ಯೂ ಕ್ಯಾಲಿಡೋನಿಯಾ",
        "name:ko": "뉴 칼레도니아",
        "name:ks": "نِو کیلِڑونِیا",
        "name:ksh": "Neuschottland",
        "name:ku": "Kaledonyaya Nû",
        "name:la": "Nova Caledonia",
        "name:lg": "Kaledonya mupya",
        "name:ln": "Kaledoni ya sika",
        "name:lo": "ນິວຄາລິໂດເນຍ",
        "name:lt": "Naujoji Kaledonija",
        "name:lv": "Jaunkaledonija",
        "name:mk": "Нова Каледонија",
        "name:ml": "പുതിയ കാലിഡോണിയ",
        "name:mn": "Шинэ Каледони",
        "name:mr": "न्यू कॅलेडोनिया",
        "name:ms": "New Caledonia",
        "name:mt": "New Caledonia",
        "name:my": "နယူး ကယ်လီဒိုနီးယား",
        "name:ne": "नयाँ कालेडोनिया",
        "name:nl": "Nieuw-Caledonië",
        "name:nn": "Ny-Caledonia",
        "name:no": "Ny-Caledonia",
        "name:or": "ନୂତନ କାଲେଡୋନିଆ",
        "name:pl": "Nowa Kaledonia",
        "name:pt": "Nova Caledônia",
        "name:rm": "Nova Caledonia",
        "name:rn": "Niyukaledoniya",
        "name:ro": "Noua Caledonie",
        "name:ru": "Новая Каледония",
        "name:se": "Ođđa-Kaledonia",
        "name:sg": "Finî Kaledonïi",
        "name:si": "නව කැලිඩෝනියාව",
        "name:sk": "Nová Kaledónia",
        "name:sl": "Nova Kaledonija",
        "name:sn": "New Caledonia",
        "name:so": "New Caledonia",
        "name:sr": "Нова Каледонија",
        "name:sv": "Nya Kaledonien",
        "name:sw": "Nyukaledonia",
        "name:ta": "நியூ கேலிடோனியா",
        "name:te": "క్రొత్త కాలెడోనియా",
        "name:th": "นิวแคลิโดเนีย",
        "name:ti": "ኒው ካሌዶኒያ",
        "name:to": "Niu Kaletōnia",
        "name:tr": "Yeni Kaledonya",
        "name:uk": "Нова Каледонія",
        "name:ur": "نیو کلیڈونیا",
        "name:vi": "Tân Đảo",
        "name:yo": "Orílẹ́ède Kaledonia Titun",
        "name:zh": "新喀里多尼亚",
        "name:zu": "i-New Caledonia",
        "population": "245580",
        "ref:INSEE": "988",
        "timezone": "Pacific/Noumea",
        "type": "boundary",
        "wikidata": "Q33788",
        "wikipedia": "fr:Nouvelle-Calédonie",
        "@geometry": "center"
      },
      "geometry": {
        "type": "Point",
        "coordinates": [
          165.1452347,
          -20.4543063
        ]
      },
      "id": "relation/3407643"
    }
  ]
}