{
  "type": "FeatureCollection",
  "generator": "overpass-ide",
  "copyright": "The data included in this document is from www.openstreetmap.org. The data is made available under ODbL.",
  "timestamp": "2017-12-10T20:29:03Z",
  "features": [
    {
      "type": "Feature",
      "properties": {
        "@id": "relation/49715",
        "ISO3166-1": "PL",
        "ISO3166-1:alpha2": "PL",
        "ISO3166-1:alpha3": "POL",
        "ISO3166-1:numeric": "616",
        "TMC:cid_58:tabcd_1:Class": "Area",
        "TMC:cid_58:tabcd_1:LCLversion": "8.00",
        "TMC:cid_58:tabcd_1:LocationCode": "8",
        "admin_level": "2",
        "alt_name:eo": "Pollando;Polio",
        "boundary": "administrative",
        "currency": "PLN",
        "flag": "http://upload.wikimedia.org/wikipedia/commons/1/12/Flag_of_Poland.svg",
        "int_name": "Polska",
        "is_in:continent": "Europe",
        "name": "Polska",
        "name:ab": "Полша",
        "name:ace": "Polandia",
        "name:af": "Pole",
        "name:ak": "Poland",
        "name:als": "Polen",
        "name:am": "ፖላንድ",
        "name:an": "Polonia",
        "name:ang": "Polaland",
        "name:ar": "بولندا",
        "name:arc": "ܦܘܠܢܕ",
        "name:arz": "بولاندا",
        "name:ast": "Polonia",
        "name:ay": "Puluña",
        "name:az": "Polşa",
        "name:ba": "Польша",
        "name:bar": "Poin",
        "name:bat-smg": "Lėnkėjė",
        "name:bcl": "Polonya",
        "name:be": "Польшча",
        "name:be-tarask": "Польшча",
        "name:bg": "Полша",
        "name:bi": "Poland",
        "name:bn": "পোল্যান্ড",
        "name:bo": "ཕོ་ལན།",
        "name:bpy": "পোল্যান্ড",
        "name:br": "Polonia",
        "name:bs": "Poljska",
        "name:bxr": "Польш",
        "name:ca": "Polònia",
        "name:cdo": "Pŏ̤-làng",
        "name:ce": "Польша",
        "name:ceb": "Polonya",
        "name:chr": "ᏉᎳᏂ",
        "name:chy": "Poland",
        "name:ckb": "پۆڵەندا",
        "name:co": "Polonia",
        "name:crh": "Lehistan",
        "name:cs": "Polsko",
        "name:csb": "Pòlskô",
        "name:cu": "Пол҄ьска",
        "name:cv": "Польша",
        "name:cy": "Gwlad Pwyl",
        "name:da": "Polen",
        "name:dative": "Polsce",
        "name:de": "Polen",
        "name:diq": "Polonya",
        "name:dsb": "Pólska",
        "name:dv": "ޕޮލެންޑު",
        "name:ee": "Poland",
        "name:el": "Πολωνία",
        "name:eml": "Pulógna",
        "name:en": "Poland",
        "name:eo": "Polujo",
        "name:es": "Polonia",
        "name:et": "Poola",
        "name:eu": "Polonia",
        "name:ext": "Poloña",
        "name:fa": "لهستان",
        "name:ff": "Poloonya",
        "name:fi": "Puola",
        "name:fiu-vro": "Poola",
        "name:fo": "Pólland",
        "name:fr": "Pologne",
        "name:frp": "Pologne",
        "name:frr": "Poolen",
        "name:fur": "Polonie",
        "name:fy": "Poalen",
        "name:ga": "An Pholainn",
        "name:gag": "Polşa",
        "name:gan": "波蘭",
        "name:gd": "A' Phòlainn",
        "name:gl": "Polonia",
        "name:gn": "Poloña",
        "name:gu": "પોલેંડ",
        "name:gv": "Yn Pholynn",
        "name:ha": "Poland",
        "name:hak": "Pô-làn",
        "name:haw": "Pōlani",
        "name:he": "פולין",
        "name:hi": "पोलैंड",
        "name:hif": "Poland",
        "name:hr": "Poljska",
        "name:hsb": "Pólska",
        "name:ht": "Polòy",
        "name:hu": "Lengyelország",
        "name:hy": "Լեհաստան",
        "name:ia": "Polonia",
        "name:id": "Polandia",
        "name:ie": "Polonia",
        "name:ig": "Poland",
        "name:ilo": "Polonia",
        "name:io": "Polonia",
        "name:is": "Pólland",
        "name:it": "Polonia",
        "name:iu": "ᐳᓚᓐᑦ",
        "name:ja": "ポーランド",
        "name:jbo": "polskas",
        "name:jv": "Polandia",
        "name:ka": "პოლონეთი",
        "name:kaa": "Polsha",
        "name:kbd": "Лахь жылэ",
        "name:kg": "Pologne",
        "name:kk": "Польша",
        "name:kl": "Poleni",
        "name:km": "ប្រទេសប៉ូឡូញ",
        "name:kn": "ಪೋಲೆಂಡ್",
        "name:ko": "폴란드",
        "name:koi": "Польска",
        "name:krc": "Польша",
        "name:ku": "Polonya",
        "name:kv": "Польша",
        "name:kw": "Poloni",
        "name:ky": "Польша",
        "name:la": "Polonia",
        "name:lad": "Polonia",
        "name:lb": "Polen",
        "name:lez": "Польша",
        "name:lg": "Bupoolo",
        "name:li": "Pole",
        "name:lij": "Polonia",
        "name:lmo": "Pulònia",
        "name:ln": "Poloni",
        "name:lt": "Lenkija",
        "name:ltg": "Puoleja",
        "name:lv": "Polija",
        "name:map-bms": "Polandia",
        "name:mdf": "Полень мастор",
        "name:mg": "Polonia",
        "name:mhr": "Польшо",
        "name:mi": "Pōrana",
        "name:mk": "Полска",
        "name:ml": "പോളണ്ട്",
        "name:mn": "Польш",
        "name:mr": "पोलंड",
        "name:mrj": "Польша",
        "name:ms": "Poland",
        "name:mt": "Polonja",
        "name:mwl": "Polónia",
        "name:my": "ပိုလန်နိုင်ငံ",
        "name:mzn": "لهستون",
        "name:na": "Poran",
        "name:nah": "Polonia",
        "name:nap": "Pulonnia",
        "name:nds": "Polen",
        "name:nds-nl": "Pooln",
        "name:ne": "पोल्याण्ड",
        "name:nl": "Polen",
        "name:nn": "Polen",
        "name:no": "Polen",
        "name:nov": "Polonia",
        "name:nrm": "Polongne",
        "name:nv": "Póolish Dineʼé Bikéyah",
        "name:oc": "Polonha",
        "name:or": "ପୋଲାଣ୍ଡ",
        "name:os": "Польшæ",
        "name:pa": "ਪੋਲੈਂਡ",
        "name:pam": "Polonya",
        "name:pap": "Polonia",
        "name:pcd": "Polonne",
        "name:pdc": "Polen",
        "name:pfl": "Pole",
        "name:pih": "Poeland",
        "name:pl": "Polska",
        "name:pms": "Polònia",
        "name:pnb": "پولینڈ",
        "name:pnt": "Πολωνία",
        "name:ps": "پولنډ",
        "name:pt": "Polónia",
        "name:qu": "Pulunya",
        "name:rm": "Pologna",
        "name:rmy": "Polska",
        "name:rn": "Polonia",
        "name:ro": "Polonia",
        "name:roa-tara": "Pulonie",
        "name:ru": "Польша",
        "name:rue": "Польско",
        "name:rw": "Polonye",
        "name:sa": "पोलैंड",
        "name:sah": "Польша",
        "name:sc": "Polonia",
        "name:scn": "Pulonia",
        "name:sco": "Poland",
        "name:se": "Polska",
        "name:sg": "Pölôni",
        "name:sh": "Poljska",
        "name:si": "පෝලන්තය",
        "name:sk": "Poľsko",
        "name:sl": "Poljska",
        "name:sm": "Polagi",
        "name:so": "Boland",
        "name:sq": "Polonia",
        "name:sr": "Пољска",
        "name:ss": "IPholandi",
        "name:st": "Poland",
        "name:stq": "Polen",
        "name:su": "Polandia",
        "name:sv": "Polen",
        "name:sw": "Poland",
        "name:szl": "Polsko",
        "name:ta": "போலந்து",
        "name:te": "పోలాండ్",
        "name:tet": "Polónia",
        "name:tg": "Лаҳистон",
        "name:th": "ประเทศโปแลนด์",
        "name:tk": "Polşa",
        "name:tl": "Polonya",
        "name:tok": "ma Posuka",
        "name:tpi": "Polan",
        "name:tr": "Polonya",
        "name:tt": "Польша",
        "name:tzl": "Polognh",
        "name:udm": "Польша",
        "name:ug": "پولشا",
        "name:uk": "Польща",
        "name:ur": "پولینڈ",
        "name:uz": "Polsha",
        "name:vec": "Połonia",
        "name:vep": "Pol'šanma",
        "name:vi": "Ba Lan",
        "name:vls": "Pooln",
        "name:vo": "Polän",
        "name:wa": "Pologne",
        "name:war": "Polonya",
        "name:wo": "Poloñ",
        "name:wuu": "波兰",
        "name:xal": "Польшин Орн",
        "name:xmf": "პოლონეთი",
        "name:yi": "פוילן",
        "name:yo": "Polandi",
        "name:zea": "Poôl'n",
        "name:zh": "波兰",
        "name:zh-classical": "波蘭",
        "name:zh-min-nan": "Polska",
        "name:zh-yue": "波蘭",
        "name:zu": "IPolandi",
        "official_name": "Rzeczpospolita Polska",
        "official_name:be": "Рэспубліка Польшча",
        "official_name:be-tarask": "Рэспубліка Польшча",
        "official_name:cs": "Polská republika",
        "official_name:el": "Δημοκρατία της Πολωνίας",
        "official_name:en": "Republic of Poland",
        "official_name:eo": "Pola Respubliko",
        "official_name:fi": "Puolan tasavalta",
        "official_name:ru": "Республика Польша",
        "official_name:sr": "Република Пољска",
        "short_name": "RP",
        "teryt:terc": "1",
        "timezone": "Europe/Warsaw",
        "type": "boundary",
        "wikidata": "Q36",
        "wikipedia": "pl:Polska",
        "@geometry": "center"
      },
      "geometry": {
        "type": "Point",
        "coordinates": [
          19.1343769,
          52.0178715
        ]
      },
      "id": "relation/49715"
    },
    {
      "type": "Feature",
      "properties": {
        "@id": "relation/77601",
        "ISO3166-1": "RE",
        "ISO3166-1:alpha2": "RE",
        "ISO3166-1:alpha3": "REU",
        "ISO3166-1:numeric": "638",
        "ISO3166-2": "FR-RE",
        "admin_level": "6",
        "boundary": "administrative",
        "name": "La Réunion",
        "name:af": "Réunion",
        "name:ak": "Reyuniɔn",
        "name:am": "ሪዩኒየን",
        "name:ar": "ريونيون",
        "name:ast": "Reunión",
        "name:az": "Reyunion",
        "name:be": "Руньён",
        "name:bg": "Реюниън",
        "name:bm": "Reyuɲɔŋ",
        "name:bn": "রিইউনিয়ন",
        "name:br": "Enez ar Reunion",
        "name:bs": "Rejunion",
        "name:ca": "Illa de la Reunió",
        "name:cs": "Réunion",
        "name:cy": "Réunion",
        "name:da": "Reunion",
        "name:de": "Réunion",
        "name:dv": "ރިޔޫނިއަން",
        "name:dz": "རེ་ཡུ་ནི་ཡོན",
        "name:ee": "Réunion nutome",
        "name:el": "Ρεϊνιόν",
        "name:en": "Réunion",
        "name:eo": "Reunio",
        "name:es": "La Reunión",
        "name:et": "Réunion",
        "name:eu": "Reunion",
        "name:fa": "رئونیون",
        "name:ff": "Rewiñoo",
        "name:fi": "Réunion",
        "name:fo": "Réunion",
        "name:fr": "La Réunion",
        "name:fur": "Reunion",
        "name:ga": "Réunion",
        "name:gd": "Réunion",
        "name:gl": "Reunión",
        "name:gu": "રીયુનિયન",
        "name:ha": "Rawuniyan",
        "name:he": "ראוניון",
        "name:hi": "रियूनियन",
        "name:hr": "Reunion",
        "name:hu": "Réunion",
        "name:hy": "Ռեյունյոն",
        "name:ia": "Reunion",
        "name:id": "Réunion",
        "name:io": "Reunion",
        "name:is": "Réunion",
        "name:it": "Riunione",
        "name:ja": "レユニオン島",
        "name:jv": "Réunion",
        "name:ka": "რეიუნიონი",
        "name:kab": "Timlilit",
        "name:ki": "Riyunioni",
        "name:kk": "Реюньон",
        "name:kl": "Réunion",
        "name:km": "រ៉េអ៊ុយ៉ុង",
        "name:kn": "ರೀಯೂನಿಯನ್",
        "name:ko": "리유니온",
        "name:ks": "رِیوٗنِیَن",
        "name:ksh": "Rehunjohn",
        "name:ku": "Réunion",
        "name:kw": "Réunion",
        "name:la": "Reunio",
        "name:lb": "Departement La Réunion",
        "name:lg": "Leyunyoni",
        "name:ln": "Lenyo",
        "name:lo": "ເຣອູນິຍົງ",
        "name:lt": "Reunionas",
        "name:lv": "Reinjona",
        "name:mg": "Larenion",
        "name:mk": "Ријунион",
        "name:ml": "റീയൂണിയൻ",
        "name:mn": "Реюньон",
        "name:mr": "रियूनियन",
        "name:ms": "Réunion",
        "name:mt": "Réunion",
        "name:ne": "रियुनियन",
        "name:nl": "Réunion",
        "name:nn": "Réunion",
        "name:no": "Réunion",
        "name:oc": "Reünion",
        "name:or": "ରିୟୁନିଅନ୍",
        "name:os": "Реюньон",
        "name:pa": "ਰੇਊਨੀਓਂ",
        "name:pl": "Reunion",
        "name:pt": "Reunião",
        "name:qu": "Riyunyun",
        "name:rm": "Réunion",
        "name:rn": "Amazinga ya Reyiniyo",
        "name:ro": "Reunion",
        "name:ru": "Реюньон",
        "name:rw": "Reyiniyo",
        "name:se": "Réunion",
        "name:sg": "Reinïon",
        "name:si": "රීයුනියන්",
        "name:sk": "Reunion",
        "name:sl": "Reunion",
        "name:sn": "Réunion",
        "name:so": "Réunion",
        "name:sr": "Реинион",
        "name:su": "Réunion",
        "name:sv": "Réunion",
        "name:sw": "Riyunioni",
        "name:ta": "ரீயூனியன்",
        "name:te": "రియూనియన్",
        "name:th": "เรอูนียง",
        "name:ti": "ሪዩኒየን",
        "name:tl": "Réunion",
        "name:to": "Liʻiunioni",
        "name:tr": "Réunion",
        "name:uk": "Реюньйон",
        "name:ur": "ری یونین",
        "name:vi": "Réunion",
        "name:wa": "Iye del Reyunion",
        "name:wo": "Reiñõo",
        "name:yo": "Orílẹ́ède Riuniyan",
        "name:zh": "留尼汪",
        "name:zh_pinyin": "Liúníwāng",
        "name:zu": "i-Réunion",
        "note": "Cette relation représente le département français \"La Réunion\"",
        "ref": "974",
        "ref:INSEE": "974",
        "ref:NUTS": "FR940",
        "type": "boundary",
        "wikidata": "Q17070",
        "wikipedia": "fr:La Réunion",
        "@geometry": "center"
      },
      "geometry": {
        "type": "Point",
        "coordinates": [
          55.5265596,
          -21.1307222
        ]
      },
      "id": "relation/77601"
    },
    {
      "type": "Feature",
      "properties": {
        "@id": "relation/90689",
        "ISO3166-1": "RO",
        "ISO3166-1:alpha2": "RO",
        "ISO3166-1:alpha3": "ROU",
        "ISO3166-1:numeric": "642",
        "admin_level": "2",
        "alt_name:eo": "Rumanio",
        "boundary": "administrative",
        "flag": "http://upload.wikimedia.org/wikipedia/commons/7/73/Flag_of_Romania.svg",
        "int_name": "Romania",
        "is_in:continent": "Europe",
        "name": "România",
        "name:ace": "Rumania",
        "name:af": "Roemenië",
        "name:als": "Rumänien",
        "name:am": "ሮማንያ",
        "name:an": "Rumanía",
        "name:ang": "Rumǣnia",
        "name:ar": "رومانيا",
        "name:arc": "ܪܘܡܢܝܐ",
        "name:arz": "رومانيا",
        "name:ast": "Rumanía",
        "name:ay": "Rumanya",
        "name:az": "Rumıniya",
        "name:ba": "Румыния",
        "name:bar": "Rumänien",
        "name:bat-smg": "Romunėjė",
        "name:bcl": "Romanya",
        "name:be": "Румынія",
        "name:be-tarask": "Румынія",
        "name:bg": "Румъния",
        "name:bi": "Romania",
        "name:bn": "রোমানিয়া",
        "name:bo": "རོ་མ་ནི་ཡ།",
        "name:bpy": "রোমানিয়া",
        "name:br": "Roumania",
        "name:bs": "Rumunija",
        "name:bxr": "Румын",
        "name:ca": "Romania",
        "name:cbk-zam": "Rumanía",
        "name:cdo": "Lò̤-mā-nà̤-ā",
        "name:ce": "Румыни",
        "name:ceb": "Rumanya",
        "name:chr": "ᎶᎹᏂᏯ",
        "name:ckb": "ڕۆمانیا",
        "name:co": "Romania",
        "name:crh": "Romaniya",
        "name:cs": "Rumunsko",
        "name:csb": "Rumùńskô",
        "name:cu": "Роумꙑнїꙗ",
        "name:cv": "Румыни",
        "name:cy": "Rwmania",
        "name:da": "Rumænien",
        "name:de": "Rumänien",
        "name:diq": "Romanya",
        "name:dsb": "Rumuńska",
        "name:dv": "ރުމޭނިއާ",
        "name:ee": "Romania",
        "name:el": "Ρουμανία",
        "name:eml": "Rumanî",
        "name:en": "Romania",
        "name:eo": "Rumanujo",
        "name:es": "Rumanía",
        "name:et": "Rumeenia",
        "name:eu": "Errumania",
        "name:ext": "Rumania",
        "name:fa": "رومانی",
        "name:fi": "Romania",
        "name:fiu-vro": "Rumeeniä",
        "name:fo": "Rumenia",
        "name:fr": "Roumanie",
        "name:frp": "Roumanie",
        "name:frr": "Rumänien",
        "name:fur": "Romanie",
        "name:fy": "Roemeenje",
        "name:ga": "An Rómáin",
        "name:gag": "Romıniya",
        "name:gd": "Romàinia",
        "name:gl": "Romanía",
        "name:gn": "Rrumaña",
        "name:gu": "રોમાનિયા",
        "name:gv": "Yn Romaan",
        "name:hak": "Lò-mâ-nì-â",
        "name:haw": "Romānia",
        "name:he": "רומניה",
        "name:hi": "रोमानिया",
        "name:hif": "Romania",
        "name:hr": "Rumunjska",
        "name:hsb": "Rumunska",
        "name:ht": "Woumani",
        "name:hu": "Románia",
        "name:hy": "Ռումինիա",
        "name:ia": "Romania",
        "name:id": "Rumania",
        "name:ie": "Rumania",
        "name:ilo": "Romania",
        "name:io": "Rumania",
        "name:is": "Rúmenía",
        "name:it": "Romania",
        "name:ja": "ルーマニア",
        "name:jbo": "romanias",
        "name:jv": "Rumania",
        "name:ka": "რუმინეთი",
        "name:kaa": "Rumıniya",
        "name:kbd": "Румыниэ",
        "name:kg": "Romania",
        "name:kk": "Румыния",
        "name:kl": "Rumænia",
        "name:kn": "ರೊಮಾನಿಯ",
        "name:ko": "루마니아",
        "name:koi": "Ромыния",
        "name:krc": "Румыния",
        "name:ku": "Romanya",
        "name:kv": "Румыния",
        "name:kw": "Roumani",
        "name:ky": "Румыния",
        "name:la": "Romania",
        "name:lad": "Rumania",
        "name:lb": "Rumänien",
        "name:li": "Roemenië",
        "name:lij": "Romania",
        "name:lmo": "Rumania",
        "name:ln": "Rumania",
        "name:lt": "Rumunija",
        "name:ltg": "Rumuneja",
        "name:lv": "Rumānija",
        "name:mdf": "Румыние",
        "name:mhr": "Румыний",
        "name:mi": "Romeinia",
        "name:mk": "Романија",
        "name:ml": "റൊമാനിയ",
        "name:mn": "Румын",
        "name:mr": "रोमेनिया",
        "name:ms": "Romania",
        "name:mt": "Rumanija",
        "name:my": "ရိုမေးနီးယားနိုင်ငံ",
        "name:na": "Romania",
        "name:nah": "Rumania",
        "name:nap": "Rumania",
        "name:nds": "Rumänien",
        "name:nds-nl": "Roemenië",
        "name:ne": "रोमानिया",
        "name:new": "रोमानिया",
        "name:nl": "Roemenië",
        "name:nn": "Romania",
        "name:no": "Romania",
        "name:nov": "Rumania",
        "name:nrm": "Roumanie",
        "name:nv": "Wooméiniya",
        "name:oc": "Romania",
        "name:or": "ରୋମାନିଆ",
        "name:os": "Румыни",
        "name:pa": "ਰੋਮਾਨੀਆ",
        "name:pam": "Romania",
        "name:pcd": "Roumanie",
        "name:pdc": "Rumeenie",
        "name:pih": "Romainya",
        "name:pl": "Rumunia",
        "name:pms": "Romanìa",
        "name:pnb": "رومانیہ",
        "name:pnt": "Ρουμανία",
        "name:ps": "رومانیا",
        "name:pt": "Roménia",
        "name:qu": "Rumanya",
        "name:rm": "Rumenia",
        "name:rmy": "Rumuniya",
        "name:ro": "România",
        "name:roa-rup": "Romănia",
        "name:roa-tara": "Romanie",
        "name:ru": "Румыния",
        "name:rue": "Румуньско",
        "name:rw": "Romaniya",
        "name:sah": "Румыния",
        "name:sc": "Romania",
        "name:scn": "Rumanìa",
        "name:sco": "Romanie",
        "name:se": "Románia",
        "name:sh": "Rumunija",
        "name:si": "රුමේනියාව",
        "name:sk": "Rumunsko",
        "name:sl": "Romunija",
        "name:sm": "Romania",
        "name:so": "Romania",
        "name:sq": "Rumania",
        "name:sr": "Румунија",
        "name:ss": "IRomaniya",
        "name:stq": "Rumänien",
        "name:su": "Romania",
        "name:sv": "Rumänien",
        "name:sw": "Romania",
        "name:szl": "Růmůńijo",
        "name:ta": "உருமேனியா",
        "name:te": "రొమేనియా",
        "name:tet": "Roménia",
        "name:tg": "Руминия",
        "name:th": "ประเทศโรมาเนีย",
        "name:tk": "Rumyniýa",
        "name:tl": "Rumanya",
        "name:tok": "ma Lomani",
        "name:tpi": "Romenia",
        "name:tr": "Romanya",
        "name:tt": "Румыния",
        "name:tzl": "Romania",
        "name:udm": "Румыния",
        "name:ug": "Ruminiye",
        "name:uk": "Румунія",
        "name:ur": "رومانیہ",
        "name:uz": "Ruminiya",
        "name:vec": "Romanìa",
        "name:vep": "Romanii",
        "name:vi": "Romania",
        "name:vls": "Roemenië",
        "name:vo": "Rumän",
        "name:wa": "Roumaneye",
        "name:war": "Rumania",
        "name:wo": "Romaani",
        "name:wuu": "罗马尼亚",
        "name:xal": "Румудин Орн",
        "name:xmf": "რუმინეთი",
        "name:yi": "רומעניע",
        "name:yo": "Románíà",
        "name:zea": "Roemenië",
        "name:zh": "羅馬尼亞",
        "name:zh-classical": "羅馬尼亞",
        "name:zh-min-nan": "România",
        "name:zh-yue": "羅馬尼亞",
        "official_name": "România",
        "timezone": "Europe/Bucharest",
        "type": "boundary",
        "wikidata": "Q218",
        "wikipedia": "en:Romania",
        "@geometry": "center"
      },
      "geometry": {
        "type": "Point",
        "coordinates": [
          25.1537015,
          45.9420392
        ]
      },
      "id": "relation/90689"
    },
    {
      "type": "Feature",
      "properties": {
        "@id": "relation/114504",
        "admin_level": "8",
        "border_type": "city",
        "boundary": "administrative",
        "ele": "147",
        "gnis:feature_id": "1364714",
        "name": "Palestine",
        "place": "town",
        "population": "18712",
        "population:date": "2010",
        "source": "TIGER/Line® 2008 Place Shapefiles (http://www.census.gov/geo/www/tiger/)",
        "source:ele": "National Elevation Dataset",
        "source:population": "US Census",
        "tiger:CLASSFP": "C1",
        "tiger:CPI": "Y",
        "tiger:FUNCSTAT": "A",
        "tiger:LSAD": "25",
        "tiger:MTFCC": "G4110",
        "tiger:NAME": "Palestine",
        "tiger:NAMELSAD": "Palestine city",
        "tiger:PCICBSA": "Y",
        "tiger:PCINECTA": "N",
        "tiger:PLACEFP": "54708",
        "tiger:PLACENS": "02411355",
        "tiger:PLCIDFP": "4854708",
        "tiger:STATEFP": "48",
        "tiger:reviewed": "no",
        "type": "boundary",
        "wikidata": "Q617602",
        "wikipedia": "en:Palestine, Texas",
        "@geometry": "center"
      },
      "geometry": {
        "type": "Point",
        "coordinates": [
          -95.6457485,
          31.7524045
        ]
      },
      "id": "relation/114504"
    },
    {
      "type": "Feature",
      "properties": {
        "@id": "relation/287077",
        "ISO3166-1": "PY",
        "ISO3166-1:alpha2": "PY",
        "ISO3166-1:alpha3": "PRY",
        "ISO3166-1:numeric": "600",
        "admin_level": "2",
        "border_type": "nation",
        "boundary": "administrative",
        "flag": "http://upload.wikimedia.org/wikipedia/commons/2/27/Flag_of_Paraguay.svg",
        "is_in:continent": "South America",
        "name": "Paraguay",
        "name:ace": "Paraguay",
        "name:af": "Paraguay",
        "name:als": "Paraguay",
        "name:am": "ፓራጓይ",
        "name:an": "Paraguai",
        "name:ang": "Paraguay",
        "name:ar": "باراغواي",
        "name:arz": "باراجواى",
        "name:ast": "Paraguái",
        "name:ay": "Parawayi",
        "name:az": "Paraqvay",
        "name:ba": "Парагвай",
        "name:bar": "Paraguay",
        "name:bat-smg": "Paragvajos",
        "name:bcl": "Paraguay",
        "name:be": "Парагвай",
        "name:be-tarask": "Парагвай",
        "name:bg": "Парагвай",
        "name:bi": "Paraguay",
        "name:bn": "প্যারাগুয়ে",
        "name:bo": "པ་ར་གུ་ཡེ།",
        "name:bpy": "পারাগুয়ে",
        "name:br": "Paraguay",
        "name:bs": "Paragvaj",
        "name:ca": "Paraguai",
        "name:ce": "Парагвай",
        "name:ceb": "Paraguay",
        "name:ckb": "پاراگوای",
        "name:co": "Paraguay",
        "name:crh": "Paragvay",
        "name:cs": "Paraguay",
        "name:cv": "Парагвай",
        "name:cy": "Paraguay",
        "name:da": "Paraguay",
        "name:de": "Paraguay",
        "name:diq": "Paraguay",
        "name:dsb": "Paraguay",
        "name:dv": "ޕެރަގުއޭ",
        "name:ee": "Paraguay",
        "name:el": "Παραγουάη",
        "name:en": "Paraguay",
        "name:eo": "Paragvajo",
        "name:es": "Paraguay",
        "name:et": "Paraguay",
        "name:eu": "Paraguai",
        "name:ext": "Paraguai",
        "name:fa": "پاراگوئه",
        "name:fi": "Paraguay",
        "name:fiu-vro": "Paraguay",
        "name:fo": "Paraguei",
        "name:fr": "Paraguay",
        "name:frp": "Paragoayi",
        "name:frr": "Paraguay",
        "name:fy": "Paraguay",
        "name:ga": "Paragua",
        "name:gag": "Paragvay",
        "name:gd": "Paraguaidh",
        "name:gl": "Paraguai - Paraguay",
        "name:gn": "Paraguái",
        "name:gv": "Yn Pharaguay",
        "name:hak": "Pâ-lâ-kûi",
        "name:he": "פרגוואי",
        "name:hi": "पैराग्वे",
        "name:hif": "Paraguay",
        "name:hr": "Paragvaj",
        "name:hsb": "Paraguay",
        "name:ht": "Paragwe",
        "name:hu": "Paraguay",
        "name:hy": "Պարագվայ",
        "name:ia": "Paraguay",
        "name:id": "Paraguay",
        "name:ie": "Paraguay",
        "name:ilo": "Paraguay",
        "name:io": "Paraguay",
        "name:is": "Paragvæ",
        "name:it": "Paraguay",
        "name:ja": "パラグアイ",
        "name:jbo": "paraguais",
        "name:jv": "Paraguay",
        "name:ka": "პარაგვაი",
        "name:kk": "Парагвай",
        "name:kl": "Paraguay",
        "name:kn": "ಪೆರಗ್ವೆ",
        "name:ko": "파라과이",
        "name:ku": "Paraguay",
        "name:kw": "Paragway",
        "name:la": "Paraquaria",
        "name:lad": "Paraguay",
        "name:lb": "Paraguay",
        "name:lez": "Парагвай",
        "name:li": "Paraguay",
        "name:lij": "Paraguay",
        "name:lmo": "Paraguay",
        "name:ln": "Palagway",
        "name:lt": "Paragvajus",
        "name:ltg": "Paragvajs",
        "name:lv": "Paragvaja",
        "name:mhr": "Парагвай",
        "name:mk": "Парагвај",
        "name:ml": "പരഗ്വെ",
        "name:mn": "Парагвай",
        "name:mr": "पेराग्वे",
        "name:mrj": "Парагвай",
        "name:ms": "Paraguay",
        "name:mt": "Paragwaj",
        "name:my": "ပါရာဂွေးနိုင်ငံ",
        "name:nah": "Paraguay",
        "name:nap": "Paraguay",
        "name:nds": "Paraguay",
        "name:ne": "पाराग्वे",
        "name:nl": "Paraguay",
        "name:nn": "Paraguay",
        "name:no": "Paraguay",
        "name:nov": "Paraguay",
        "name:oc": "Paraguai",
        "name:or": "ପାରାଗୁଏ",
        "name:os": "Парагвай",
        "name:pa": "ਪੈਰਾਗੁਏ",
        "name:pam": "Paraguay",
        "name:pap": "Paraguay",
        "name:pdc": "Paraguay",
        "name:pl": "Paragwaj",
        "name:pms": "Paraguay",
        "name:pnb": "پیراگوۓ",
        "name:pt": "Paraguai",
        "name:qu": "Parawayi",
        "name:rm": "Paraguay",
        "name:rmy": "Paraguay",
        "name:ro": "Paraguay",
        "name:ru": "Парагвай",
        "name:rw": "Paragwe",
        "name:sa": "पेरेग्वाय",
        "name:sah": "Парагуай",
        "name:sco": "Paraguay",
        "name:se": "Paraguay",
        "name:sh": "Paragvaj",
        "name:simple": "Paraguay",
        "name:sk": "Paraguaj",
        "name:sl": "Paragvaj",
        "name:so": "Paraguay",
        "name:sq": "Paraguaji",
        "name:sr": "Парагвај",
        "name:su": "Paraguay",
        "name:sv": "Paraguay",
        "name:sw": "Paraguay",
        "name:szl": "Paragwaj",
        "name:ta": "பரகுவை",
        "name:tet": "Paraguai",
        "name:tg": "Парагвай",
        "name:th": "ประเทศปารากวัย",
        "name:tl": "Paraguay",
        "name:tok": "ma Palakawi",
        "name:tr": "Paraguay",
        "name:tt": "Парагвай",
        "name:tzl": "Paraguai",
        "name:ug": "پاراگۋاي",
        "name:uk": "Парагвай",
        "name:ur": "پیراگوئے",
        "name:uz": "Paragvay",
        "name:vec": "Paraguay",
        "name:vi": "Paraguay",
        "name:vo": "Paragvän",
        "name:war": "Paraguay",
        "name:wo": "Paraguwaay",
        "name:wuu": "巴拉圭",
        "name:xal": "Парагаймудин Орн",
        "name:xmf": "პარაგვაი",
        "name:yi": "פאראגוויי",
        "name:yo": "Paragúáì",
        "name:zh": "巴拉圭",
        "name:zh-min-nan": "Paraguay",
        "name:zh-yue": "巴拉圭",
        "official_name:cs": "Paraguayská republika",
        "population": "7012433",
        "population:date": "2015",
        "source:population": "wikipedia",
        "timezone": "America/Asuncion",
        "type": "boundary",
        "wikidata": "Q733",
        "wikipedia": "en:Paraguay",
        "@geometry": "center"
      },
      "geometry": {
        "type": "Point",
        "coordinates": [
          -58.4511018,
          -23.4470203
        ]
      },
      "id": "relation/287077"
    },
    {
      "type": "Feature",
      "properties": {
        "@id": "relation/287668",
        "ISO3166-1": "PA",
        "ISO3166-1:alpha2": "PA",
        "ISO3166-1:alpha3": "PAN",
        "ISO3166-1:numeric": "591",
        "admin_level": "2",
        "border_type": "nation",
        "boundary": "administrative",
        "flag": "http://upload.wikimedia.org/wikipedia/commons/a/ab/Flag_of_Panama.svg",
        "is_in:continent": "North America",
        "name": "Panamá",
        "name:ace": "Panama",
        "name:af": "Panama",
        "name:als": "Panama",
        "name:am": "ፓናማ",
        "name:an": "Panamá",
        "name:ar": "بنما",
        "name:arz": "باناما",
        "name:ast": "Panamá",
        "name:ay": "Panama",
        "name:az": "Panama",
        "name:ba": "Панама",
        "name:bat-smg": "Panama",
        "name:bcl": "Panama",
        "name:be": "Панама",
        "name:be-tarask": "Панама",
        "name:bg": "Панама",
        "name:bm": "Panama",
        "name:bn": "পানামা",
        "name:bo": "པ་ན་མ།",
        "name:bpy": "পানামা",
        "name:br": "Panamá",
        "name:bs": "Panama",
        "name:bxr": "Панама",
        "name:ca": "Panamà",
        "name:ce": "Панама",
        "name:ceb": "Panama",
        "name:ckb": "پەنەما",
        "name:crh": "Panama",
        "name:cs": "Panama",
        "name:cv": "Панама",
        "name:cy": "Panama",
        "name:da": "Panama",
        "name:de": "Panama",
        "name:diq": "Panama",
        "name:dsb": "Panama",
        "name:dv": "ޕެނަމާ",
        "name:ee": "Panama",
        "name:el": "Παναμάς",
        "name:en": "Panama",
        "name:eo": "Panamo",
        "name:es": "Panamá",
        "name:et": "Panama",
        "name:eu": "Panama",
        "name:ext": "Panamá",
        "name:fa": "پاناما",
        "name:fi": "Panama",
        "name:fiu-vro": "Panama",
        "name:fo": "Panama",
        "name:fr": "Panamá",
        "name:frp": "Panama",
        "name:frr": "Panama",
        "name:fy": "Panama",
        "name:ga": "Panama",
        "name:gag": "Panama",
        "name:gd": "Panama",
        "name:gl": "Panamá",
        "name:gn": "Panama",
        "name:gu": "પનામા",
        "name:gv": "Yn Phanamaa",
        "name:hak": "Pâ-nâ-mâ",
        "name:haw": "Panamā",
        "name:he": "פנמה",
        "name:hi": "पनामा",
        "name:hif": "Panama",
        "name:hr": "Panama",
        "name:hsb": "Panama",
        "name:ht": "Panama",
        "name:hu": "Panama",
        "name:hy": "Պանամա",
        "name:ia": "Panama",
        "name:id": "Panama",
        "name:ie": "Panamá",
        "name:ilo": "Panama",
        "name:io": "Panama",
        "name:is": "Panama",
        "name:it": "Panamá",
        "name:ja": "パナマ",
        "name:jbo": "panamas",
        "name:jv": "Panama",
        "name:ka": "პანამა",
        "name:ki": "Panama",
        "name:kk": "Панама",
        "name:kn": "ಪನಾಮಾ",
        "name:ko": "파나마",
        "name:ku": "Panama",
        "name:kw": "Panama",
        "name:la": "Panama",
        "name:lad": "Panama",
        "name:lb": "Panama",
        "name:li": "Panama",
        "name:lij": "Panamá",
        "name:lmo": "Panama",
        "name:ln": "Panama",
        "name:lt": "Panama",
        "name:lv": "Panama",
        "name:mg": "Panama",
        "name:mhr": "Панаме",
        "name:mk": "Панама",
        "name:ml": "പനാമ",
        "name:mn": "Панам",
        "name:mr": "पनामा",
        "name:mrj": "Панама",
        "name:ms": "Panama",
        "name:mt": "Panama",
        "name:my": "ပနားမားနိုင်ငံ",
        "name:nah": "Panama",
        "name:nds": "Panama",
        "name:ne": "पानामा",
        "name:new": "पनामा",
        "name:nl": "Panama",
        "name:nn": "Panama",
        "name:no": "Panama",
        "name:nov": "Panama",
        "name:nrm": "Panama",
        "name:oc": "Panamà",
        "name:or": "ପାନାମା",
        "name:os": "Панамæ",
        "name:pa": "ਪਨਾਮਾ",
        "name:pam": "Panama",
        "name:pap": "Panama",
        "name:pih": "Panama",
        "name:pl": "Panama",
        "name:pms": "Panamà",
        "name:pnb": "پانامہ",
        "name:ps": "پاناما",
        "name:pt": "Panamá",
        "name:qu": "Panama",
        "name:ro": "Panama",
        "name:ru": "Панама",
        "name:rw": "Panama",
        "name:sa": "पानामा",
        "name:sah": "Панама",
        "name:scn": "Panamà",
        "name:sco": "Panama",
        "name:se": "Panama",
        "name:sh": "Panama",
        "name:simple": "Panama",
        "name:sk": "Panama",
        "name:sl": "Panama",
        "name:so": "Banama",
        "name:sq": "Panamaja",
        "name:sr": "Панама",
        "name:ss": "IPhanama",
        "name:stq": "Panama",
        "name:su": "Panama",
        "name:sv": "Panama",
        "name:sw": "Panama",
        "name:szl": "Panama",
        "name:ta": "பனாமா",
        "name:te": "పనామా",
        "name:tg": "Панама",
        "name:th": "ประเทศปานามา",
        "name:tl": "Panama",
        "name:tpi": "Panama",
        "name:tr": "Panama",
        "name:tt": "Панама",
        "name:tzl": "Panamà",
        "name:ug": "پاناما",
        "name:uk": "Панама",
        "name:ur": "پاناما",
        "name:uz": "Panama",
        "name:vec": "Pànama",
        "name:vi": "Panama",
        "name:vo": "Panamän",
        "name:war": "Panamá",
        "name:wo": "Panamaa",
        "name:wuu": "巴拿马",
        "name:xal": "Панамудин Орн",
        "name:yi": "פאנאמא",
        "name:yo": "Panamá",
        "name:zh": "巴拿马",
        "name:zh-classical": "巴拿馬",
        "name:zh-min-nan": "Panamá",
        "name:zh-yue": "巴拿馬",
        "name:zu": "Panama",
        "official_name:cs": "Panamská republika",
        "timezone": "America/Panama",
        "type": "boundary",
        "wikidata": "Q804",
        "wikipedia": "es:Panamá",
        "@geometry": "center"
      },
      "geometry": {
        "type": "Point",
        "coordinates": [
          -80.0955512,
          8.4520218
        ]
      },
      "id": "relation/287668"
    },
    {
      "type": "Feature",
      "properties": {
        "@id": "relation/288247",
        "ISO3166-1": "PE",
        "ISO3166-1:alpha2": "PE",
        "ISO3166-1:alpha3": "PER",
        "ISO3166-1:numeric": "604",
        "admin_level": "2",
        "boundary": "administrative",
        "flag": "http://upload.wikimedia.org/wikipedia/commons/c/cf/Flag_of_Peru.svg",
        "int_name": "Peru",
        "is_in:continent": "South America",
        "name": "Perú",
        "name:ab": "Перу",
        "name:ace": "Pèru",
        "name:af": "Peru",
        "name:ak": "Peru",
        "name:als": "Peru",
        "name:am": "ፔሩ",
        "name:an": "Perú",
        "name:ang": "Peru",
        "name:ar": "بيرو",
        "name:arz": "بيرو",
        "name:ast": "Perú",
        "name:ay": "Piruw",
        "name:az": "Peru",
        "name:ba": "Перу",
        "name:bar": "Peru",
        "name:bat-smg": "Perū",
        "name:bcl": "Peru",
        "name:be": "Перу",
        "name:be-tarask": "Пэру",
        "name:bg": "Перу",
        "name:bi": "Peru",
        "name:bm": "Peru",
        "name:bn": "পেরু",
        "name:bo": "པེ་རུ།",
        "name:bpy": "পেরু",
        "name:br": "Perou",
        "name:bs": "Peru",
        "name:ca": "Perú",
        "name:cbk-zam": "Peru",
        "name:ce": "Перу",
        "name:ceb": "Peru",
        "name:ch": "Perú",
        "name:ckb": "پێروو",
        "name:co": "Perù",
        "name:crh": "Peru",
        "name:cs": "Peru",
        "name:cv": "Перу",
        "name:cy": "Periw",
        "name:da": "Peru",
        "name:de": "Peru",
        "name:diq": "Peru",
        "name:dsb": "Peru",
        "name:dv": "ޕެރޫ",
        "name:ee": "Peru",
        "name:el": "Περού",
        "name:en": "Peru",
        "name:eo": "Peruo",
        "name:es": "Perú",
        "name:et": "Peruu",
        "name:eu": "Peru",
        "name:ext": "Perú",
        "name:fa": "پرو",
        "name:ff": "Peru",
        "name:fi": "Peru",
        "name:fiu-vro": "Peruu",
        "name:fo": "Peru",
        "name:fr": "Pérou",
        "name:frp": "Pèrou",
        "name:frr": "Peruu",
        "name:fy": "Perû",
        "name:ga": "Peiriú",
        "name:gag": "Peru",
        "name:gd": "Pearù",
        "name:gl": "Perú",
        "name:gn": "Perũ",
        "name:gu": "પેરુ",
        "name:gv": "Yn Pheroo",
        "name:hak": "Pi-lû",
        "name:he": "פרו",
        "name:hi": "पेरू",
        "name:hif": "Peru",
        "name:hr": "Peru",
        "name:hsb": "Peru",
        "name:ht": "Pewou",
        "name:hu": "Peru",
        "name:hy": "Պերու",
        "name:ia": "Peru",
        "name:id": "Peru",
        "name:ie": "Perú",
        "name:ilo": "Peru",
        "name:io": "Peru",
        "name:is": "Perú",
        "name:it": "Perù",
        "name:iu": "ᐱᕉ",
        "name:ja": "ペルー",
        "name:jbo": "perus",
        "name:jv": "Peru",
        "name:ka": "პერუ",
        "name:kaa": "Peru",
        "name:ki": "Peru",
        "name:kk": "Перу",
        "name:kl": "Peru",
        "name:kn": "ಪೆರು",
        "name:ko": "페루",
        "name:ku": "Perû",
        "name:kv": "Перу",
        "name:kw": "Perou",
        "name:ky": "Перу",
        "name:la": "Peruvia",
        "name:lad": "Peru",
        "name:lb": "Peru",
        "name:lez": "Перу",
        "name:li": "Peru",
        "name:lij": "Perù",
        "name:lmo": "Perù",
        "name:ln": "Peru",
        "name:lt": "Peru",
        "name:ltg": "Peru",
        "name:lv": "Peru",
        "name:mhr": "Перу",
        "name:mi": "Perū",
        "name:mk": "Перу",
        "name:ml": "പെറു",
        "name:mn": "Перу",
        "name:mr": "पेरू",
        "name:mrj": "Перу",
        "name:ms": "Peru",
        "name:mt": "Perù",
        "name:mwl": "Peru",
        "name:my": "ပီရူးနိုင်ငံ",
        "name:na": "Peru",
        "name:nah": "Peru",
        "name:nap": "Perù",
        "name:nds": "Peru",
        "name:ne": "पेरू",
        "name:new": "पेरु",
        "name:nl": "Peru",
        "name:nn": "Peru",
        "name:no": "Peru",
        "name:nov": "Peru",
        "name:nrm": "Pérou",
        "name:oc": "Peró",
        "name:or": "ପେରୁ",
        "name:os": "Перу",
        "name:pa": "ਪੇਰੂ",
        "name:pam": "Peru",
        "name:pap": "Peru",
        "name:pih": "Peruu",
        "name:pl": "Peru",
        "name:pms": "Perù",
        "name:pnb": "پیرو",
        "name:ps": "پيرو",
        "name:pt": "Peru",
        "name:qu": "Piruw",
        "name:rm": "Peru",
        "name:rmy": "Peru",
        "name:ro": "Peru",
        "name:ru": "Перу",
        "name:rue": "Перу",
        "name:rw": "Peru",
        "name:sa": "पेरु",
        "name:sah": "Перу",
        "name:scn": "Perù",
        "name:sco": "Peru",
        "name:se": "Peru",
        "name:sh": "Peru",
        "name:si": "පේරූ",
        "name:simple": "Peru",
        "name:sk": "Peru",
        "name:sl": "Peru",
        "name:sn": "Peru",
        "name:so": "Peru",
        "name:sq": "Peruja",
        "name:sr": "Перу",
        "name:ss": "IPheru",
        "name:su": "Péru",
        "name:sv": "Peru",
        "name:sw": "Peru",
        "name:szl": "Peru",
        "name:ta": "பெரு",
        "name:te": "పెరూ",
        "name:tet": "Perú",
        "name:tg": "Перу",
        "name:th": "ประเทศเปรู",
        "name:tk": "Peru",
        "name:tl": "Peru",
        "name:tr": "Peru",
        "name:tt": "Перу",
        "name:tzl": "Perù",
        "name:ug": "پېرۇ",
        "name:uk": "Перу",
        "name:ur": "پیرو",
        "name:uz": "Peru",
        "name:vec": "Perù",
        "name:vi": "Peru",
        "name:vo": "Peruvän",
        "name:war": "Perú",
        "name:wo": "Peru",
        "name:wuu": "秘鲁",
        "name:xal": "Перумудин Орн",
        "name:xmf": "პერუ",
        "name:yi": "פערו",
        "name:yo": "Perú",
        "name:zea": "Peru",
        "name:zh": "秘鲁",
        "name:zh-classical": "祕魯",
        "name:zh-min-nan": "Perú",
        "name:zh-yue": "秘魯",
        "name:zu": "Peru",
        "official_name": "República del Perú",
        "official_name:cs": "Peruánská republika",
        "official_name:el": "Δημοκρατία του Περού",
        "official_name:en": "Republic of Peru",
        "official_name:eo": "Perua Respubliko",
        "official_name:es": "República del Perú",
        "official_name:et": "Peruu Vabariik",
        "official_name:eu": "Peruko Errepublika",
        "official_name:fr": "République du Pérou",
        "official_name:id": "Republik Peru",
        "official_name:lb": "Republik Peru",
        "official_name:lt": "Peru Respublika",
        "official_name:lv": "Peru Republika",
        "official_name:ro": "Republica Peru",
        "official_name:sk": "Peruánska republika",
        "official_name:sv": "Republiken Peru",
        "official_name:vi": "Cộng hòa Peru",
        "timezone": "America/Lima",
        "type": "boundary",
        "wikidata": "Q419",
        "wikipedia": "es:Perú",
        "@geometry": "center"
      },
      "geometry": {
        "type": "Point",
        "coordinates": [
          -76.6438221,
          -10.1188645
        ]
      },
      "id": "relation/288247"
    },
    {
      "type": "Feature",
      "properties": {
        "@id": "relation/295480",
        "ISO3166-1": "PT",
        "ISO3166-1:alpha2": "PT",
        "ISO3166-1:alpha3": "PRT",
        "ISO3166-1:numeric": "620",
        "admin_level": "2",
        "alt_name:eo": "Portugalio",
        "boundary": "administrative",
        "currency": "EUR",
        "driving_side": "right",
        "flag": "http://upload.wikimedia.org/wikipedia/commons/5/5c/Flag_of_Portugal.svg",
        "int_name": "Portugal",
        "is_in:continent": "Europe",
        "name": "Portugal",
        "name:af": "Portugal",
        "name:als": "Portugal",
        "name:am": "ፖርቱጋል",
        "name:an": "Portugal",
        "name:ang": "Portugal",
        "name:ar": "البرتغال",
        "name:arc": "ܦܘܪܛܘܓܠ",
        "name:arz": "البرتغال",
        "name:ast": "Portugal",
        "name:ay": "Purtuwal",
        "name:az": "Portuqaliya",
        "name:ba": "Португалия",
        "name:bar": "Portugal",
        "name:bat-smg": "Puortogalėjė",
        "name:bcl": "Portugal",
        "name:be": "Партугалія",
        "name:be-tarask": "Партугалія",
        "name:bg": "Португалия",
        "name:bi": "Portugal",
        "name:bn": "পর্তুগাল",
        "name:bo": "པོ་ཅུ་གྷལ།",
        "name:bpy": "পর্তুগাল",
        "name:br": "Portugal",
        "name:bs": "Portugal",
        "name:bug": "Portugis",
        "name:bxr": "Португал",
        "name:ca": "Portugal",
        "name:cbk-zam": "Portugal",
        "name:cdo": "Può-dò̤-ngà",
        "name:ce": "Португали",
        "name:ceb": "Portugal",
        "name:chr": "ᏉᏧᎦᎵ",
        "name:ckb": "پورتوگال",
        "name:co": "Portugallu",
        "name:crh": "Portugaliya",
        "name:cs": "Portugalsko",
        "name:csb": "Pòrtugalskô",
        "name:cu": "Портогалїꙗ",
        "name:cv": "Португали",
        "name:cy": "Portiwgal",
        "name:da": "Portugal",
        "name:de": "Portugal",
        "name:diq": "Portekiz",
        "name:dsb": "Portugalska",
        "name:dv": "ޕޯޗުގަލް",
        "name:dz": "པོར་ཅུ་གལ་",
        "name:ee": "Portugal",
        "name:el": "Πορτογαλία",
        "name:en": "Portugal",
        "name:eo": "Portugalujo",
        "name:es": "Portugal",
        "name:et": "Portugal",
        "name:eu": "Portugal",
        "name:ext": "Portugal",
        "name:fa": "پرتغال",
        "name:fi": "Portugali",
        "name:fiu-vro": "Portugal",
        "name:fo": "Portugal",
        "name:fr": "Portugal",
        "name:frp": "Portugal",
        "name:frr": "Portugal",
        "name:fur": "Portugal",
        "name:fy": "Portegal",
        "name:ga": "An Phortaingéil",
        "name:gag": "Portugaliya",
        "name:gd": "A' Phortagail",
        "name:gl": "Portugal",
        "name:gn": "Poytuga",
        "name:gu": "પોર્ટુગલ",
        "name:gv": "Yn Phortiugal",
        "name:hak": "Phù-thò-ngà",
        "name:haw": "Potugala",
        "name:he": "פורטוגל",
        "name:hi": "पुर्तगाल",
        "name:hif": "Portugal",
        "name:hr": "Portugal",
        "name:hsb": "Portugalska",
        "name:ht": "Pòtigal",
        "name:hu": "Portugália",
        "name:hy": "Պորտուգալիա",
        "name:ia": "Portugal",
        "name:id": "Portugal",
        "name:ie": "Portugal",
        "name:ilo": "Portugal",
        "name:io": "Portugal",
        "name:is": "Portúgal",
        "name:it": "Portogallo",
        "name:ja": "ポルトガル",
        "name:jbo": "potygu'e",
        "name:jv": "Portugal",
        "name:ka": "პორტუგალია",
        "name:kaa": "Portugaliya",
        "name:kab": "Portugal",
        "name:kbd": "Португал",
        "name:kg": "Mputulukesi",
        "name:kk": "Португалия",
        "name:kl": "Portugal",
        "name:km": "ប្រទេស ព័រទុយហ្គាល់",
        "name:kn": "ಪೋರ್ಚುಗಲ್",
        "name:ko": "포르투갈",
        "name:koi": "Португал",
        "name:krc": "Португалия",
        "name:ku": "Portûgal",
        "name:kv": "Португалия",
        "name:kw": "Portyngal",
        "name:ky": "Португалия",
        "name:la": "Portugallia",
        "name:lad": "Portugal",
        "name:lb": "Portugal",
        "name:lez": "Португалия",
        "name:li": "Portugal",
        "name:lij": "Pòrtogallo",
        "name:lmo": "Portugàl",
        "name:ln": "Pulutugal",
        "name:lt": "Portugalija",
        "name:ltg": "Portugaleja",
        "name:lv": "Portugāle",
        "name:mdf": "Португалия",
        "name:mg": "Pôrtogaly",
        "name:mhr": "Португалий",
        "name:mi": "Potukara",
        "name:min": "Portugis",
        "name:mk": "Португалија",
        "name:ml": "പോർച്ചുഗൽ",
        "name:mn": "Португал",
        "name:mr": "पोर्तुगाल",
        "name:ms": "Portugal",
        "name:mt": "Portugall",
        "name:mwl": "Pertual",
        "name:my": "ပေါ်တူဂီနိုင်ငံ",
        "name:mzn": "پرتغال",
        "name:na": "Portsiugar",
        "name:nah": "Portugal",
        "name:nap": "Purtuallo",
        "name:nds": "Portugal",
        "name:nds-nl": "Portugal",
        "name:ne": "पोर्चुगल",
        "name:nl": "Portugal",
        "name:nn": "Portugal",
        "name:no": "Portugal",
        "name:nov": "Portugal",
        "name:nrm": "Portûnga",
        "name:nso": "Portugal",
        "name:oc": "Portugal",
        "name:or": "ପର୍ତ୍ତୁଗାଲ",
        "name:os": "Португали",
        "name:pam": "Portugal",
        "name:pap": "Portugal",
        "name:pcd": "Portugal",
        "name:pih": "Porchugal",
        "name:pl": "Portugalia",
        "name:pms": "Portugal",
        "name:pnb": "پرتگال",
        "name:pnt": "Πορτογαλία",
        "name:ps": "پرتګال",
        "name:pt": "Portugal",
        "name:qu": "Purtugal",
        "name:rm": "Portugal",
        "name:rmy": "Portugaliya",
        "name:rn": "Portugal",
        "name:ro": "Portugalia",
        "name:roa-tara": "Purtugalle",
        "name:ru": "Португалия",
        "name:rue": "Портуґалія",
        "name:rw": "Porutigali",
        "name:sa": "पुर्तगाल",
        "name:sah": "Португалия",
        "name:sc": "Portogallo",
        "name:scn": "Purtugallu",
        "name:sco": "Portugal",
        "name:se": "Portugal",
        "name:sh": "Portugal",
        "name:si": "පෘතුගාලය",
        "name:sk": "Portugalsko",
        "name:sl": "Portugalska",
        "name:sm": "Portugal",
        "name:so": "Bortuqaal",
        "name:sq": "Portugalia",
        "name:sr": "Португалија",
        "name:srn": "Portugesokondre",
        "name:ss": "IPhuthukezi",
        "name:st": "Portugal",
        "name:stq": "Portugal",
        "name:su": "Portugal",
        "name:sv": "Portugal",
        "name:sw": "Ureno",
        "name:szl": "Portugalijo",
        "name:ta": "போர்த்துகல்",
        "name:te": "పోర్చుగల్",
        "name:tet": "Portugál",
        "name:tg": "Португалия",
        "name:th": "ประเทศโปรตุเกส",
        "name:tk": "Portugaliýa",
        "name:tl": "Portugal",
        "name:tok": "ma Potuke",
        "name:tpi": "Posugol",
        "name:tr": "Portekiz",
        "name:tt": "Португалия",
        "name:ty": "Pōtītī",
        "name:tzl": "Portugal",
        "name:udm": "Португалия",
        "name:ug": "Portugaliye",
        "name:uk": "Португалія",
        "name:ur": "پرتگال",
        "name:uz": "Portugaliya",
        "name:vec": "Portogało",
        "name:vep": "Portugalii",
        "name:vi": "Bồ Đào Nha",
        "name:vls": "Portugal",
        "name:vo": "Portugän",
        "name:wa": "Portugal",
        "name:war": "Portugal",
        "name:wo": "Portugaal",
        "name:wuu": "葡萄牙",
        "name:xal": "Португишин Орн",
        "name:xmf": "პორტუგალია",
        "name:yi": "פארטוגאל",
        "name:yo": "Pọ́rtúgàl",
        "name:zea": "Portuhal",
        "name:zh": "葡萄牙",
        "name:zh-classical": "葡萄牙",
        "name:zh-min-nan": "Phû-tô-gâ",
        "name:zh-yue": "葡萄牙",
        "name:zu": "IPhothugali",
        "official_name": "República Portuguesa",
        "official_name:ar": "الجمهورية البرتغالية",
        "official_name:cs": "Portugalská republika",
        "official_name:el": "Πορτογαλική Δημοκρατία",
        "official_name:eo": "Portugala Respubliko",
        "official_name:es": "República Portuguesa",
        "official_name:fi": "Portugalin tasavalta",
        "population": "10562178",
        "population:date": "2011",
        "source": "DGT - CAOP 2015",
        "type": "boundary",
        "wikidata": "Q45",
        "wikipedia": "pt:Portugal",
        "@geometry": "center"
      },
      "geometry": {
        "type": "Point",
        "coordinates": [
          -18.8733448,
          35.9915566
        ]
      },
      "id": "relation/295480"
    },
    {
      "type": "Feature",
      "properties": {
        "@id": "relation/305095",
        "ISO3166-1": "QA",
        "ISO3166-1:alpha2": "QA",
        "ISO3166-1:alpha3": "QAT",
        "ISO3166-1:numeric": "634",
        "admin_level": "2",
        "border_type": "nation",
        "boundary": "administrative",
        "capital": "Doha",
        "flag": "http://upload.wikimedia.org/wikipedia/commons/6/65/Flag_of_Qatar.svg",
        "is_in:continent": "Asia",
        "name": "‏قطر‎",
        "name:af": "Katar",
        "name:am": "ቃጣር",
        "name:an": "Qatar",
        "name:ar": "‏قطر‎",
        "name:as": "কাটাৰ",
        "name:az": "Qətər",
        "name:be": "Катар",
        "name:bg": "Катар",
        "name:bn": "কাতার",
        "name:bo": "ཁ་ཏར།",
        "name:br": "Katar",
        "name:bs": "Katar",
        "name:ca": "Qatar",
        "name:ce": "Катар",
        "name:cs": "Katar",
        "name:cv": "Катар",
        "name:cy": "Qatar",
        "name:da": "Qatar",
        "name:de": "Katar",
        "name:dv": "ޤަޠަރު",
        "name:dz": "ཀ་ཏར་",
        "name:ee": "Qatar",
        "name:el": "Κατάρ",
        "name:en": "Qatar",
        "name:eo": "Kataro",
        "name:es": "Qatar",
        "name:et": "Katar",
        "name:eu": "Qatar",
        "name:fa": "قطر",
        "name:fi": "Qatar",
        "name:fo": "Katar",
        "name:fr": "Qatar",
        "name:fy": "Katar",
        "name:ga": "Catar",
        "name:gd": "Catar",
        "name:gl": "Qatar - قطر",
        "name:gu": "કતાર (અરબસ્તાન)",
        "name:gv": "Yn Chatar",
        "name:he": "קטאר",
        "name:hi": "क़तर",
        "name:hr": "Katar",
        "name:ht": "Katar",
        "name:hu": "Katar",
        "name:hy": "Քաթար",
        "name:id": "Qatar",
        "name:ie": "Katar",
        "name:io": "Katar",
        "name:is": "Katar",
        "name:it": "Qatar",
        "name:ja": "カタール",
        "name:jv": "Qatar",
        "name:ka": "კატარი",
        "name:kk": "Катар",
        "name:kl": "Qatar",
        "name:kn": "ಕಟಾರ್",
        "name:ko": "카타르",
        "name:ku": "Qeter",
        "name:kv": "Катар",
        "name:kw": "Katar",
        "name:la": "Quataria",
        "name:lb": "Katar",
        "name:li": "Katar",
        "name:ln": "Katar",
        "name:lt": "Kataras",
        "name:lv": "Katara",
        "name:mk": "Катар",
        "name:ml": "ഖത്തർ",
        "name:mn": "Катар",
        "name:mr": "कतार",
        "name:ms": "Qatar",
        "name:mt": "Qatar",
        "name:my": "ကာတာနိုင်ငံ",
        "name:na": "Qatar",
        "name:nl": "Qatar",
        "name:nn": "Qatar",
        "name:no": "Qatar",
        "name:nv": "Kʼatár",
        "name:oc": "Qatar",
        "name:or": "କତର",
        "name:os": "Катар",
        "name:pa": "ਕਤਰ",
        "name:pl": "Katar",
        "name:ps": "قطر",
        "name:pt": "Catar",
        "name:qu": "Qatar",
        "name:ro": "Qatar",
        "name:ru": "Катар",
        "name:rw": "Katari",
        "name:sa": "कतार",
        "name:se": "Qatar",
        "name:sk": "Katar (štát)",
        "name:sl": "Katar",
        "name:so": "Qatar",
        "name:sq": "Katari",
        "name:sr": "Катар",
        "name:ss": "IKhathari",
        "name:su": "Qatar",
        "name:sv": "Qatar",
        "name:sw": "Qatar",
        "name:ta": "கத்தார்",
        "name:te": "కతర్",
        "name:tg": "Қатар",
        "name:th": "ประเทศกาตาร์",
        "name:tk": "Katar",
        "name:tl": "Katar",
        "name:tr": "Katar",
        "name:tt": "Катар",
        "name:tzl": "Qatar",
        "name:ug": "قاتار",
        "name:uk": "Катар",
        "name:ur": "قطر",
        "name:uz": "Qatar",
        "name:vi": "Qatar",
        "name:vo": "Katarän",
        "name:wo": "Kataar",
        "name:yi": "קאטאר",
        "name:yo": "Katar",
        "name:zh": "卡塔尔",
        "official_name:cs": "Stát Katar",
        "ref": "QA",
        "state_code": "QA",
        "timezone": "Asia/Qatar",
        "type": "boundary",
        "wikidata": "Q846",
        "wikipedia": "ar:قطر",
        "@geometry": "center"
      },
      "geometry": {
        "type": "Point",
        "coordinates": [
          51.6027555,
          25.4268873
        ]
      },
      "id": "relation/305095"
    },
    {
      "type": "Feature",
      "properties": {
        "@id": "relation/305138",
        "ISO3166-1": "OM",
        "ISO3166-1:alpha2": "OM",
        "ISO3166-1:alpha3": "OMN",
        "ISO3166-1:numeric": "512",
        "admin_level": "2",
        "border_type": "nation",
        "boundary": "administrative",
        "flag": "http://upload.wikimedia.org/wikipedia/commons/d/dd/Flag_of_Oman.svg",
        "is_in:continent": "Asia",
        "name": "عمان",
        "name:ace": "Oman",
        "name:af": "Oman",
        "name:als": "Oman",
        "name:am": "ኦማን",
        "name:an": "Omán",
        "name:ang": "Oman",
        "name:ar": "عمان",
        "name:arc": "ܥܘܡܐܢ",
        "name:arz": "سلطنة عمان",
        "name:ast": "Omán",
        "name:az": "Oman",
        "name:ba": "Оман",
        "name:bar": "Oman",
        "name:bat-smg": "Omans",
        "name:bcl": "Oman",
        "name:be": "Аман",
        "name:be-tarask": "Аман",
        "name:bg": "Оман",
        "name:bn": "ওমান",
        "name:bo": "ཨོ་མན།",
        "name:bpy": "ওমান",
        "name:br": "Oman",
        "name:bs": "Oman",
        "name:bug": "Oman",
        "name:bxr": "Оман",
        "name:ca": "Oman",
        "name:ce": "Оман",
        "name:ceb": "Oman",
        "name:ckb": "عومان",
        "name:crh": "Oman",
        "name:cs": "Omán",
        "name:csb": "Òman",
        "name:cv": "Оман",
        "name:cy": "Oman",
        "name:da": "Oman",
        "name:de": "Oman",
        "name:diq": "Uman",
        "name:dsb": "Oman",
        "name:dv": "ޢުމާން",
        "name:el": "Ομάν",
        "name:en": "Oman",
        "name:eo": "Omano",
        "name:es": "Omán",
        "name:et": "Omaan",
        "name:eu": "Oman",
        "name:ext": "Omán",
        "name:fa": "عمان",
        "name:fi": "Oman",
        "name:fiu-vro": "Omaan",
        "name:fr": "Oman",
        "name:frp": "Oman",
        "name:fy": "Oman",
        "name:ga": "Óman",
        "name:gag": "Oman",
        "name:gd": "Omàn",
        "name:gl": "Omán",
        "name:gn": "Omã",
        "name:gu": "ઓમાન",
        "name:gv": "Yn Omaan",
        "name:hak": "Â-man",
        "name:he": "עומאן",
        "name:hi": "ओमान",
        "name:hif": "Oman",
        "name:hr": "Oman",
        "name:hsb": "Oman",
        "name:ht": "Omàn",
        "name:hu": "Omán",
        "name:hy": "Օման",
        "name:ia": "Oman",
        "name:id": "Oman",
        "name:ie": "Oman",
        "name:ilo": "Oman",
        "name:io": "Oman",
        "name:is": "Óman",
        "name:it": "Oman",
        "name:ja": "オマーン",
        "name:jbo": "oman",
        "name:jv": "Oman",
        "name:ka": "ომანი",
        "name:kbd": "Оман",
        "name:kk": "Оман",
        "name:kl": "Oman",
        "name:kn": "ಒಮಾನ್",
        "name:ko": "오만",
        "name:ku": "Oman",
        "name:kv": "Оман",
        "name:kw": "Oman",
        "name:la": "Omania",
        "name:lb": "Oman",
        "name:lez": "Оман",
        "name:li": "Omaan",
        "name:lij": "Òman",
        "name:lmo": "Oman",
        "name:ln": "Oman",
        "name:lt": "Omanas",
        "name:lv": "Omāna",
        "name:mk": "Оман",
        "name:ml": "ഒമാൻ",
        "name:mn": "Оман",
        "name:mr": "ओमान",
        "name:ms": "Oman",
        "name:my": "အိုမန်နိုင်ငံ",
        "name:na": "Oman",
        "name:nah": "Omān",
        "name:nds": "Oman",
        "name:new": "ओमान",
        "name:nl": "Oman",
        "name:nn": "Oman",
        "name:no": "Oman",
        "name:nov": "Oman",
        "name:nv": "Omą́ą́",
        "name:oc": "Oman",
        "name:or": "ଓମାନ",
        "name:os": "Оман",
        "name:pa": "ਓਮਾਨ",
        "name:pam": "Oman",
        "name:pih": "Omaan",
        "name:pl": "Oman",
        "name:pms": "Oman",
        "name:pnb": "عمان",
        "name:ps": "عمان",
        "name:pt": "Omã",
        "name:qu": "Uman",
        "name:ro": "Oman",
        "name:ru": "Оман",
        "name:rw": "Omani",
        "name:sa": "ओमान",
        "name:sah": "Оман",
        "name:scn": "Uman",
        "name:sco": "Oman",
        "name:se": "Oman",
        "name:sh": "Oman",
        "name:si": "ඕමානය",
        "name:sk": "Omán",
        "name:sl": "Oman",
        "name:so": "Cumaan",
        "name:sq": "Omani",
        "name:sr": "Оман",
        "name:ss": "IMani",
        "name:su": "Oman",
        "name:sv": "Oman",
        "name:sw": "Omani",
        "name:szl": "Uůmůn",
        "name:ta": "ஓமான்",
        "name:te": "ఒమన్",
        "name:tg": "Оман",
        "name:th": "ประเทศโอมาน",
        "name:tk": "Oman",
        "name:tl": "Oman",
        "name:tr": "Umman",
        "name:tt": "Оман",
        "name:tzl": "Oman",
        "name:udm": "Оман",
        "name:ug": "ئومان",
        "name:uk": "Оман",
        "name:ur": "سلطنت عمان",
        "name:uz": "Oman",
        "name:vi": "Oman",
        "name:vo": "Lomän",
        "name:war": "Oman",
        "name:wo": "Omaan",
        "name:wuu": "阿曼",
        "name:xal": "Оманин Нутг",
        "name:yi": "אמאן",
        "name:yo": "Oman",
        "name:zea": "Omaan",
        "name:zh": "阿曼",
        "name:zh-min-nan": "Oman",
        "name:zh-yue": "阿曼",
        "official_name:cs": "Sultanát Omán",
        "official_name:eo": "Omana Sultanlando",
        "official_name:pl": "Sułtanat Omanu",
        "ref": "OM",
        "state_code": "OM",
        "timezone": "Asia/Muscat",
        "type": "boundary",
        "wikidata": "Q842",
        "wikipedia": "en:Oman",
        "@geometry": "center"
      },
      "geometry": {
        "type": "Point",
        "coordinates": [
          56.0272885,
          21.5838173
        ]
      },
      "id": "relation/305138"
    },
    {
      "type": "Feature",
      "properties": {
        "@id": "relation/307573",
        "ISO3166-1": "PK",
        "ISO3166-1:alpha2": "PK",
        "ISO3166-1:alpha3": "PAK",
        "ISO3166-1:numeric": "586",
        "admin_level": "2",
        "border_type": "nation",
        "boundary": "administrative",
        "flag": "http://upload.wikimedia.org/wikipedia/commons/3/32/Flag_of_Pakistan.svg",
        "is_in:continent": "Asia",
        "name": "‏پاکستان‎",
        "name:ace": "Pakistan",
        "name:af": "Pakistan",
        "name:als": "Pakistan",
        "name:am": "ፓኪስታን",
        "name:an": "Pakistán",
        "name:ang": "Pacistan",
        "name:ar": "باكستان",
        "name:arc": "ܦܐܩܣܛܐܢ",
        "name:arz": "باكستان",
        "name:as": "পাকিস্তান",
        "name:ast": "Paquistán",
        "name:az": "Pakistan",
        "name:ba": "Пакистан",
        "name:bar": "Pakistan",
        "name:bat-smg": "Pakėstans",
        "name:bcl": "Pakistan",
        "name:be": "Пакістан",
        "name:be-tarask": "Пакістан",
        "name:bg": "Пакистан",
        "name:bh": "पाकिस्तान",
        "name:bjn": "Pakistan",
        "name:bn": "পাকিস্তান",
        "name:bo": "པ་ཀི་སི་ཐན",
        "name:bpy": "পাকিস্তান",
        "name:br": "Pakistan",
        "name:bs": "Pakistan",
        "name:bug": "Pakistan",
        "name:bxr": "Пакистан",
        "name:ca": "Pakistan",
        "name:cbk-zam": "Pakistan",
        "name:ce": "Пакистан",
        "name:ceb": "Pakistan",
        "name:ckb": "پاکستان",
        "name:crh": "Pakistan",
        "name:cs": "Pákistán",
        "name:csb": "Pakistan",
        "name:cv": "Пакистан",
        "name:cy": "Pakistan",
        "name:da": "Pakistan",
        "name:de": "Pakistan",
        "name:diq": "Pakıstan",
        "name:dsb": "Pakistan",
        "name:dv": "ޕާކިސްތާން",
        "name:el": "Πακιστάν",
        "name:en": "Pakistan",
        "name:eo": "Pakistano",
        "name:es": "Pakistán",
        "name:et": "Pakistan",
        "name:eu": "Pakistan",
        "name:ext": "Paquistán",
        "name:fa": "پاکستان",
        "name:fi": "Pakistan",
        "name:fiu-vro": "Pakistan",
        "name:fo": "Pakistan",
        "name:fr": "Pakistan",
        "name:frp": "Paquistan",
        "name:fy": "Pakistan",
        "name:ga": "An Phacastáin",
        "name:gag": "Pakistan",
        "name:gan": "巴基斯坦",
        "name:gd": "Pagastàn",
        "name:gl": "Paquistán",
        "name:gn": "Pakistán",
        "name:gu": "પાકિસ્તાન",
        "name:gv": "Yn Phakistaan",
        "name:ha": "Pakistan",
        "name:hak": "Pâ-kî-sṳ̂-thán",
        "name:haw": "Pakitana",
        "name:he": "פקיסטן",
        "name:hi": "पाकिस्तान",
        "name:hif": "Pakistan",
        "name:hr": "Pakistan",
        "name:hsb": "Pakistan",
        "name:ht": "Pakistan",
        "name:hu": "Pakisztán",
        "name:hy": "Պակիստան",
        "name:ia": "Pakistan",
        "name:id": "Pakistan",
        "name:ie": "Pakistan",
        "name:ilo": "Pakistan",
        "name:io": "Pakistan",
        "name:is": "Pakistan",
        "name:it": "Pakistan",
        "name:iu": "ᐸᑭᔅᑕᓐ",
        "name:ja": "パキスタン",
        "name:jbo": "kisygu'e",
        "name:jv": "Pakistan",
        "name:ka": "პაკისტანი",
        "name:kab": "Pakistan",
        "name:kbd": "Пакистэн",
        "name:ki": "Pakistan",
        "name:kk": "Пәкістан",
        "name:kl": "Pakistan",
        "name:km": "ប៉ាគីស្ថាន",
        "name:kn": "ಪಾಕಿಸ್ತಾನ",
        "name:ko": "파키스탄",
        "name:ks": "پاکِستان",
        "name:ku": "Pakistan",
        "name:kv": "Пакистан",
        "name:kw": "Pakistan",
        "name:ky": "Пакистан",
        "name:la": "Pakistania",
        "name:lb": "Pakistan",
        "name:lez": "Пакистан",
        "name:li": "Pakistan",
        "name:lij": "Pakistan",
        "name:lmo": "Pakistan",
        "name:ln": "Pakistáni",
        "name:lt": "Pakistanas",
        "name:lv": "Pakistāna",
        "name:mdf": "Пакистан",
        "name:mhr": "Пакистан",
        "name:mi": "Pakitāne",
        "name:mk": "Пакистан",
        "name:ml": "പാകിസ്താൻ",
        "name:mn": "Пакистан",
        "name:mr": "पाकिस्तान",
        "name:ms": "Pakistan",
        "name:mt": "Pakistan",
        "name:my": "ပါကစ္စတန်နိုင်ငံ",
        "name:na": "Pakistan",
        "name:nah": "Paquistan",
        "name:nap": "Pakistan",
        "name:nds": "Pakistan",
        "name:nds-nl": "Pakistan",
        "name:ne": "पाकिस्तान",
        "name:nl": "Pakistan",
        "name:nn": "Pakistan",
        "name:no": "Pakistan",
        "name:nov": "Pakistan",
        "name:nv": "Eʼeʼaahjí Naakaii Dootłʼizhí Bikéyah",
        "name:oc": "Paquistan",
        "name:or": "ପାକିସ୍ଥାନ",
        "name:os": "Пакистан",
        "name:pa": "ਪਾਕਿਸਤਾਨ",
        "name:pam": "Pakistan",
        "name:pap": "Pakistan",
        "name:pih": "Pakistaan",
        "name:pl": "Pakistan",
        "name:pms": "Pakistan",
        "name:pnb": "پاکستان",
        "name:ps": "پاکستان",
        "name:pt": "Paquistão",
        "name:qu": "Pakistan",
        "name:rmy": "Pakistan",
        "name:ro": "Pakistan",
        "name:roa-tara": "Pakistan",
        "name:ru": "Пакистан",
        "name:rue": "Пакістан",
        "name:rw": "Pakisitani",
        "name:sa": "पाकिस्तानम्",
        "name:sah": "Пакистан",
        "name:scn": "Pakistan",
        "name:sco": "Pakistan",
        "name:sd": "پاڪستان",
        "name:se": "Pakistan",
        "name:sh": "Pakistan",
        "name:si": "පාකිස්ථානය",
        "name:sk": "Pakistan",
        "name:sl": "Pakistan",
        "name:so": "Bakistaan",
        "name:sq": "Pakistani",
        "name:sr": "Пакистан",
        "name:srn": "Pakistan",
        "name:ss": "IPhakhistani",
        "name:stq": "Pakistan",
        "name:su": "Pakistan",
        "name:sv": "Pakistan",
        "name:sw": "Pakistan",
        "name:szl": "Pakistan",
        "name:ta": "பாக்கித்தான்",
        "name:te": "పాకిస్తాన్",
        "name:tg": "Покистон",
        "name:th": "ประเทศปากีสถาน",
        "name:tk": "Päkistan",
        "name:tl": "Pakistan",
        "name:tr": "Pakistan",
        "name:tt": "Пакъстан",
        "name:tzl": "Pachistan",
        "name:udm": "Пакистан",
        "name:ug": "پاكىستان",
        "name:uk": "Пакистан",
        "name:ur": "‏پاکستان‎",
        "name:uz": "Pokiston",
        "name:vec": "Pakistan",
        "name:vi": "Pakistan",
        "name:vo": "Pakistän",
        "name:wa": "Pakistan",
        "name:war": "Pakistan",
        "name:wo": "Pakistaan",
        "name:wuu": "巴基斯坦",
        "name:xal": "Сарта Паксин Орн",
        "name:xmf": "პაკისტანი",
        "name:yi": "פאקיסטאן",
        "name:yo": "Pakístàn",
        "name:zea": "Pakistan",
        "name:zh": "巴基斯坦",
        "name:zh-classical": "巴基斯坦",
        "name:zh-min-nan": "Pakistan",
        "name:zh-yue": "巴基斯坦",
        "name:zu": "IPakistani",
        "official_name:cs": "Pákistánská islámská republika",
        "official_name:eo": "Islama Respubliko de Pakistano",
        "official_name:pl": "Islamska Republika Pakistanu",
        "old_name:vi": "Hồi Quốc",
        "timezone": "Asia/Karachi",
        "type": "boundary",
        "wikidata": "Q843",
        "wikipedia": "ur:پاکستان",
        "@geometry": "center"
      },
      "geometry": {
        "type": "Point",
        "coordinates": [
          68.9966232,
          30.3117493
        ]
      },
      "id": "relation/307573"
    },
    {
      "type": "Feature",
      "properties": {
        "@id": "relation/307866",
        "ISO3166-1": "PG",
        "ISO3166-1:alpha2": "PG",
        "ISO3166-1:alpha3": "PNG",
        "ISO3166-1:numeric": "598",
        "admin_level": "2",
        "alt_name:vi": "Papua Tân Guinea;Pa-pua Niu Ghi-nê",
        "border_type": "nation",
        "boundary": "administrative",
        "flag": "http://upload.wikimedia.org/wikipedia/commons/e/e3/Flag_of_Papua_New_Guinea.svg",
        "int_name": "Papua New Guinea",
        "is_in:continent": "Oceania",
        "name": "Papua Niugini",
        "name:ace": "Papua New Guinea",
        "name:af": "Papoea-Nieu-Guinee",
        "name:als": "Papua-Neuguinea",
        "name:am": "ፓፑዋ ኒው ጊኒ",
        "name:an": "Papua y Nueva Guinea",
        "name:ar": "بابوا غينيا الجديدة",
        "name:arz": "بابوا نيو جينيا",
        "name:ast": "Papúa Nueva Guinea",
        "name:az": "Papua-Yeni Qvineya",
        "name:ba": "Папуа — Яңы Гвинея",
        "name:bar": "Papua-Neuguinea",
        "name:bat-smg": "Papua Naujuojė Gvėniejė",
        "name:bcl": "Papua Bagong Guineya",
        "name:be": "Папуа — Новая Гвінея",
        "name:be-tarask": "Папуа-Новая Гвінэя",
        "name:bg": "Папуа Нова Гвинея",
        "name:bi": "Papua New Guinea",
        "name:bn": "পাপুয়া নিউ গিনি",
        "name:bo": "པ་པུ་འ་ནིའུ་གི་ནེ།",
        "name:bpy": "পাপুয়া নিউগিনি",
        "name:br": "Papoua Ginea-Nevez",
        "name:bs": "Papua Nova Gvineja",
        "name:bxr": "Папуа-Шэнэ Гвинея",
        "name:ca": "Papua Nova Guinea",
        "name:ce": "Папуа — Керла Гвине",
        "name:ceb": "Papua New Guinea",
        "name:ckb": "پاپوا گینێی نوێ",
        "name:crh": "Papua Yañı Gvineya",
        "name:cs": "Papua Nová Guinea",
        "name:cu": "Папоуа · Нова Гвинєꙗ",
        "name:cy": "Papua Guinea Newydd",
        "name:da": "Papua Ny Guinea",
        "name:de": "Papua-Neuguinea",
        "name:diq": "Papua Gineya Newiye",
        "name:dsb": "Papua-Neuguinea",
        "name:dv": "ޕަޕުއާ ނިއު ގިނީ",
        "name:el": "Παπούα Νέα Γουινέα",
        "name:en": "Papua New Guinea",
        "name:eo": "Papuo-Nov-Gvineo",
        "name:es": "Papua-Nueva Guinea",
        "name:et": "Paapua Uus-Guinea",
        "name:eu": "Papua Ginea Berria",
        "name:ext": "Papua Nueva Guinea",
        "name:fa": "پاپوآ گینه نو",
        "name:fi": "Papua-Uusi-Guinea",
        "name:fiu-vro": "Paapua Vahtsõnõ Ginea",
        "name:fo": "Papua Nýguinea",
        "name:fr": "Papouasie-Nouvelle-Guinée",
        "name:frp": "Papoasie-Novèla-Guinê",
        "name:fy": "Papoea Nij-Guineä",
        "name:ga": "Nua-Ghuine Phapua",
        "name:gd": "Gini Nuadh Phaputhach",
        "name:gl": "Papúa Nova Guinea",
        "name:gv": "Papooey Guinea Noa",
        "name:hak": "Pâ-pu-â Néu-kí-nui-â",
        "name:he": "פפואה גינאה החדשה",
        "name:hi": "पापुआ न्यू गिनी",
        "name:hif": "Papua New Guinea",
        "name:hr": "Papua Nova Gvineja",
        "name:hsb": "Papuwa-Nowa Gineja",
        "name:ht": "Papwazi-Nouvèl-Gine",
        "name:hu": "Pápua Új-Guinea",
        "name:hy": "Պապուա Նոր Գվինեա",
        "name:ia": "Papua Nove Guinea",
        "name:id": "Papua Nugini",
        "name:ilo": "Papua Baro a Guinea",
        "name:io": "Papua-Nova-Guinea",
        "name:is": "Papúa Nýja-Gínea",
        "name:it": "Papua Nuova Guinea",
        "name:ja": "パプアニューギニア",
        "name:jv": "Papua Nugini",
        "name:ka": "პაპუა-ახალი გვინეა",
        "name:kk": "Папуа Жаңа Гвинея",
        "name:kn": "ಪಾಪುಅ ನ್ಯೂ ಗಿನಿ",
        "name:ko": "파푸아 뉴기니",
        "name:ku": "Papua Gîneya Nû",
        "name:ky": "Папуа-Жаӊы-Гвинея.",
        "name:la": "Papua Nova Guinea",
        "name:lb": "Papua-Neiguinea",
        "name:li": "Papoea-Nui-Guinea",
        "name:lij": "Papua Neuva Guinea",
        "name:lmo": "Papua Növa Guinea",
        "name:lt": "Papua Naujoji Gvinėja",
        "name:lv": "Papua-Jaungvineja",
        "name:mi": "Papua Nūkini",
        "name:mk": "Папуа Нова Гвинеја",
        "name:ml": "പാപുവ ന്യൂ ഗിനിയ",
        "name:mr": "पापुआ न्यू गिनी",
        "name:mrj": "Папуа — У Гвиней",
        "name:ms": "Papua New Guinea",
        "name:mt": "Papwa Gwinea l-Ġdida",
        "name:my": "ပါပူအာနယူးဂီနီနိုင်ငံ",
        "name:na": "Papua New Guinea",
        "name:nah": "Papua Yancuīc Guinea",
        "name:nds": "Papua-Niegguinea",
        "name:nl": "Papoea-Nieuw-Guinea",
        "name:nn": "Papua Ny-Guinea",
        "name:no": "Papua Ny-Guinea",
        "name:nv": "Páápowa Bigíní Ániidí",
        "name:oc": "Papoa-Nòva Guinèa",
        "name:os": "Папуæ — Ног Гвиней",
        "name:pa": "ਪਾਪੂਆ ਨਿਊ ਗਿਨੀ",
        "name:pam": "Papua New Guinea",
        "name:pih": "Papua Nyuu Gini",
        "name:pl": "Papua-Nowa Gwinea",
        "name:pms": "Papua Neuva Guinea",
        "name:pnb": "پاپوانیوگنی",
        "name:pt": "Papua-Nova Guiné",
        "name:qu": "Papwa Ñukini",
        "name:ro": "Papua Noua Guinee",
        "name:ru": "Папуа - Новая Гвинея",
        "name:rw": "Papuwa Nuveli Gineya",
        "name:sa": "पपुवा न्यू गिनी",
        "name:sah": "Папуа Саҥа Гуинея",
        "name:sco": "Papua New Guinea",
        "name:se": "Papua-Ođđa-Guinea",
        "name:sg": "Papû Finî Ginëe",
        "name:sh": "Papua Nova Gvineja",
        "name:simple": "Papua New Guinea",
        "name:sk": "Papua-Nová Guinea",
        "name:sl": "Papua Nova Gvineja",
        "name:sm": "Papua",
        "name:sq": "Papua Guinea e Re",
        "name:sr": "Папуа Нова Гвинеја",
        "name:su": "Papua Nugini",
        "name:sv": "Papua Nya Guinea",
        "name:sw": "Papua Guinea Mpya",
        "name:szl": "Papua-Nowo Gwinyjo",
        "name:ta": "பப்புவா நியூ கினி",
        "name:th": "ประเทศปาปัวนิวกินี",
        "name:tl": "Papua Bagong Ginea",
        "name:tpi": "Papua Niugini",
        "name:tr": "Papua Yeni Gine",
        "name:tt": "Папуа — Яңа Гвинея",
        "name:ug": "پاپۇئا يېڭى گۋىنېيە",
        "name:uk": "Папуа Нова Гвінея",
        "name:ur": "پاپوا نیو گنی",
        "name:uz": "Papua Yangi Gvineya",
        "name:vec": "Papua Nova Guinea",
        "name:vi": "Papua New Guinea",
        "name:vo": "Papuveän Nula-Gineyän",
        "name:war": "Papúa Nueva Guinea",
        "name:wo": "Papuwaasi-Gine-Gu-Bees",
        "name:xal": "Папуһасин болн Шин Гвинемудин Орн",
        "name:yo": "Papua Guinea Titun",
        "name:zh": "巴布亚新几内亚",
        "name:zh-min-nan": "Papua Sin Guinea",
        "name:zh-yue": "巴布亞新畿內亞",
        "official_name:cs": "Nezávislý stát Papua Nová Guinea",
        "type": "boundary",
        "wikidata": "Q691",
        "wikipedia": "en:Papua New Guinea",
        "@geometry": "center"
      },
      "geometry": {
        "type": "Point",
        "coordinates": [
          150.2671897,
          -6.2064657
        ]
      },
      "id": "relation/307866"
    },
    {
      "type": "Feature",
      "properties": {
        "@id": "relation/443174",
        "ISO3166-1": "PH",
        "ISO3166-1:alpha2": "PH",
        "ISO3166-1:alpha3": "PHL",
        "ISO3166-1:numeric": "608",
        "admin_level": "2",
        "boundary": "administrative",
        "flag": "http://upload.wikimedia.org/wikipedia/commons/9/99/Flag_of_the_Philippines.svg",
        "history": "retrieved using undelete JOSM plugin",
        "is_in:continent": "Asia",
        "name": "Philippines",
        "name:ace": "Filipina",
        "name:af": "Filippyne",
        "name:als": "Philippinen",
        "name:am": "ፊሊፒንስ",
        "name:an": "Filipinas",
        "name:ang": "Philippines",
        "name:ar": "الفلبين",
        "name:arc": "ܦܝܠܝܦܝܢܝܐ",
        "name:arz": "الفيليبين",
        "name:ast": "Filipines",
        "name:az": "Filippin",
        "name:bar": "Philippinen",
        "name:bat-smg": "Fėlėpinā",
        "name:bcl": "Filipinas",
        "name:be": "Філіпіны",
        "name:be-tarask": "Філіпіны",
        "name:bg": "Филипини",
        "name:bjn": "Pilipina",
        "name:bn": "ফিলিপাইন",
        "name:bo": "ཧྥི་ལི་པིན།",
        "name:bpy": "ফিলিপাইন",
        "name:br": "Filipinez",
        "name:bs": "Filipini",
        "name:bug": "Filipina",
        "name:bxr": "Филиппин",
        "name:ca": "Filipines",
        "name:cbk-zam": "Filipinas",
        "name:cdo": "Hĭ-lĭ-pĭng",
        "name:ce": "Филиппин",
        "name:ceb": "Pilipinas",
        "name:ckb": "فلیپین",
        "name:crh": "Filippinler",
        "name:cs": "Filipíny",
        "name:csb": "Filipinë",
        "name:cv": "Филиппин",
        "name:cy": "Pilipinas",
        "name:da": "Filippinerne",
        "name:de": "Philippinen",
        "name:diq": "Fılipin",
        "name:dv": "ފިލިޕީންސް",
        "name:el": "Φιλιππίνες",
        "name:en": "Philippines",
        "name:eo": "Filipinoj",
        "name:es": "Filipinas",
        "name:et": "Filipiinid",
        "name:eu": "Filipinak",
        "name:ext": "Hilipinas",
        "name:fa": "فیلیپین",
        "name:fi": "Filippiinit",
        "name:fiu-vro": "Filipiiniq",
        "name:fo": "Filipsoyggjar",
        "name:fr": "Philippines",
        "name:frp": "Felipines",
        "name:fy": "Filipinen",
        "name:ga": "Na hOileáin Fhilipíneacha",
        "name:gan": "菲律賓",
        "name:gd": "Na h-Eileanan Filipineach",
        "name:gl": "Filipinas",
        "name:gn": "Filipina",
        "name:gu": "ફીલીપાઈન્સ",
        "name:gv": "Ny h-Ellanyn Philippeenagh",
        "name:hak": "Fî-li̍t-pîn",
        "name:haw": "ʻĀina Pilipino",
        "name:he": "הפיליפינים",
        "name:hi": "फ़िलीपीन्स",
        "name:hif": "Philippines",
        "name:hr": "Filipini",
        "name:hsb": "Filipiny",
        "name:ht": "Filipin",
        "name:hu": "Fülöp-szigetek",
        "name:hy": "Ֆիլիպիններ",
        "name:ia": "Philippinas",
        "name:id": "Filipina",
        "name:ie": "Filipines",
        "name:ilo": "Pilipinas",
        "name:io": "Filipini",
        "name:is": "Filippseyjar",
        "name:it": "Filippine",
        "name:ja": "フィリピン",
        "name:jbo": "pilipinas",
        "name:jv": "Filipina",
        "name:ka": "ფილიპინები",
        "name:kbd": "Филипинхэр",
        "name:kk": "Филиппиндер",
        "name:kl": "Philippines",
        "name:km": "ហ្វីលីពីន",
        "name:kn": "ಫಿಲಿಪ್ಪೀನ್ಸ್",
        "name:ko": "필리핀",
        "name:krc": "Филиппинле",
        "name:ku": "Filîpîn",
        "name:kv": "Филиппинъяс",
        "name:kw": "Filipinys",
        "name:la": "Philippinae",
        "name:lb": "Philippinen",
        "name:li": "Filipiene",
        "name:lij": "Filippinn-e",
        "name:lmo": "Filipinn",
        "name:lt": "Filipinai",
        "name:lv": "Filipīnas",
        "name:map-bms": "Filipina",
        "name:mg": "Filipina",
        "name:mhr": "Филиппин-влак",
        "name:mk": "Филипини",
        "name:ml": "ഫിലിപ്പീൻസ്",
        "name:mn": "Филиппин",
        "name:mr": "फिलिपाईन्स",
        "name:ms": "Filipina",
        "name:my": "ဖိလစ်ပိုင်နိုင်ငံ",
        "name:na": "Eben Piripin",
        "name:nah": "Filipinas",
        "name:nds": "Philippinen",
        "name:ne": "फिलिपिन्स",
        "name:new": "फिलिपिन्स",
        "name:nl": "Filipijnen",
        "name:nn": "Filippinane",
        "name:no": "Filippinene",
        "name:nov": "Filipines",
        "name:nv": "Kéyah Dańlíinii",
        "name:oc": "Filipinas",
        "name:or": "ଫିଲିପାଇନ୍ସ",
        "name:os": "Филиппинтæ",
        "name:pa": "ਫ਼ਿਲਪੀਨਜ਼",
        "name:pag": "Filipinas",
        "name:pam": "Filipinas",
        "name:pap": "Filipinas",
        "name:pih": "Felapiins",
        "name:pl": "Filipiny",
        "name:pms": "Filipin-e",
        "name:pnb": "فلپائن",
        "name:ps": "فلېپين",
        "name:pt": "Filipinas",
        "name:qu": "Philipinakuna",
        "name:ro": "Filipine",
        "name:ru": "Филиппины",
        "name:rw": "Filipine",
        "name:sa": "कलिंगद्वीप",
        "name:sah": "Пилипиин",
        "name:sco": "Philippines",
        "name:se": "Filippiinnat",
        "name:sg": "Filipîni",
        "name:sh": "Filipini",
        "name:si": "පිලිපීනය",
        "name:simple": "Philippines",
        "name:sk": "Filipíny",
        "name:sl": "Filipini",
        "name:sm": "Filipaina",
        "name:so": "Filibiin",
        "name:sq": "Filipinet",
        "name:sr": "Филипини",
        "name:ss": "IFiliphayi",
        "name:su": "Pilipina",
        "name:sv": "Filippinerna",
        "name:sw": "Ufilipino",
        "name:szl": "Filipiny",
        "name:ta": "பிலிப்பீன்சு",
        "name:te": "ఫిలిప్పీన్స్",
        "name:tet": "Filipinas",
        "name:tg": "Филиппин",
        "name:th": "ประเทศฟิลิปปินส์",
        "name:tk": "Filippinler",
        "name:tl": "Pilipinas",
        "name:tr": "Filipinler",
        "name:tt": "Филиппиннар",
        "name:udm": "Филиппин",
        "name:ug": "فىلىپپىن",
        "name:uk": "Філіппіни",
        "name:ur": "فلپائن",
        "name:uz": "Filippin",
        "name:vec": "Filipine",
        "name:vep": "Filippinad",
        "name:vi": "Philippines",
        "name:vo": "Filipuäns",
        "name:wa": "Filipenes",
        "name:war": "Pilipinas",
        "name:wo": "Filipiin",
        "name:wuu": "菲律宾",
        "name:xal": "Пилипмудин Орн",
        "name:yi": "פיליפינען",
        "name:yo": "Filipínì",
        "name:za": "Feihlizbinh",
        "name:zea": "Filepijn’n",
        "name:zh": "菲律賓",
        "name:zh-classical": "菲律賓",
        "name:zh-min-nan": "Hui-li̍p-pin",
        "name:zh-yue": "菲律賓",
        "note": "do not modify nor delete this boundary unless a consensus is reached",
        "official_name": "Repúblika ng Pilipinas",
        "official_name:cs": "Filipínská republika",
        "official_name:en": "Republic of the Philippines",
        "official_name:pt": "República das Filipinas",
        "population": "101562300",
        "source:population": "Philippine Statistics Authority 2015 Estimate (https://psa.gov.ph/sites/default/files/attachments/hsd/pressrelease/Table1_8.pdf)",
        "timezone": "Asia/Manila",
        "type": "boundary",
        "wikidata": "Q928",
        "wikipedia": "en:Philippines",
        "@geometry": "center"
      },
      "geometry": {
        "type": "Point",
        "coordinates": [
          120.4512353,
          12.7687935
        ]
      },
      "id": "relation/443174"
    },
    {
      "type": "Feature",
      "properties": {
        "@id": "relation/556706",
        "ISO3166-1": "NZ",
        "ISO3166-1:alpha2": "NZ",
        "ISO3166-1:alpha3": "NZL",
        "ISO3166-1:numeric": "554",
        "admin_level": "2",
        "boundary": "administrative",
        "flag": "http://upload.wikimedia.org/wikipedia/commons/3/3e/Flag_of_New_Zealand.svg",
        "is_in:continent": "Oceania",
        "name": "New Zealand/Aotearoa",
        "name:ace": "Seulandia Barô",
        "name:af": "Nieu-Seeland",
        "name:als": "Neuseeland",
        "name:am": "ኒው ዚላንድ",
        "name:an": "Nueva Zelanda",
        "name:ang": "Nīwe Sǣland",
        "name:ar": "نيوزيلندا",
        "name:arc": "ܢܝܘ ܙܝܠܢܕ",
        "name:arz": "نيوزيلاندا",
        "name:ast": "Nueva Zelanda",
        "name:az": "Yeni Zelandiya",
        "name:ba": "Яңы Зеландия",
        "name:bar": "Neiseeland",
        "name:bat-smg": "Naujuojė Zelandėjė",
        "name:bcl": "Nueva Zelanda",
        "name:be": "Новая Зеландыя",
        "name:be-tarask": "Новая Зэляндыя",
        "name:bg": "Нова Зеландия",
        "name:bi": "Niu Zilan",
        "name:bm": "New Zealand",
        "name:bn": "নিউজিল্যান্ড",
        "name:bo": "ནིའུ་ཛི་ལེན་ཌི།",
        "name:bpy": "নিউজিল্যান্ড",
        "name:br": "Zeland-Nevez",
        "name:bs": "Novi Zeland",
        "name:bxr": "Шэнэ Зеланд",
        "name:ca": "Nova Zelanda",
        "name:cdo": "Sĭng-să̤-làng",
        "name:ceb": "New Zealand",
        "name:ckb": "نیوزیلاند",
        "name:crh": "Yañı Zelandiya",
        "name:cs": "Nový Zéland",
        "name:csb": "Nowô Zelandzkô",
        "name:cv": "Çĕнĕ Зеланди",
        "name:cy": "Seland Newydd",
        "name:da": "New Zealand",
        "name:de": "Neuseeland",
        "name:diq": "Zelandaya Newiye",
        "name:dsb": "Nowoseelandska",
        "name:dv": "ނިއުޒިލޭންޑު",
        "name:dz": "ནིའུ་ཛི་ལེནཌ་",
        "name:el": "Νέα Ζηλανδία",
        "name:en": "New Zealand",
        "name:eo": "Nov-Zelando",
        "name:es": "Nueva Zelanda",
        "name:et": "Uus-Meremaa",
        "name:eu": "Zeelanda Berria",
        "name:ext": "Nueva Zelanda",
        "name:fa": "نیوزیلند",
        "name:fi": "Uusi-Seelanti",
        "name:fiu-vro": "Vahtsõnõ Meremaa",
        "name:fo": "Nýsæland",
        "name:fr": "Nouvelle-Zélande",
        "name:frp": "Novèla-Zèlande",
        "name:frr": "Nei-Sialun",
        "name:fy": "Nij-Seelân",
        "name:ga": "An Nua-Shéalainn",
        "name:gag": "Eni Zelandiya",
        "name:gd": "Sealainn Nuadh",
        "name:gl": "Nova Zelandia",
        "name:gv": "Yn Teelynn Noa",
        "name:hak": "Néu Sî-làn",
        "name:he": "ניו זילנד",
        "name:hi": "न्यूज़ीलैण्ड",
        "name:hif": "New Zealand",
        "name:hr": "Novi Zeland",
        "name:hsb": "Nowoseelandska",
        "name:ht": "Nouvèl Zelann",
        "name:hu": "Új-Zéland",
        "name:hy": "Նոր Զելանդիա",
        "name:ia": "Nove Zelanda",
        "name:id": "Selandia Baru",
        "name:ie": "Nov-Zeland",
        "name:ilo": "Baro a Selanda",
        "name:io": "Nova-Zelando",
        "name:is": "Nýja-Sjáland",
        "name:it": "Nuova Zelanda",
        "name:ja": "ニュージーランド",
        "name:jbo": "zis. poi cnino",
        "name:jv": "Sélandia Anyar",
        "name:ka": "ახალი ზელანდია",
        "name:kbd": "Зелэнд ЩӀэ",
        "name:kk": "Жаңа Зеландия",
        "name:kl": "New Zealand",
        "name:km": "នូវែលសេឡង់",
        "name:kn": "ನ್ಯೂ ಜೀಲ್ಯಾಂಡ್",
        "name:ko": "뉴질랜드",
        "name:krc": "Джангы Зеландия",
        "name:ku": "Nû Zelenda",
        "name:kv": "Выль Зеландия",
        "name:kw": "Mordir Nowydh",
        "name:la": "Nova Zelandia",
        "name:lad": "Mueva Zelanda",
        "name:lb": "Neiséiland",
        "name:lez": "ЦӀийи Зеландия",
        "name:li": "Nui-Zieland",
        "name:lij": "Neuva Selanda",
        "name:lmo": "Növa Zelanda",
        "name:lo": "ປະເທດນູແວນ ເຊລັງ",
        "name:lt": "Naujoji Zelandija",
        "name:lv": "Jaunzēlande",
        "name:mi": "Aotearoa",
        "name:mk": "Нов Зеланд",
        "name:ml": "ന്യൂസീലൻഡ്",
        "name:mn": "Шинэ Зеланд",
        "name:mr": "न्यू झीलँड",
        "name:mrj": "У Зеланди",
        "name:ms": "New Zealand",
        "name:mt": "New Zealand",
        "name:my": "နယူးဇီလန်နိုင်ငံ",
        "name:na": "Niu Djiran",
        "name:nah": "Yancuīc Zetlālpan",
        "name:nds": "Niegseeland",
        "name:nds-nl": "Ni'j-Zeelaand",
        "name:ne": "न्यू जील्याण्ड",
        "name:new": "न्यु जिल्यान्द",
        "name:nl": "Nieuw-Zeeland",
        "name:nn": "New Zealand",
        "name:no": "New Zealand",
        "name:nrm": "Nouvelle Zélande",
        "name:oc": "Nòva Zelanda",
        "name:or": "ନିଉଜିଲ୍ୟାଣ୍ଡ",
        "name:os": "Ног Зеланди",
        "name:pa": "ਨਿਊਜ਼ੀਲੈਂਡ",
        "name:pam": "New Zealand",
        "name:pih": "Nyuu Ziilan",
        "name:pl": "Nowa Zelandia",
        "name:pms": "Neuva Zelanda",
        "name:pnb": "نیوزی لینڈ",
        "name:pnt": "Νέα Ζηλανδία",
        "name:pt": "Nova Zelândia",
        "name:qu": "Musuq Silanda",
        "name:rm": "Nova Zelanda",
        "name:ro": "Noua Zeelandă",
        "name:roa-rup": "Naua Zeelanda",
        "name:roa-tara": "Nuève Zelanne",
        "name:ru": "Новая Зеландия",
        "name:rue": "Новый Зеланд",
        "name:rw": "Nuveli Zelande",
        "name:sa": "न्यू-जीलैंड",
        "name:sah": "Саҥа Зеландия",
        "name:scn": "Nova Zilanna",
        "name:sco": "New Zealand",
        "name:se": "Ođđa-Selánda",
        "name:sh": "Novi Zeland",
        "name:simple": "New Zealand",
        "name:sk": "Nový Zéland",
        "name:sl": "Nova Zelandija",
        "name:sm": "Niu Sila",
        "name:so": "New Zealand",
        "name:sq": "Zelanda e Re",
        "name:sr": "Нови Зеланд",
        "name:su": "Selandia Anyar",
        "name:sv": "Nya Zeeland",
        "name:sw": "New Zealand",
        "name:szl": "Nowo Zylandyjo",
        "name:ta": "நியூசிலாந்து",
        "name:te": "న్యూజీలాండ్",
        "name:tg": "Зеландияи Нав",
        "name:th": "ประเทศนิวซีแลนด์",
        "name:tk": "Täze Zelandiýa",
        "name:tl": "New Zealand",
        "name:tok": "ma Nusilan",
        "name:tpi": "Niu Silan",
        "name:tr": "Yeni Zelanda",
        "name:tt": "Яңа Зеландия",
        "name:ty": "Aotearoa",
        "name:tzl": "Noveu Zaiphäts",
        "name:ug": "يېڭى زېلاندىيە",
        "name:uk": "Нова Зеландія",
        "name:ur": "نیوزی لینڈ",
        "name:uz": "Yangi Zelandiya",
        "name:vec": "Nova Zełanda",
        "name:vep": "Uz' Zelandii",
        "name:vi": "New Zealand",
        "name:vls": "Nieuw-Zêeland",
        "name:vo": "Nula-Seleäns",
        "name:wa": "Nouve Zelande",
        "name:war": "New Zealand",
        "name:wo": "Seland-Gu-Bees",
        "name:wuu": "新西兰",
        "name:xal": "Шинзелендин Орн",
        "name:xmf": "ახალი ზელანდია",
        "name:yi": "ניו זילאנד",
        "name:yo": "New Zealand",
        "name:za": "Saen Saelanz",
        "name:zea": "Nieuw-Zeêland",
        "name:zh": "新西兰",
        "name:zh-classical": "紐西蘭",
        "name:zh-min-nan": "Sin Jia̍t-lân-jia",
        "name:zh-yue": "紐西蘭",
        "name:zu": "INyuzilandi",
        "population": "4509900",
        "source:population": "Statistics NZ 2014",
        "timezone": "Pacific/Auckland",
        "type": "boundary",
        "website": "https://www.govt.nz/",
        "website:tourism": "http://www.newzealand.com",
        "wikidata": "Q664",
        "wikipedia": "en:New Zealand",
        "@geometry": "center"
      },
      "geometry": {
        "type": "Point",
        "coordinates": [
          0.1526032,
          -40.9258495
        ]
      },
      "id": "relation/556706"
    },
    {
      "type": "Feature",
      "properties": {
        "@id": "relation/571805",
        "ISO3166-1": "PW",
        "ISO3166-1:alpha2": "PW",
        "ISO3166-1:alpha3": "PLW",
        "ISO3166-1:numeric": "585",
        "admin_level": "2",
        "boundary": "administrative",
        "flag": "http://upload.wikimedia.org/wikipedia/commons/4/48/Flag_of_Palau.svg",
        "is_in:continent": "Oceania",
        "name": "Belau",
        "name:cs": "Palau",
        "name:de": "Palau",
        "name:en": "Palau",
        "name:eo": "Palaŭo",
        "name:fr": "Palaos",
        "name:hr": "Palau",
        "name:ia": "Palau",
        "name:io": "Palau",
        "name:jbo": "belaus",
        "name:lt": "Palau",
        "name:pl": "Palau",
        "name:ru": "Палау",
        "name:sk": "Palau",
        "name:sl": "Palau",
        "name:sr": "Палау",
        "name:ta": "பலாவு",
        "name:uk": "Палау",
        "name:vi": "Palau",
        "name:vo": "Palauäns",
        "name:zh": "帛琉",
        "official_name:cs": "Republika Palau",
        "timezone": "Pacific/Palau",
        "type": "boundary",
        "wikidata": "Q695",
        "wikipedia": "en:Palau",
        "@geometry": "center"
      },
      "geometry": {
        "type": "Point",
        "coordinates": [
          132.9200098,
          5.485
        ]
      },
      "id": "relation/571805"
    },
    {
      "type": "Feature",
      "properties": {
        "@id": "relation/1741311",
        "ISO3166-1": "RS",
        "ISO3166-1:alpha2": "RS",
        "ISO3166-1:alpha3": "SRB",
        "ISO3166-1:numeric": "688",
        "admin_level": "2",
        "alt_name:eo": "Serbio",
        "boundary": "administrative",
        "flag": "http://upload.wikimedia.org/wikipedia/commons/f/ff/Flag_of_Serbia.svg",
        "int_name": "Serbia",
        "is_in:continent": "Europe",
        "name": "Србија",
        "name:ace": "Sèrbia",
        "name:af": "Serwië",
        "name:als": "Serbien",
        "name:am": "ሰርቢያ",
        "name:an": "Serbia",
        "name:ang": "Serbia",
        "name:ar": "صربيا",
        "name:arc": "ܣܪܒܝܐ",
        "name:arz": "صيربيا",
        "name:ast": "Serbia",
        "name:ay": "Sirwiya",
        "name:az": "Serbiya",
        "name:ba": "Сербия",
        "name:bar": "Serbien",
        "name:bat-smg": "Serbėjė",
        "name:bcl": "Serbya",
        "name:be": "Сербія",
        "name:be-tarask": "Сэрбія",
        "name:bg": "Сърбия",
        "name:bi": "Serbia",
        "name:bn": "সার্বিয়া",
        "name:bo": "སེར་བྷི་ཡ།",
        "name:bpy": "সার্বিয়া",
        "name:br": "Serbia",
        "name:bs": "Srbija",
        "name:bxr": "Серби",
        "name:ca": "Sèrbia",
        "name:cbk-zam": "Serbia",
        "name:ce": "Серби",
        "name:ceb": "Serbya",
        "name:chr": "ᏒᏈᏯ",
        "name:chy": "Serbia",
        "name:ckb": "سربیا",
        "name:co": "Serbia",
        "name:crh": "Sırbistan",
        "name:cs": "Srbsko",
        "name:csb": "Serbskô",
        "name:cu": "Срьбїꙗ",
        "name:cv": "Серби",
        "name:cy": "Serbia",
        "name:da": "Serbien",
        "name:de": "Serbien",
        "name:diq": "Sırbıstan",
        "name:dsb": "Serbiska",
        "name:dv": "ސާބިއާ",
        "name:ee": "Serbia",
        "name:el": "Σερβία",
        "name:en": "Serbia",
        "name:eo": "Serbujo",
        "name:es": "Serbia",
        "name:et": "Serbia",
        "name:eu": "Serbia",
        "name:ext": "Sérbia",
        "name:fa": "صربستان",
        "name:fi": "Serbia",
        "name:fiu-vro": "Serbiä",
        "name:fo": "Serbia",
        "name:fr": "Serbie",
        "name:frp": "Sèrbie",
        "name:frr": "Serbien",
        "name:fy": "Servje",
        "name:ga": "An tSeirbia",
        "name:gag": "Serbiya",
        "name:gd": "An t-Sèirb",
        "name:gl": "Serbia",
        "name:gn": "Sevia",
        "name:gv": "Yn Serb",
        "name:haw": "Seripia",
        "name:he": "סרביה",
        "name:hi": "सर्बिया",
        "name:hif": "Serbia",
        "name:hr": "Srbija",
        "name:hsb": "Serbiska",
        "name:ht": "Sèbi",
        "name:hu": "Szerbia",
        "name:hy": "Սերբիա",
        "name:ia": "Serbia",
        "name:id": "Serbia",
        "name:ie": "Serbia",
        "name:ilo": "Serbia",
        "name:io": "Serbia",
        "name:is": "Serbía",
        "name:it": "Serbia",
        "name:ja": "セルビア",
        "name:jbo": "serbias",
        "name:jv": "Serbia",
        "name:ka": "სერბეთი",
        "name:kaa": "Serbiya",
        "name:kab": "Serbi",
        "name:kbd": "Сербиэ",
        "name:kg": "Serbie",
        "name:kk": "Сербия",
        "name:kl": "Serbia",
        "name:ko": "세르비아",
        "name:koi": "Сӧрбия",
        "name:krc": "Сербия",
        "name:ksh": "Serbien",
        "name:ku": "Serbistan",
        "name:kv": "Сербия",
        "name:kw": "Serbi",
        "name:ky": "Сербия",
        "name:la": "Serbia",
        "name:lad": "Serbia",
        "name:lb": "Serbien",
        "name:li": "Servië",
        "name:lij": "Serbia",
        "name:lmo": "Serbia",
        "name:ln": "Serbia",
        "name:lt": "Serbija",
        "name:ltg": "Serbeja",
        "name:lv": "Serbija",
        "name:mdf": "Сербие",
        "name:mg": "Serbia",
        "name:mhr": "Сербий",
        "name:mi": "Serbia",
        "name:mk": "Србија",
        "name:ml": "സെർബിയ",
        "name:mn": "Серби",
        "name:mr": "सर्बिया",
        "name:ms": "Serbia",
        "name:mt": "Serbja",
        "name:my": "ဆားဘီးယားနိုင်ငံ",
        "name:na": "Terbiya",
        "name:nah": "Serbia",
        "name:nap": "Serbia",
        "name:nds": "Serbien",
        "name:nds-nl": "Servië",
        "name:ne": "सर्बिया",
        "name:nl": "Servië",
        "name:nn": "Serbia",
        "name:no": "Serbia",
        "name:nov": "Serbia",
        "name:nrm": "Sèrbie",
        "name:oc": "Serbia",
        "name:or": "ସର୍ବିଆ",
        "name:os": "Серби",
        "name:pa": "ਸਰਬੀਆ",
        "name:pap": "Serbia",
        "name:pcd": "Serbie",
        "name:pih": "Serbya",
        "name:pl": "Serbia",
        "name:pms": "Serbia",
        "name:pnb": "سربیا",
        "name:pnt": "Σερβία",
        "name:ps": "سربيا",
        "name:pt": "Sérvia",
        "name:qu": "Sirbya",
        "name:rm": "Serbia",
        "name:ro": "Serbia",
        "name:roa-rup": "Sărghia",
        "name:roa-tara": "Serbie",
        "name:ru": "Сербия",
        "name:rue": "Сербія",
        "name:rw": "Seribiya",
        "name:sa": "सर्बिया",
        "name:sah": "Сербия",
        "name:sc": "Sèrbia",
        "name:scn": "Serbia",
        "name:sco": "Serbie",
        "name:se": "Serbia",
        "name:sh": "Srbija",
        "name:sk": "Srbsko",
        "name:sl": "Srbija",
        "name:sm": "Serbia",
        "name:so": "Serbia",
        "name:sq": "Serbia",
        "name:sr": "Србија",
        "name:sr-Latn": "Srbija",
        "name:ss": "ISebhiya",
        "name:st": "Serbia",
        "name:stq": "Serbien",
        "name:su": "Sérbia",
        "name:sv": "Serbien",
        "name:sw": "Serbia",
        "name:szl": "Syrbijo",
        "name:ta": "செர்பியா",
        "name:te": "సెర్బియా",
        "name:tg": "Сербия",
        "name:th": "ประเทศเซอร์เบีย",
        "name:tk": "Serbiýa",
        "name:tl": "Serbiya",
        "name:tpi": "Sebia",
        "name:tr": "Sırbistan",
        "name:tt": "Сербия",
        "name:tw": "Serbia",
        "name:ty": "Terepia",
        "name:tzl": "Siarvia",
        "name:ug": "Sérbiye",
        "name:uk": "Сербія",
        "name:ur": "سربیا",
        "name:uz": "Serbiya",
        "name:vec": "Servia",
        "name:vep": "Serbii",
        "name:vi": "Serbia",
        "name:vls": "Servië",
        "name:vo": "Särbän",
        "name:war": "Serbia",
        "name:wo": "Seerbi",
        "name:wuu": "塞尔维亚",
        "name:xal": "Серпудин Орн",
        "name:xmf": "სერბეთი",
        "name:yi": "סערביע",
        "name:yo": "Sérbíà",
        "name:zea": "Servië",
        "name:zh": "塞爾維亞",
        "name:zh-classical": "塞爾維亞",
        "name:zh-min-nan": "Srbija",
        "name:zh-yue": "塞爾維亞",
        "name:zu": "ISerbiya",
        "official_name": "Република Србија",
        "official_name:cs": "Srbská republika",
        "official_name:de": "Republik Serbien",
        "official_name:el": "Δημοκρατία της Σερβίας",
        "official_name:en": "Republic of Serbia",
        "official_name:eo": "Respubliko Serbujo",
        "official_name:fr": "République de Serbie",
        "official_name:sr": "Република Србија",
        "official_name:sr-Latn": "Republika Srbija",
        "timezone": "Europe/Belgrade",
        "type": "boundary",
        "wikidata": "Q403",
        "@geometry": "center"
      },
      "geometry": {
        "type": "Point",
        "coordinates": [
          20.9102983,
          44.211148
        ]
      },
      "id": "relation/1741311"
    },
    {
      "type": "Feature",
      "properties": {
        "@id": "relation/2185375",
        "ISO3166-1": "PN",
        "ISO3166-1:alpha2": "PN",
        "ISO3166-1:alpha3": "PCN",
        "ISO3166-1:numeric": "612",
        "admin_level": "2",
        "boundary": "administrative",
        "flag": "http://upload.wikimedia.org/wikipedia/commons/8/88/Flag_of_the_Pitcairn_Islands.svg",
        "is_in:continent": "Oceania",
        "maritime": "yes",
        "name": "Pitcairn Islands",
        "name:cs": "Pitcairnovy ostrovy",
        "name:de": "Pitcairninseln",
        "name:en": "Pitcairn Islands",
        "name:eo": "Pitkarna Insularo",
        "name:fr": "Îles Pitcairn",
        "name:hr": "Pitcairnovo Otočje",
        "name:lt": "Pitkerno salos",
        "name:ru": "Острова Питкэрн",
        "name:uk": "Острови Піткерн",
        "place": "archipelago",
        "timezone": "Pacific/Pitcairn",
        "type": "boundary",
        "wikidata": "Q35672",
        "wikipedia": "en:Pitcairn Islands",
        "@geometry": "center"
      },
      "geometry": {
        "type": "Point",
        "coordinates": [
          -127.7612601,
          -24.4981252
        ]
      },
      "id": "relation/2185375"
    },
    {
      "type": "Feature",
      "properties": {
        "@id": "relation/3406826",
        "ISO3166-1": "PM",
        "ISO3166-1:alpha2": "PM",
        "ISO3166-1:alpha3": "SPM",
        "ISO3166-1:numeric": "666",
        "ISO3166-2": "FR-PM",
        "admin_level": "3",
        "border_type": "territorial",
        "boundary": "administrative",
        "currency": "EUR",
        "description": "France, collectivités d'outre-mer, territoires régis par l’article 74 de la Constitution",
        "flag": "http://upload.wikimedia.org/wikipedia/commons/c/c3/Flag_of_France.svg",
        "int_name": "Saint Pierre and Miquelon",
        "is_in:continent": "North America",
        "is_in:country": "France",
        "is_in:country_code": "FR",
        "name": "Saint-Pierre-et-Miquelon",
        "name:af": "Saint-Pierre et Miquelon",
        "name:ak": "Saint Pierre ne Miquelon",
        "name:am": "ቅዱስ ፒዬር እና ሚኩኤሎን",
        "name:ar": "سان بيار وميكلون",
        "name:ast": "Saint Pierre y Miquelon",
        "name:az": "Seynt Piyer və Mikelon",
        "name:be": "Святы П’ер і Міквелон",
        "name:bg": "Сен Пиер и Мигелон",
        "name:bm": "Piyɛri-Senu-ni-Mikelɔŋ",
        "name:bn": "সেন্ট পিয়ের ও মিকুয়েলন",
        "name:br": "Sant-Pêr-ha-Mikelon",
        "name:bs": "Sen Pjer i Mikelon",
        "name:ca": "Saint-Pierre i Miquelon",
        "name:chr": "ᏎᏂᏘ ᏈᏓ ᎠᎴ ᎻᏇᎶᏂ",
        "name:cs": "Saint-Pierre a Miquelon",
        "name:cy": "Saint Pierre a Miquelon",
        "name:da": "Saint Pierre og Miquelon",
        "name:de": "Saint-Pierre und Miquelon",
        "name:dz": "སིནཊ་པི་ཡེར་ ཨེནཌ་ མིཀོ་ལེན",
        "name:ee": "Saint Pierre kple Mikelɔn nutome",
        "name:el": "Άγιος Πέτρος και Μικελόν",
        "name:en": "Saint Pierre and Miquelon",
        "name:eo": "Sankta-Piero kaj Mikelono",
        "name:es": "San Pedro y Miguelón",
        "name:et": "Saint Pierre ja Miquelon",
        "name:eu": "Saint-Pierre eta Mikelune",
        "name:fa": "سنت پیر و میکلون",
        "name:ff": "See Piyeer e Mikeloo",
        "name:fi": "Saint-Pierre ja Miquelon",
        "name:fo": "Saint Pierre og Miquelon",
        "name:fr": "Saint-Pierre-et-Miquelon",
        "name:fur": "San Pierre e Miquelon",
        "name:ga": "Saint Pierre agus Miquelon",
        "name:gd": "Saint Pierre is Miquelon",
        "name:gl": "San Pedro e Miguelón",
        "name:gu": "સેંટ પીએરે એન્ડ મિકીલોન",
        "name:ha": "San Piyar Da Mikelan",
        "name:he": "סנט פייר ומיקלון",
        "name:hi": "सेंट पिएरे और मिक्वेलन",
        "name:hr": "Sveti Petar i Mikelon",
        "name:hu": "Saint-Pierre és Miquelon",
        "name:id": "Saint Pierre dan Miquelon",
        "name:is": "Sankti Pierre og Miquelon",
        "name:it": "Saint-Pierre e Miquelon",
        "name:ja": "サンピエール島・ミクロン島",
        "name:ka": "სენტ-პიერი და მიქელონი",
        "name:kab": "San Pyar d Miklun",
        "name:ki": "Santapieri na Mikeloni",
        "name:kl": "Saint Pierre aamma Miquelon",
        "name:km": "សង់ព្យែរ និង​មីគីឡុង",
        "name:kn": "ಸೇಂಟ್ ಪಿಯರೆ ಮತ್ತು ಮಿಕೆಲನ್",
        "name:ko": "세인트피에르-미케롱",
        "name:ks": "سینٛٹ پیٖری تہٕ موکیلِیَن",
        "name:ksh": "Zint Pjäär un Mikelong",
        "name:lg": "Senti Piyere ne Mikeloni",
        "name:ln": "Sántu pététo mpé Mikelɔ",
        "name:lo": "ເຊັ້ນ ປີແອ ແລະ ມິເກວລອນ",
        "name:lt": "Sen Pjeras ir Mikelonas",
        "name:lv": "Senpjēra un Mikelona",
        "name:mk": "Сент Пјер и Микелан",
        "name:ml": "സെൻറ് പിറേയും മിക്വലണും",
        "name:mn": "Сент Пьер ба Микелон",
        "name:mr": "सेंट पियरे आणि मिक्वेलोन",
        "name:ms": "Saint Pierre and Miquelon",
        "name:mt": "Saint Pierre and Miquelon",
        "name:ne": "सेन्ट पिर्रे र मिक्केलोन",
        "name:nl": "Saint-Pierre en Miquelon",
        "name:nn": "St. Pierre og Miquelon",
        "name:no": "Saint-Pierre og Miquelon",
        "name:or": "ସେଣ୍ଟ ପିଏରେ ଏବଂ ମିକ୍ବାଲୋନ୍",
        "name:pl": "Saint-Pierre i Miquelon",
        "name:pt": "Saint-Pierre e Miquelon",
        "name:rm": "Saint Pierre e Miquelon",
        "name:rn": "Sempiyeri na Mikeloni",
        "name:ro": "Sfântul Pierre și Miquelon",
        "name:ru": "Сен-Пьер и Микелон",
        "name:se": "Saint Pierre ja Miquelon",
        "name:sg": "Sên-Pyêre na Mikelöon",
        "name:si": "ශාන්ත පියරේ සහ මැකෝලන්",
        "name:sk": "Saint Pierre a Miquelon",
        "name:sl": "Saint Pierre in Miquelon",
        "name:sn": "Saint Pierre and Miquelon",
        "name:so": "Saint Pierre and Miquelon",
        "name:sr": "Сен Пјер и Микелон",
        "name:sv": "Saint-Pierre och Miquelon",
        "name:sw": "Santapieri na Mikeloni",
        "name:ta": "செயின்ட் பியர் மற்றும் மிக்வேலான்",
        "name:te": "సెంట్ పియెర్ మరియు మికెలాన్",
        "name:th": "แซงปีแยร์และมีเกอลง",
        "name:ti": "ቅዱስ ፒዬር እና ሚኩኤሎን",
        "name:tl": "Santa Pierre at Miquelon",
        "name:to": "Seini Piea mo Mikaloni",
        "name:tr": "Saint-Pierre ve Miquelon",
        "name:uk": "Сен-П’єр і Мікелон",
        "name:ur": "سینٹ پیئر اور میکلیئون",
        "name:vi": "Saint-Pierre và Miquelon",
        "name:yo": "Orílẹ́ède Pẹẹri ati mikuloni",
        "name:zh": "圣皮埃尔和密克隆群岛",
        "name:zu": "i-Saint Pierre kanye ne-Miquelon",
        "official_name:cs": "Územní společenství Saint Pierre a Miquelon",
        "population": "6080",
        "ref:INSEE": "975",
        "source:population": "INSEE 2014",
        "timezone": "America/Miquelon",
        "type": "boundary",
        "wikidata": "Q34617",
        "wikipedia": "fr:Saint-Pierre-et-Miquelon",
        "@geometry": "center"
      },
      "geometry": {
        "type": "Point",
        "coordinates": [
          -56.3003147,
          46.9578587
        ]
      },
      "id": "relation/3406826"
    },
    {
      "type": "Feature",
      "properties": {
        "@id": "relation/3412620",
        "ISO3166-1": "PF",
        "ISO3166-1:alpha2": "PF",
        "ISO3166-1:alpha3": "PYF",
        "ISO3166-1:numeric": "258",
        "ISO3166-2": "FR-PF",
        "admin_level": "3",
        "border_type": "territorial",
        "boundary": "administrative",
        "currency": "XPF",
        "description": "France, collectivités d'outre-mer, territoires régis par l’article 74 de la Constitution",
        "int_name": "French Polynesia",
        "is_in:continent": "Oceania",
        "is_in:ocean": "Pacific",
        "maritime": "yes",
        "name": "Polynésie Française",
        "name:af": "Franse Polynesië",
        "name:ak": "Frɛnkye Pɔlenehyia",
        "name:am": "የፈረንሳይ ፖሊኔዢያ",
        "name:an": "Polinesia Franzesa",
        "name:ar": "بولونيزيا الفرنسية",
        "name:ast": "Polinesia Francesa",
        "name:az": "Fransa Polineziyası",
        "name:be": "Французская Палінезія",
        "name:be-tarask": "Француская Палінэзія",
        "name:bg": "Френска Полинезия",
        "name:bm": "Faransi ka polinezi",
        "name:bn": "ফরাসী পলিনেশিয়া",
        "name:bpy": "ফ্যাঞ্চ পলিনেসিয়া",
        "name:br": "Polinezia Frañs",
        "name:bs": "Francuska Polinezija",
        "name:ca": "Polinèsia Francesa",
        "name:chr": "ᎠᏂᎦᎸᏣ ᏆᎵᏂᏏᎠ",
        "name:cs": "Francouzská Polynésie",
        "name:cy": "Polynesia Ffrengig",
        "name:da": "Fransk Polynesien",
        "name:de": "Französisch-Polynesien",
        "name:dv": "ފަރަންސޭސި ޕޮލިނޭޝިއާ",
        "name:dz": "ཕྲཱནས྄་ཀྱི་པོ་ལི་ནི་ཤི་ཡ",
        "name:ee": "Frentsi Pɔlinesia nutome",
        "name:el": "Γαλλική Πολυνησία",
        "name:en": "French Polynesia",
        "name:eo": "Franca Polinezio",
        "name:es": "Polinesia Francesa",
        "name:et": "Prantsuse Polüneesia",
        "name:eu": "Frantziar Polinesia",
        "name:fa": "پلی‌نزی فرانسه",
        "name:ff": "Polinesii Farayse",
        "name:fi": "Ranskan Polynesia",
        "name:fo": "Franska Polynesia",
        "name:fr": "Polynésie française",
        "name:frp": "Polinèsie francêsa",
        "name:fur": "Polinesie francês",
        "name:fy": "Frânsk Polyneezje",
        "name:ga": "Polainéis na Fraince",
        "name:gd": "French Polynesia",
        "name:gl": "Polinesia francesa",
        "name:gu": "ફ્રેંચ પોલિનેશિયા",
        "name:ha": "Folinesiya Ta Faransa",
        "name:he": "פולינזיה הצרפתית",
        "name:hi": "फ्रेंच पोलीनेशिया",
        "name:hr": "Francuska Polinezija",
        "name:hu": "Francia Polinézia",
        "name:ia": "Polynesia francese",
        "name:id": "Polinesia Perancis",
        "name:io": "Franca Polinezia",
        "name:is": "Franska Pólýnesía",
        "name:it": "Polinesia francese",
        "name:ja": "フランス領ポリネシア",
        "name:jv": "Polinesia Perancis",
        "name:ka": "ფრანგული პოლინეზია",
        "name:kab": "Pulunizi tafransist",
        "name:ki": "Polinesia ya Ufaransa",
        "name:kk": "Франция Полинезиясы",
        "name:km": "ហ្វ្រេន​ប៉ូលី​ណេស៊ី",
        "name:kn": "ಫ್ರೆಂಚ್ ಪೋಲಿನೇಶಿಯಾ",
        "name:ko": "프랑스령 폴리네시아",
        "name:ks": "فرٛانسی پولِنیشِیا",
        "name:ksh": "Franzüüsesch Pollineesije",
        "name:ku": "Polînezyaya Fransî",
        "name:kw": "Polynesi Frynkek",
        "name:la": "Polynesia Francica",
        "name:lb": "Franséisch-Polynesien",
        "name:lg": "Polinesiya enfalansa",
        "name:lij": "Polinesia Françeise",
        "name:ln": "Polinezi ya Falánsɛ",
        "name:lo": "ເຟັນຣໂພລິນີເຊຍ",
        "name:lt": "Prancūzijos Polinezija",
        "name:lv": "Franču Polinēzija",
        "name:mg": "Polynezia frantsay",
        "name:mi": "Porinīhia Wīwī",
        "name:mk": "Француска Полинезија",
        "name:ml": "ഫ്രഞ്ച് പോളിനേഷ്യ",
        "name:mn": "Францын Полинез",
        "name:mr": "फ्रेंच पॉलिनेशिया",
        "name:ms": "Polinesia Perancis",
        "name:mt": "Polinesja Franċiża",
        "name:my": "ပြင်သစ် ပေါ်လီနေးရှား",
        "name:nb": "Fransk Polynesia",
        "name:ne": "फ्रान्सेली पोलिनेसिया",
        "name:nl": "Frans-Polynesië",
        "name:nn": "Fransk Polynesia",
        "name:oc": "Polinesia Francesa",
        "name:or": "ଫ୍ରେଞ୍ଚ ପଲିନେସିଆ",
        "name:os": "Францы Полинези",
        "name:pam": "French Polynesia",
        "name:pl": "Polinezja Francuska",
        "name:pt": "Polinésia Francesa",
        "name:qu": "Phransis Pulinisya",
        "name:rm": "Polinesia Franzosa",
        "name:rn": "Polineziya y'Abafaransa",
        "name:ro": "Polinezia Franceză",
        "name:ru": "Французская Полинезия",
        "name:se": "Frankriikka Polynesia",
        "name:sg": "Polinezïi tî farânzi",
        "name:sh": "Francuska Polinezija",
        "name:si": "ප්‍රංශ පොලිනීසියාව",
        "name:sk": "Francúzska Polynézia",
        "name:sl": "Francoska Polinezija",
        "name:smg": "Prancūzėjės Polinezėjė",
        "name:sr": "Француска Полинезија",
        "name:sv": "Franska Polynesien",
        "name:sw": "Polynesia ya Kifaransa",
        "name:ta": "பிரெஞ்சு பொலினீசியா",
        "name:te": "ఫ్రెంచ్ పోలినిషియా",
        "name:th": "เฟรนช์โปลินีเซีย",
        "name:ti": "የፈረንሳይ ፖሊኔዢያ",
        "name:to": "Polinisia fakafalanisē",
        "name:tr": "Fransız Polinezyası",
        "name:tt": "Француз Полинезиясе",
        "name:ty": "Pōrīnetia Farāni",
        "name:ug": "Fransiyige Qarashliq Polinéziye",
        "name:uk": "Французька Полінезія",
        "name:ur": "فرانسیسی پولینیشیا",
        "name:vi": "Polynésie thuộc Pháp",
        "name:wo": "Polineesi gu Faraas",
        "name:yo": "Orílẹ́ède Firenṣi Polinesia",
        "name:zh": "法属波利尼西亚",
        "name:zh-min-nan": "Hoat-kok Polynésie",
        "name:zu": "i-French Polynesia",
        "population": "268270",
        "ref:INSEE": "987",
        "type": "boundary",
        "wikidata": "Q30971",
        "wikipedia": "fr:Polynésie française",
        "@geometry": "center"
      },
      "geometry": {
        "type": "Point",
        "coordinates": [
          -144.5904294,
          -17.8791202
        ]
      },
      "id": "relation/3412620"
    },
    {
      "type": "Feature",
      "properties": {
        "@id": "relation/7117066",
        "name": "Puerto Rico",
        "name:ar": "بورتوريكو",
        "name:en": "Puerto Rico",
        "name:es": "Puerto Rico",
        "name:fr": "Porto Rico",
        "name:hu": "Puerto Rico",
        "name:pl": "Portoryko",
        "place": "island",
        "type": "multipolygon",
        "wikidata": "Q2076337",
        "wikipedia": "en:Puerto Rico",
        "wikipedia:pl": "https://pl.wikipedia.org/wiki/Portoryko",
        "@geometry": "center"
      },
      "geometry": {
        "type": "Point",
        "coordinates": [
          -66.4306222,
          18.2214242
        ]
      },
      "id": "relation/7117066"
    }
  ]
}