{
  "type": "FeatureCollection",
  "generator": "overpass-ide",
  "copyright": "The data included in this document is from www.openstreetmap.org. The data is made available under ODbL.",
  "timestamp": "2017-12-03T11:37:02Z",
  "features": [
    {
      "type": "Feature",
      "properties": {
        "@id": "relation/6847723",
        "alt_name:sc": "Sardinna",
        "name": "Sardegna",
        "name:af": "Sardinië",
        "name:am": "ሳርዲኒያ",
        "name:an": "Cerdenya",
        "name:ar": "سردينيا",
        "name:az": "Sardiniya",
        "name:be": "Сардзінія",
        "name:bg": "Сардиния",
        "name:br": "Sardigna",
        "name:bs": "Sardinija",
        "name:ca": "Sardenya",
        "name:ce": "Сардини",
        "name:cs": "Sardinie",
        "name:cv": "Сардини",
        "name:cy": "Sardinia",
        "name:da": "Sardinien",
        "name:de": "Sardinien",
        "name:el": "Σαρδηνία",
        "name:en": "Sardinia",
        "name:eo": "Sardio",
        "name:es": "Cerdeña",
        "name:et": "Sardiinia",
        "name:eu": "Sardinia",
        "name:fa": "ساردینیا",
        "name:fi": "Sardinia",
        "name:fo": "Sardinia",
        "name:fr": "Sardaigne",
        "name:fy": "Sardynje",
        "name:ga": "An tSairdín",
        "name:gd": "Sardainia",
        "name:gl": "Sardeña",
        "name:gv": "Yn Tardeen",
        "name:he": "סרדיניה",
        "name:hi": "सारडीनिया",
        "name:hr": "Sardinija",
        "name:hu": "Szardínia",
        "name:hy": "Սարդինիա",
        "name:ia": "Region Autonome Sardinia",
        "name:id": "Sardinia",
        "name:io": "Sardinia",
        "name:is": "Sardinía",
        "name:it": "Sardegna",
        "name:ja": "サルデーニャ",
        "name:jv": "Sardinia",
        "name:ka": "სარდინია",
        "name:kk": "Сардиния",
        "name:ko": "사르데냐",
        "name:ku": "Sardînya",
        "name:kw": "Sardayn",
        "name:la": "Sardinia",
        "name:lb": "Sardinien",
        "name:li": "Sardinië",
        "name:lt": "Sardinija",
        "name:lv": "Sardīnija",
        "name:mk": "Сардинија",
        "name:ml": "സാർഡീനിയ",
        "name:mr": "सार्दिनिया",
        "name:ms": "Sardinia",
        "name:nl": "Sardinië",
        "name:nn": "Sardinia",
        "name:no": "Sardinia",
        "name:oc": "Sardenha",
        "name:os": "Сардини",
        "name:pa": "ਸਾਰਦੇਞਾ",
        "name:pl": "Sardynia",
        "name:pt": "Sardenha",
        "name:ro": "Sardinia",
        "name:ru": "Сардиния",
        "name:sc": "Sardigna",
        "name:se": "Sardinia",
        "name:sk": "Sardínia",
        "name:sl": "Sardinija",
        "name:so": "Sardiiniya",
        "name:sq": "Sardenja",
        "name:sr": "Сардинија",
        "name:sv": "Sardinien",
        "name:sw": "Sardinia",
        "name:ta": "சார்தீனியா",
        "name:te": "సార్డీనియా",
        "name:th": "แคว้นปกครองตนเองซาร์ดิเนีย",
        "name:tl": "Sardinia",
        "name:tr": "Sardinya",
        "name:ug": "ساردىنىيە ئارىلى",
        "name:uk": "Сардинія",
        "name:ur": "ساردینیا",
        "name:uz": "Sardiniya",
        "name:yi": "סארדיניע",
        "name:zh": "撒丁岛",
        "place": "island",
        "type": "multipolygon",
        "wikidata": "Q1462",
        "wikipedia": "it:Sardegna",
        "@timestamp": "2017-10-21T15:17:56Z",
        "@version": "7",
        "@changeset": "53130725",
        "@user": "dan980",
        "@uid": "1240942",
        "@geometry": "center"
      },
      "geometry": {
        "type": "Point",
        "coordinates": [
          8.9798483,
          40.0615436
        ]
      },
      "id": "relation/6847723"
    }
  ]
}